SR_NUM,CONCAT_ADDRESS,SITE_NAME,STATE,CITY,POSTAL_CODE
4,,imi contact address  tbd,,,
77,620 university ave8th floorroom 206,laboratory shipment address  princess margaret hospital,ontario,toronto,m5g 2c1
78,610 university ave5th floor room 207,university health network princess margaret hospital,ontario,toronto,m5g 2m9
92,600 west 10th avenue,bc cancer agency,british columbia,vancouver,v5z 1h6
118,1276 south park street,queen elizabeth ii health science centre,nova scotia,halifax,b3h 2y9
182,546 pine west,mcgill university  jewish general hospital,quebec,montreal,h2w 1s6
183,2291 kipling avenue,manna research inc,ontario,toronto,m9w 4l6
334,600 west 10th ave,bc cancer agency vancouver centre,british columbia,vancouver,v5z 4e6
335,fairmont medical building750 west broadway ste 1315,ubc bcca research ethics board,british columbia,vancouver,v5z ij3
336,11560 university avenue,cross cancer institute,alberta,edmonton,t6g 1z2
337,3755 côte stecatherine pavillion e 8th floor,jewish general hospital  oncology pharmacy,quebec,montreal,h3t 1e2
338,2155 guy st room 231,mcgill uhccenter for applied ethics,quebec,montreal,h3h 2r9
339,687 av des pins o,royal victoria hospital rvh  mcgill university health centre muhc,quebec,montreal,h3a 1a1
340,687 pine avenue pavillion a 3rd floor,royalvictoria hospital study coordinators office,quebec,montreal,h3a 1a1
341,department of medical oncology and hematology620 university avenue 6606,princess margaret cancer centre,ontario,toronto,m5g 2m9
342,610 university avenue,university health network uhn  princess margaret cancer centre  myeloma clinic,ontario,toronto,m5g 2m9
353,610 university averoom 4115,pharmacy  university health network,ontario,toronto,m5g 2m9
354,610 university avenue,princess margaret cancer centre,ontario,toronto,m5g 2m9
355,610 university ave,university health network,ontario,toronto,m5g 2m9
423,2075 bayview avenue 2nd floor,odette cancer centersunnybrook health sciences centre,ontario,toronto,m4n 3m5
424,1276 south park st bethune building,queen elizabeth ii health sciences centre,nova scotia,halifax,b3h 2y9
494,4480 oak street rm b315,childrens  womens health centre of british columbia,vancouver,british columbia,v6h 3v4
506,600 west 10th ave,bcca centre for lymphoid cancer,british columbia,vancouver,v5z 4e6
507,11560 university ave,cross cancer institute,alberta,edmonton,t6g 1z2
508,546 pine avenue w,gerald bronfman center for clinical research in oncology,qc,montreal,h2w 1s6
509,687 pine ave west,royal victoria hospital,quebec,montreal,h3a 1a1
510,687 pine avenue west pavillion a 2nd floor,royalvictoria hospital oncology pharmacy,quebec,montreal,h3a 1a1
528,8440 112th street nw2c242 wmc,university of alberta hospital,edmonton,alberta,t6g 2b7
529,339 windemere road room b7140,lhsc  university hospital,london,ontario,n6a 5a5
726,700 university ave2nd floor north sidework station  27,data coordinator including safety reports address,ontario,toronto,m5g 1z6
727,620 university ave8th floorroom 206,ert shipment address  princess margaret hospital,ontario,toronto,m5g 2c1
728,research ethics board700 university ave,university health network research ethics board,ontario,toronto,m5g 1z5
752,200  elizabeth streeteaton north 10th floor room 243,toronto general hospital,toronto,ontario,m5g 2c4
767,600 west 10th ave,bcca centre for lymphoid cancer,british columbia,vancouver,v5z 4e6
791,2075 bayview ave room c819,sunnybrook health sciences centre ethics board,ontario,toronto,m4n 3m5
842,546 pine west,mcgill university dept of oncology,quebec,montreal,h2w 1s6
843,610 university avenue,princess margaret hospital,ontario,toronto,m5g 2m9
844,700 bay street lucliff place,princess margaret hospital,ontario,toronto,m5g 1z6
845,675 mcdermot avenue,manitoba cancer treatment and research foundation,manitoba,winnipeg,r3e 0v9
967,200  elizabeth streeteaton north 10th floor room 243,toronto general hospital,toronto,ontario,m5g 2c4
968,2647 willow street room 100,vancouver general hospital,vancouver,british columbia,v5z 3p1
980,339 windermere road b10120,lhsc  university hospital,london,ontario,n6a 5a5
1306,,hamilton health sciences corporation,,,
1403,5788 university avenue,local laboratory,nova scotia,halifax,canada b3h 1v7
1404,1278 tower road room 4430,queen elizabeth hscvg site bethune building,nova scotia,halifax,b3h 2y9
1405,1276 south park street,queen elizabeth ii qeii health sciences centrecentennial building division dalhousie university,nova scotia,halifax,b3h 2y9
1406,1276 south park street,queen elizabeth ii health sciences center,,halifax ns,
1570,,centre de recherche dermatologique du quebec metropolitain,,,
1571,,dermatrials research inc,,,
1634,1200 main st w,hamilton health sciences centre,hamilton,ontario,l8n 3z5
1643,3801 university street207j,montreal neurological institute clinical research unit,montréal,quebec,h3a 2b4
1664,,lhsc  university hospital,,,
1668,,vancouver general hospital,,,
1692,3801 university street207j,montreal neurological institute clinical research unit,montréal,quebec,h3a 2b4
1790,,zeidler ledcor centre  university of alberta,,,
1807,,chum centre de recherche,,,
1890,,the medical arts health research group,,,
1900,,skin centre for dermatology,,,
1965,,lhsc  victoria hospital,,,
1966,,university of alberta,,,
1967,,hopital maisonneuverosemont dba ciusss de lestdelîledemontréal,,,
2099,,centre de santé et de services sociaux champlaincharlesle moyne,,,
2175,610 university ave,university health network,ontario,toronto,m5g 2m9
2176,3755 rue cote stecatherine,sir mortimer b davis jewish general hospital,quebec,montreal,h3t 1e2
2177,20 campus drive,saskatchewan cancer agency sca  saskatoon cancer centre scc,saskatchewan,saskatoon,s7n4h4
2208,,stratica medical,,,
2209,,north bay dermatology centre inc,,,
2273,,royal university hospital,,,
2274,,hotel dieu hospital,,,
2277,,giri gi research institute,,,
2338,5415 boulevard lassomption,hopital maisonneuverosemont dba ciusss de lestdelîledemontréal,montreal,quebec,h1t 2m4
2382,1001 boul decarie room c040119research institute mcgill university health center glen site,mcgill university health centreglen site  royal victoria hospital,montreal,quebec,h4a 3j1
2383,8440  112 streetzeidler ledcor centre,zeidler ledcor centre  university of alberta,edmonton,alberta,t6g 2x8
2408,600 west 10th avenue,bc cancer agency vancouver centre,british columbia,vancouver,v5z 4e6
2439,57090 university ave,nova scotia health authority research ethics board,nova scotia,halifax,b3h 1v7
2499,odette cancer centre2075 bayview ave,sunnybrook health sciences centre,ontario,toronto,m4n 3m5
2598,capital health centre for clinical research5790 university avenuerm 135,capital district health authority qeii hsc,nova scotia,halifax,b3h 1v7
2599,2075 bayview avenue2nd floor,odette cancer centersunnybrook health sciences centre,ontario,toronto,m4n 3m5
2662,600 west 10th avenue,bc cancer agency vancouver centre,british columbia,vancouver,v5z 4e6
2663,546 pine avenue west  2nd floor rm 212,clinical research program mc gill university,quebec,montreal,h2w 1s6
2664,700 university ave,university health network research ethics board,ontario,toronto,m5g iz5
2665,1607110 gymnasium placenrcplant biotech research institute,univ of saskatchewan bioreb,saskatchewan,saskatoon,s7n 4j8
2701,712750 west broadway,bc cancer agency,british columbia,vacouver,v5z 1h6
2702,10104103 street ste 1500,hrebacancer committee,alberta,edmonton,t5j 4a7
2703,3755 côte stecatherine pavillion e 7th floor,jewish general hospital  study coordinators office,québec,montreal,h3t 1e2
2704,409 tache avenue,cancer care manitoba,manitoba,winnipeg,r2h 2a6
2809,1001 decarie boulevard,cedars cancer centre mcgill university health centre,quebec,montreal,h4a 3j1
2911,3755 chemin de la cotesaintecatherine,jewish general hospital,quebec,montreal,h3t 1e2
2912,2345 guy street,villemarie nuclear imaging and petct,qc,montreal,h3h 2l9
2913,610 university ave,university health network,ontario,toronto,m5g 2m9
2914,p126770 bannatyne ave,univ of manitoba biomedical research ethics board,manitoba,winnipeg,r3e 0w3
2957,8440  112 streetzeidler ledcor centre,zeidler ledcor centre  university of alberta,edmonton,alberta,t6g 2x8
3399,3175 chemin côte saintecatherine,chu saintejustine,montréal,quebec,h3t 1c5
3533,,sunnybrook health sciences cntr,,,
3603,,lynderm research inc,,,
3664,,queen elizabeth ii health sciences centre,,,
3665,8440 112th street nw2c242 wmc,university of alberta hospitalsccwcm,edmonton,alberta,t6g 2b7
3721,,toronto digestive disease associates inc,,,
3725,,toronto digestive disease associates inc,,,
3831,4896 taschereau boulevardsuite 230,recherche sepmus inc,greenfield park,quebec,j4v 2j2
3915,,lhsc  university hospital,,,
3916,,hotel dieu hospital,,,
3979,2775 laurel street suite 8232 8th floor,vancouver general hospital,vancouver,british columbia,v5z 1m9
4007,children’s hospital london heath sciences centre  co research pharmacy,lhsc  victoria hospital,london,ontario,n6a 5w9
4008,4600 highway 7 unit 225,toronto digestive disease associates inc,vaughan,ontario,l4l 4y7
4063,399 bathurst streetsuite 1e425,inspiration research limited,toronto,ontario,m5t 2s8
4178,339 windermere rd,lhsc  university hospital,london,ontario,n6a 5a5
4207,930 jacquescartier est bureau b210,ecogene21,chicoutimi,quebec,g7h 7k9
4216,8440 112th street nw2c242 wmc,university of alberta hospital,edmonton,alberta,t6g 2b7
4312,2600 boul laurierunit 880,clinique specialisee en allergie de la capitale,québec,quebec,g1v 4w2
4355,1200 main st westroom 1k4,mcmaster university health sciences center,hamilton,ontario,l8n 3z5
4453,k4218 4480 oak street,british columbia childrens  womens hospital center,vancouver,british columbia,v6h 3v4
4467,,mcgill university  dept oncology clinical research program,,,
4468,,princess margaret cancer centre,,,
4544,1200 main street westhsc3h1g,mcmaster university health sciences center,hamilton,ontario,l8n 3z5
4766,,lmc clinical research dba manna research inc toronto,,,
4780,,probity medical research inc,,,
4884,,lhsc  university hospital,,,
4889,4896 taschereau boulevardsuite 230,recherche sepmus inc,greenfield park,quebec,j4v 2j2
4890,820 sherbrook street,health sciences centre winnipeg,winnipeg,manitoba,r3a 1r9
4938,,hopital maisonneuverosemont dba ciusss de lestdelîledemontréal,,,
4939,,toronto digestive disease associates inc,,,
4940,,percuro clinical research ltd,,,
4949,children’s hospital london heath sciences centre  co research pharmacy,lhsc  victoria hospital,london,ontario,n6a 5w9
4950,4600 highway 7 unit 225,toronto digestive disease associates inc,vaughan,ontario,l4l 4y7
5025,166 brock street,hotel dieu hospital,kingston,ontario,k7l 5g2
5026,3051120 yates street,percuro clinical research ltd,victoria,british columbia,v8v 3m9
5075,,the ottawa hospital cancer centre,,,
5169,2600 boul laurierunit 880,clinique specialisee en allergie de la capitale,québec,quebec,g1v 4w2
5170,1200 main street westhsc3h1g,mcmaster university health sciences center,hamilton,ontario,l8n 3z5
5279,,the ottawa hospital  general campus,,,
5313,687 pine avenue west r238,mcgill university health centreglen site  royal victoria hospital,montreal,quebec,h3a 1a1
5388,3840 rue saint urbainhôteldieu  pavillion vimont porte 3201,chum hôteldieu,montréal,quebec,h2w 1t8
5405,,chu de québec –hôteldieu de québec,,,
5406,,dr g vrabec md inc,,,
5427,233 alden rd,bayshore specialty rx markham,markham,ontario,l3r 3w6
5524,3511 edmonton clinic health academy11405 87 avenue,stollery children’s hospital,edmonton,alberta,t6g 1c9
5544,1102935 conroy road,ottawa allergy research corporation,ottawa,ontario,k1g 6c6
5559,,smbd jewish general hospital dba jewish general hospital,,,
5560,,princess margaret cancer centre,,,
5588,800 commissioners road east room e6207,lhsc  victoria hospital,london,ontario,n6a 5w9
5603,80 bond streetroom 6049 bond wing,st michaels hospital,toronto,ontario,m5b 1w8
5694,409 tache avenue,saint boniface general hospital,winnipeg,manitoba,r2h 2a6
5718,80 bond streetroom 6049 bond wing,st michaels hospital,toronto,ontario,m5b 1w8
5787,1200 main st w,hamiltonniagara regional hemophilia treatment centre mcmaster university medical centre,hamilton,ontario,l8n 3z5
5907,2600 boul laurierunit 880,clinique specialisee en allergie de la capitale,québec,quebec,g1v 4w2
5908,1200 main street westhsc3h1g,mcmaster university health sciences center,hamilton,ontario,l8n 3z5
5926,501 bethel drive,synergy respiratory  cardiac care,sherwood park,alberta,t8h 0n2
5933,300295 midpark way se,somni research inc calgary,calgary,alberta,t2x 2a8
6028,,cross cancer institute,,,
6120,800 commissioners rd easte6323a,lhsc  victoria hospital,london,ontario,n6a 5w9
6152,2725 chemin stefoy u1771,institut universitaire de cardiologie et de pneumologie de quebec,quebec,quebec,g1v 4g5
6318,1280 main st westroom 3v47,mcmaster university health sciences center,hamilton,ontario,l8s 4k1
6325,586 eglington avenue eastsuite 208,toronto sleep institute,toronto,ontario,m4p 1p2
6360,6203 28 avenue suite 333,dr jesse siffledeen,edmonton,alberta,t6l 6k3
6524,,lhsc  victoria hospital,,,
6525,,capital district health authority,,,
6540,585 university avenuenc 11c1256,university health network,toronto,ontario,m5g 2n2
6618,pavillon simard 6e étage 2065alexandre de seve,chum centre de recherche,montreal,quebec,h2l 4m1
6639,,mcmaster university health sciences center,,,
6762,,bc cancer agency vancouver centre,,,
6796,,queen elizabeth ii health sciences centre,,,
6797,,princess margaret cancer centre,,,
6809,,queen elizabeth ii health sciences centre,,,
7025,1102935 conroy road,ottawa allergy research corporation,ottawa,ontario,k1g 6c6
7145,chum tour viger900 rue stdenis,chum centre de recherche,montreal,quebec,h2x 0a9
7146,1300 keith ross court,taunton surgical centre,oshawa,ontario,l1h 7k4
7147,339 windermere rd room all100,lhsc  university hospital,london,ontario,n6a 5a5
7158,340 college streetsuite 250,inspiration research limited,toronto,ontario,m5t 3a9
7200,,the centre for dermatology,,,
7244,,ultranova skincare,,,
7245,,institute for skin advancement inc,,,
7432,166 brock street,hotel dieu hospital,kingston,ontario,k7l 5g2
7433,3051120 yates street,percuro clinical research ltd,victoria,british columbia,v8v 3m9
7475,555 university avenue,hospital for sick children,ontario,toronto,m5g 1x8
7526,,mcgill university health centreglen site  royal victoria hospital,,,
7529,675 mcdermot averesearch institute in oncology and hematology,cancer care manitoba,manitoba,winnipeg,r3e 0v9
7536,401 smyth road,childrens hospital of eastern ontario,ontario,ottawa,k1h 8l1
7568,,lhsc  victoria hospital,,,
7569,,percuro clinical research ltd,,,
7662,585 university ave9nu907d,toronto general hospital,toronto,ontario,m5g 2c4
7719,339 windermere rd,lhsc  university hospital,london,ontario,n6a 5a5
7720,44641796 summer street,queen elizabeth ii health sciences centre,halifax,nova scotia,b3h 3a7
7721,5415 boulevard de lassomptionpavillion rachel tourigny 4th floor door 4162,hopital maisonneuverosemont dba ciusss de lestdelîledemontréal,montréal,quebec,h1t 2m4
7749,58505980 university avenue,iwk health center,nova scotia,halifax,b3k 6r8
7810,4600 highway 7 unit 225,toronto digestive disease associates inc,vaughan,ontario,l4l 4y7
7866,,lhsc  victoria hospital,,,
7867,,mcgill university health centreglen site  royal victoria hospital,,,
7887,401 smyth road,childrens hospital of eastern ontario,ontario,ottawa,k1h 8l1
7889,4480 oak street,british columbia childrens hospital,british columbia,vancouver,v6h 3v4
7899,28 oki drive nw,alberta childrens hospital,alberta,calgary,t3b 6a8
7906,4480 oak street,british columbia childrens hospital,british columbia,vancouver,v6h 3v4
7945,,cross cancer institute,,,
7946,,allan blair cancer centre,,,
8120,699 concession steet,juravinski cancer centre,ontario,hamilton,l8v 5c2
8123,300 prince philip drive,memorial university of newfoundland,newfoundland and labrador,halifax,
8144,143 rue wolfe,centre hospitalier universitaire de quebec,quebec,levis,g6v 3z1
8145,largo professor abel salazar,chu lhotel dieu de quebec,,porto,4099001
8146,11 cote du palais,hôpital maisonneuverosemont,quebec,quebec city,g1r 2j6
8155,58505980 university avenue,iwk health center,nova scotia,halifax,b3k 6r8
8157,4480 oak street,british columbia childrens hospital,british columbia,vancouver,v6h 3v4
8175,675 mcdermot averesearch institute in oncology and hematology,cancer care manitoba,manitoba,winnipeg,r3e 0v9
8180,401 smyth road,childrens hospital of eastern ontario,ontario,ottawa,k1h 8l1
8215,1403 29 street northwest,tom baker cancer centre,alberta,calgary,ab t2n 2t9
8221,675 mcdermot avenue,cancer care manitoba,manitoba,winnipeg,r3e 0v9
8324,2075 bayview avenue,sunnybrook health sciences centre,ontario,toronto,m4n 3m5
8332,11350  83 avenue,university of alberta,alberta,edmonton,t6g 2g3
8359,711 concession street,juravinski cancer centre,ontario,hamilton,l8v 1c3
8360,610 university avenue,princess margaret hospital,ontario,toronto,m5g 2m9
8361,charles lemoyne hospital 3120 taschereau boulevard,hopital charles le moyne,quebec,greenfield park,j4v 2h1
8395,3755 ch de la cotesaintecatherinelady davis institute for medical research,jewish general  hospital,quebec,montreal,h3t 1e2
8453,699 concession steet,juravinski cancer centre,ontario,hamilton,l8v 5c2
8459,8440 112 st nw,stollery childrens hospital university of alberta,alberta,edmonton,t6g 2b7
8460,2705 boul laurier,centre hospitalier de luniversité laval,quebec,quebec,g1v 4g2
8461,300 prince philip drive,memorial university of newfoundland,newfoundland and labrador,halifax,
8479,5415 boulevard de lassomption,hôpital maisonneuverosemont,quebec,montreal,h1t 2m4
8508,555 university avenueroom 4534 hill,the hospital for sick children,toronto,ontario,m5g 1x8
8539,339 windermere road b10120,lhsc  university hospital,london,ontario,n6a 5a5
8603,1331 29th st nw,university of calgary medicine,alberta,calgary,t2n 4n2
8794,175 stillview,sir mortimer b davis jewish general hospital,quebec,pointe claire,h9r 4s3
8797,201 riverside drive,cancer care manitoba,ontario,london,n6h 1e5
8951,800 commissioners road east,university of western ontario,ontario,london,n6a 5w9
8954,20 campus drive,saskatoon cancer center,saskatchewan,saskatoon,s7n 4h4
8982,610 university avenue,university health network,,toronto,m5g 2m9
8983,2775 laurel street,vancouver general hospital,british columbia,vancouver,v5z 1m9
8994,800 commissioners road east,university of western ontario,ontario,london,n6a 5w9
9046,110 avenue des pins,chum hôteldieu,montreal,quebec,h2w 1r7
9075,610 university avenue,princess margaret hospital,ontario,toronto,m5g2m9
9090,11560 university avenue,cross cancer institute,alberta,edmonton,t6g 1z2
9145,1331  29th street northwest alberta health services,alberta cancer board,alberta,calgary,t2n 4n2
9146,699 concession street,juravinski cancer centre,ontario,hamilton,l8v 5c2
9182,300 prince philip drive,eastern health  health sciences center general hospital,newfoundland,saint johns,a1b 3v6
9187,1482 george street,cape breton regional hospital,nova scotia,sydney,b1p 1p3
9219,8215112 street,cancer care manitoba,alberta,edmonton,t6g2c8
9229,1200 main street westhsc3h1g,mcmaster university health sciences center,hamilton,ontario,l8n 3z5
9244,5400 gouin boulevard west intensive care unit,hopital du sacre coeur de montreal,quebec,montreal,h4j 1c5
9245,rm l1102409 tache avenuesbgh unit,cancer care manitoba,manitoba,winnipeg,r2h 2a6
9246,501 smyth road,ottawa hospital,ontario,ottawa,k1h 8l6
9288,1401 18ieme rue,cha quebec hospital,quebec,quebec city,g1j 1z4
9289,1560 sherbrooke east,chum notre dame hospital,quebec,montreal,h2l 4m1
9290,25 king street west,kingston regional cancer centre,ontario,kingston,k7l 5p9
9334,11560 university avenue,cross cancer institute,alberta,edmonton,t6g 1z2
9355,640 manawagonish road,saint john regional hospital,new brunswick,saint john,e2m 3w5
9476,3051120 yates street,percuro clinical research ltd,victoria,british columbia,v8v 3m9
9477,339 princess avenue,brandon medical arts clinic,brandon,manitoba,r7a 0n7
9487,stollery childrens hospital8440112 st,walter c mackenzie health science centre,edmonton,alberta,t6g 1c9
9503,1200 main street west,mcmaster childrens hospital,ontario,hamilton,l8n 3z5
9585,400 university avenue,saint john regional hospital,new brunswick,saint john,e2l 4l2
9586,2775 laurel street,vancouver general hospital,british columbia,vancouver,v5z 1m9
9597,2775 laurel street,british columbia cancer agency,british columbia,vancouver,v5z 1m9
9598,699 concession steet,juravinski cancer centre,,hamilton,l8v 5c2
9599,800 commissioners road east,london health sciences centre,ontario,london,n6a 5w9
9600,610 university avenue,princess margaret hospital,ontario,toronto,m5g 2m9
9684,575 west 8th avenue,vancouver general hospital,british columbia,vancouver,v5z 1
9685,3120 boulevard tachereau coor an0132,hopital charles le moyne,quebec,greenfield park,j4v 2h1
9688,3935 kincaid street,burnaby hospital,british columbia,burnaby,v5g 2x6
9689,11 cote du palais,chuq lhotel,quebec,quebec city,g1r 2j6
9690,1755 boulevard rene laennec,centre de sante et de services sociaux de laval,quebec,laval,h7m 3l9
9691,143 rue wolfe,hotel dieu de levis,quebec,levis,g6v 3z1
9699,600 west 10th avenue,british columbia cancer agency,british columbia,vancouver,v5z 4e6
9705,100 mcgowan court,heritage physician group oncology,arkansas,hot springs,71913
9709,2220 kildare road,windsor regional cancer center clinical trials,ontario,windsor,n8w 2x3
9743,2220 kildare road,windsor regional cancer center clinical trials,ontario,windsor,n8w 2x3
9747,135 macbeath avenue,moncton hospital,new brunswick,moncton,e1c 6z8
9751,3755 cote sainte catherine road,sir mortimer b davis jewish general hospital,quebec,montreal,h3t 1e2
9776,140329th st nwrm 681 foothills medical center,university of calgary  heritage medical research clinic,calgary,alberta,t2n 2t9
9783,30 bond street,saint michaels hospital,ontario,toronto,m5b 1w8
9785,20 campus drive,saskatoon cancer center,,saskatoon,s7n 4h4
9794,2075 bayview ave,sunnybrook health sciences centre,ontario,toronto,m4n 3m5
9826,650 sammon avenue,toronto east general hospital,ontario,toronto,m4c 5m5
9847,5790 university avenueqeii health sciences centre,queen elizabeth ii health sciences center,nova scotia,halifax,b3h 1v7
9918,290 rue montignybloc f,recherche médicale stjérôme inc,stjérôme,quebec,j7z 5t3
9919,200 620328 ave sw,south edmonton gastroenterology,edmonton,alberta,t6w 3g7
10018,855 west 12th avenue,vancouver general hospital,british columbia,vancouver,v5z 1m
10044,800 commissioners rd east rm b1112b,lhsc  victoria hospital,london,ontario,n6a 5w9
10051,1033 bay streetroom 318319,jodha tishon inc,toronto,ontario,m5s 3a3
10107,610 university avenue,princess margaret hospital,ontario,toronto,m5g 2m9
10195,opg building 6225 6th floor700 university avenue,princess margaret hospital,ontario,toronto,m5g 1x6
10196,2051 mccallum road,abbotsford regional hospital and cancer care centre,british columbia,abbotsford,v2s 3n5
10197,501 smyth road,ottawa hospital,ontario,ottawa,k1h 8
10199,4101 dewdney avenue,allan blair cancer centre,saskatchewan,regina,s4t 1a5
10225,610 university avenue,princess margaret hospital,ontario,toronto,m5g 2m9
10226,1401 18ieme rue,centre hospitalier universitaire de quebec,quebec,quebec city,g1j 1z4
10362,835 king street west,grand river hospital,ontario,kitchener,n2g1g3
10369,2075 bayview avenue,sunnybrook health sciences centre,ontario,toronto,m4n 3m5
10370,37 providence street,pierre whitlocks private practice,new brunswick,moncton,e1c 8x3
10371,295 saskatoon street,london east medical centre,ontario,london,n5w6a2
10395,1001 boulevard décarie,muhcglen site,quebec,montreal,h4a 3j1
10396,750 great northern roadalgoma district cancer program,sault area hospitals,ontario,sault ste marie,p6b 0a8
10397,41 ramsey lake road,northeast cancer centre,ontario,sudbury,p3e 5j1
10444,1001 boulevard décarie,muhcglen site,quebec,montreal,h4a 3j1
10517,175 stillview,sir mortimer b davis jewish general hospital,quebec,pointe claire,h9r 4s3
10557,11560 university avenue,cross cancer institute,alberta,edmonton,t6g 1z2
10584,675 mcdermot avenue,cancer care manitoba,manitoba,winnipeg,r3e 0v9
10616,411 laurel street,medical oncology and hematology associates,iowa,des moines,50314
10619,175 stillview road,ultra medical inc,quebec,pointe claire,h9r 4s3
10707,5415 boulevard lassomption,hopital maisonneuverosemont dba ciusss de lestdelîledemontréal,montreal,quebec,h1t 2m4
10716,2410 lee avenuevancouver island cancer centre,british columbia cancer agency,british columbia,victoria,v8r 6v5
10728,1001 decarie boulevardhematologyoncology division,mcgill university health center,quebec,montreal,h4a 3j1
10802,501 smyth road,ottawa hospital,ontario,ottawa,k1h 8
10803,596 davis drive,southlake regional health centre,ontario,newmarket,l3y 2p9
10955,3755 ch de la cotesaintecatherinelady davis institute for medical research,jewish general  hospital,quebec,montreal,h3t 1e2
10958,401 smyth road,childrens hospital of eastern ontario,ontario,ottawa,k1h 8l1
10959,28 oki drive nw,alberta childrens hospital,alberta,calgary,t3b 6a8
10978,399 royal avenue,cancer center for the southern interior,british columbia,kelowna,v1y 5l3
11033,1001 decarie boulevardhematologyoncology division,mcgill university health center,quebec,montreal,h4a 3j1
11059,4101 dewdney avenue,allan blair cancer centre,saskatchewan,regina,s4t 1a5
11069,5400 boulevard gouin ouest,hopital du sacre coeur de montreal,quebec,montreal,h4j 1c5
11083,700 coronation boulevard,cambridge memorial hospital,ontario,cambridge,n1r 3g2
11094,585 university avenue toronto general hospital,university health network,ontario,toronto,m5g 2n2
11101,4480 oak street,british columbia childrens hospital,british columbia,vancouver,v6h 3v4
11102,11350  83 avenue,university of alberta,alberta,edmonton,t6g 2g3
11107,20 campus drive,saskatchewan cancer agency,saskatchewan,saskatoon,s7n 4h4
11159,1001 boulevard décarie,mcgill university health center,quebec,montreal,h4a 3j1
11280,610 university ave,university health network,ontario,toronto,m5g 2m9
11410,699 concession street,juravinski cancer centre,ontario,hamilton,l8v 5c2
11411,600 west 10th avenue,british columbia cancer agency,british columbia,vancouver,v5z 4e6
11448,28 oki drive nw,alberta childrens hospital,alberta,calgary,t3b 6a8
11455,687 avenue de pins ouest,royal victoria regional health centre,quebec,montreal,h3a1a1
11483,30 bond streetoncology clinical research group,saint michaels hospital,ontario,toronto,m5b 1w8
11485,11560 university avenue,cross cancer institute,alberta,edmonton,t6g 1z2
11488,600 university avenueroom 1252,mount sinai hospital,ontario,toronto,m5g 1x5
11504,1200 main street west,mcmaster childrens hospital,ontario,hamilton,l8n 3z5
11505,76 stuart street,kingston general hospital,ontario,kingston,k7l 2v7
11508,20 campus drive,saskatoon cancer center,saskatchewan,saskatoon,s7n 4h4
11540,8440 112 street northwest,stollery childrens hospital university of alberta,alberta,edmonton,t6g 2r7
11570,1482 george street,cape brenton cancer centre,nova scotia,sydney,b1p 1p3
11571,175 stillview road,ultra medical inc,quebec,pointe claire,h9r 4s3
11579,1401 18e rue,hopital de lenfant jesus,quebec,quebec city,g1j 1z4
11584,1001 boulevard décarie,muhcglen site,quebec,montreal,h4a 3j1
11660,135 macbeath avenue,moncton hospital,new brunswick,moncton,e1c 6z8
11680,610 university avenuemedical oncologyhematology,princess margaret hospital,ontario,toronto,m5g 2m9
11759,1331  29th street northwestclinical trials unit,tom baker cancer centre,alberta,calgary,t2n 4n2
11936,13750 96th avenue,fraser valley centre british columbia cancer agency,british columbia,surrey,v3v 1z2
11956,2705 boul laurier,centre hospitalier de luniversité laval,quebec,quebec,g1v 4g2
11965,264 boul renelevesque east,chum,quebec,montreal,h2x 1p1
11972,610 university avenue,princess margaret hospital,ontario,toronto,m5g 2m9
11973,610 university avenue,university health network,ontario,toronto,m5g 2m9
11978,1401 18e rue,centre hospitalier universitaire de quebec,quebec,quebec city,g1j 1z4
11979,2900 boulevard edouardmontpetit,hôpital maisonneuverosemont,quebec,montréal,h3t 1j4
12034,76 stuart street,kingston general hospital,ontario,kingston,k7l 2v7
12038,8440 112 st nw,stollery childrens hospital university of alberta,alberta,edmonton,t6g 2b7
12040,555 university avenue,hospital for sick children,ontario,toronto,m5g 1x8
12045,2410 lee avenuevancouver island cancer centre,british columbia cancer agency,british columbia,victoria,v8r 6v5
12046,3155 harvester road,g kenneth jansz medicine professional corporation,ontario,burlington,l7n 3v2
12047,820 sherbrooke street,cancer care manitoba,manitoba,winnepeg,r3a 1r9
12048,399 royal avenue,cancer center for the southern interior,british columbia,kelowna,v1y 5l3
12049,699 concession street,juravinski cancer centre,ontario,hamilton,l8v 5c2
12056,d92733 heather street heather pavillion,vancouver hospital and hsc,british columbia,vancouver,v5z 3j5
12072,675 mcdermot avenue,cancer care manitoba,manitoba,winnepeg,r3e 0v9
12073,3755 cote sainte catherine road,sir mortimer b davis jewish general hospital,quebec,montreal,h3t 1e2
12144,2100 bovaird drive eastbrampton civic hospital campus,william osler health centre,ontario,brampton,l6r 3j7
12164,596 davis drive,southlake regional health centre,ontario,newmarket,l3y 2p9
12165,133129th street north westmedical oncology department,tom baker cancer centre,alberta,calgary,t2n 4n2
12187,3935 kincaid street,burnaby hospital,british columbia,burnaby,v5g 2x6
12195,825 coxwell avenue,toronto east general hospital,ontario,toronto,m4c 3e7
12257,28 oki drive nw,alberta childrens hospital,alberta,calgary,t3b 6a8
12259,8440 112 street northwest,stollery childrens hospital university of alberta,alberta,edmonton,t6g 2r7
12273,5415 boulevard de lassomption,ciusssdel’estdel’îledemontréal,quebec,montreal,h1t 2m4
12320,133129th street northwest,tom baker cancer centre,alberta,calgary,t2n 4
12321,300 prince philip drive,memorial university of newfoundland,newfoundland,saint johns,a1b 3v6
12358,1 hospital courtlakeridge health,lakeridge health center,ontario,oshawa,l1g 2b9
12409,700 university avenue2nd floor,princess margaret cancer centre,ontario,toronto,m5g 1x5
12438,750 great northern road,sault area hospitals,ontario,sault ste marie,p6b 0a8
12474,501 smyth road,the ottawa hospital  riverside campus,ontario,ottawa,k1h 8
12499,5415 boulevard de lassomption,ciusssdel estdel ledemontréal,quebec,montreal,h1t 2m4
12536,909 boulevard de la vérendrye,centre intégré de la santé et des services sociaux de loutaouais,quebec,gatineau,j8p 7h2
12649,2775 laurel street,vancouver general hospital,british columbia,vancouver,v5z 1m9
12650,400 university avenue,saint john regional hospital,new brunswick,saint john,e2l 4l2
12685,hospital maisonneuve  rosemont 5414 boulevard lassomption 3rd floor microbiologie,ciusssdel’estdel’îledemontréal,quebec,montreal,h1t 2m4
12732,2775 laurel street,bc cancer agency,british columbia,vancouver,v5z 1m9
12812,11560 university avenuecross cancer institute,cross cancer institute,alberta,edmonton,t6g 1z2
12813,3001 12e avenue north,centre hospitalier universitaire de sherbrooke chus,quebec,sherbrooke,j1h 5n4
12814,600 west 10th avenue,british columbia cancer agency,british columbia,vancouver,v5z 4e6
12815,13750 96th avenue,fraser health authority,british columbia,surrey,v3v 1z2
12819,140329th street northwest,tom baker cancer centre,alberta,calgary,t2n 4n2
12880,2775 laurel streetroom 10149,gordon  leslie diamond health care center  hematology administration,british columbia,vancouver,v5z 1m9
12881,400 university avenue,saint john regional hospital,new brunswick,saint john,e2l 4l2
12915,596 davis drive,stronach regional cancer centre,ontario,newmarket,l3y 2p9
12916,25 king street westcancer centre of southeastern ontario,kingston general hospital,ontario,kingston,k7l5p9
12935,133129th street north west,tom baker cancer centre,alberta,calgary,g1j 1z4
12936,1401 18e rue,hopital de lenfant jesus,quebec,quebec city,h4j 1c5
12937,5415 boulevard de lassomption,ciusssdel’estdel’îledemontréal,quebec,montreal,a1b 3v6
12938,2051 mccallum road,abbotsford regional hospital and cancer care centre,british columbia,abbotsford,v8r 6v5
12939,610 university avenue,princess margaret hospital,ontario,toronto,h3a1a1
12940,1560 sherbrooke street east,chum notre dame hospital,quebec,montreal,k1h 8l6
13031,3120 boulevard tachereau coor an0132,hopital charles le moyne,quebec,greenfield park,j4v 2h1
13032,11560 university avenuecross cancer institute,cross cancer institute,alberta,edmonton,t6g 1z2
13047,post office box 5375 station center scs,london health sciences centre,ontario,london,n6a 4g5
13048,2100 bovaird drive east brampton civic hosptial,william osler health centre,ontario,brampton,l6r 3j7
13049,2075 bayview avenue,sunnybrook health sciences centre,ontario,toronto,m4n 3m5
13077,1276 south park streetbethune building,queen elizabeth ii health sciences center,nova scotia,halifax,b3h 2y9
13078,10 macmahon street,chu lhotel dieu de quebec,quebec,quebec city,g1r 3s3
13079,1 hospital courtdurham regional cancer centre,lakeridge health center,ontario,ottawa,l1g 2b9
13119,699 concession street,juravinski cancer centre,ontario,hamilton,l8v 5c2
13126,650 sammon avenue,toronto east general hospital,ontario,toronto,m4c 5m5
13143,3001 12e avenue north,centre hospitalier universitaire de sherbrooke chus,quebec,sherbrooke,j1h 5n4
13145,300 prince philip drive,health sciences centre  winnipeg,newfoundland and labrador,saint johns,a1b 3v6
13146,1001 boulevard décariemuhc glen site cedars cancer center,mcgill university health center,quebec,montreal,v5z 1m9
13172,2056070 sherbrooke street east,ciusssdel’estdel’îledemontréal,quebec,montreal,h1n1c1
13176,5820 university avenue,nova scotia cancer centre,nova scotia,halifax,b3h 1
13177,501 smyth road,ottawa hospital,ontario,ottawa,k1h 8
13183,41 ramsey lake road,sudbury regional hospital,ontario,sudbury,p3e 5j1
13237,2184 west  broadway,saint pauls hospital,british columbia,vancouver,v6k 2e1
13240,41 ramsey lake road,northeast cancer centre,ontario,sudbury,p3e 5j1
13293,1560 sherbrooke east,chum notre dame hospital,quebec,montreal,h2l 4m1
13331,825 coxwell avenue,toronto east general hospital,ontario,toronto,m4c 3e7
13343,5400 boulevard gouin ouest,hopital du sacre coeur de montreal,quebec,montreal,n1r 3g2
13344,2075 bayview avenue,sunnybrook health sciences centre,ontario,toronto,m5g 2m9
13345,699 concession street,juravinski cancer centre,ontario,hamilton,m5g 2m9
13346,687 avenue de pins ouest,royal victoria regional health centre,quebec,montreal,h2l 4m1
13347,10 de lespinay,centre hospitalier universitaire de quebec,quebec,quebec city,n6a 5w9
13348,400 university avenue,saint john regional hospital,new brunswick,saint john,l6r 3j7
13349,1278 tower road,queen elizabeth ii health sciences center,nova scotia,halifax,b3h 2y9
13378,13750  96th avenue,fraser health authority,british columbia,surrey,s4t7t1
13379,2775 laurel street,vancouver general hospital,british columbia,vancouver,h4j 1c5
13410,546 pine avenue west,mcgill university royal institution for the advancement of learning,quebec,montreal,h2w 1s6
13473,76 stuart street,kingston general hospital,ontario,kingston,k7l 2v7
13474,3935 kincaid street,burnaby hospital,british columbia,burnaby,v5g 2x6
13542,37 providence street,dr leon richard oncology centre,new brunswick,moncton,e1c 8x3
13563,3120 taschereau boulevard,hopital charles le moyne,quebec,greenfield park,j4v 2h1
13564,4101 dewdney avenue,saskatoon cancer center,saskatchewan,regina,s4t7t1
13621,501 smyth road campus box 704,ottawa hospital,ontario,ottawa,k1h 8l6
13622,400 university avenue,saint john regional hospital,new brunswick,st john,e2l 4l2
13650,5400 boulevard gouin ouest,hopital du sacre coeur de montreal,quebec,montreal,n1r 3g2
13708,5400 boul gouin ouest bureau j3030,hopital du sacre coeur de montreal,quebec,montréal,h4j 1c5
13726,1403 29th street northwest,foothills medical centre,alberta,calgary,t2n 2t9
13752,1001 decarie boulevard,mcgill university health center,quebec,montreal,h3a 1a1
13979,800 commissioners road east,london health sciences centre,ontario,london,n6a 4g5
13980,3320 richter street,southern interior medical research inc,british columbia,kelowna,v1w 4v5
13981,11 cote du palais,centre hospitalier universitaire de quebec,quebec,quebec city,g1r 2j6
13982,1 quarry ridge,male and females health and research centres,ontario,barrie,l4m 7g1
13983,2075 bayview avenue,sunnybrook health sciences centre,ontario,toronto,m4n 3m5
14046,353 saint paul avenue,brantford urology research,ontario,brantford,n3r 4n3
14156,1560 sherbrooke east,centre hospitalier de luniversite de montreal hospital notre dame,quebec,montreal,h2l 4m1
14157,,urology associates urologic medical research,,,
14159,1101 2nd avenue east,todd webster md,ontario,owen sound,n4k 2j1
14199,1333 sheppard avenue east,stanley flax medical professional corporation,ontario,north york,m2j 1v1
14213,1276 south park street,nova scotia health authority research ethics board,nova scotia,halifax,b3h 2y9
14337,8440 112 street northwest,stollery childrens hospital university of alberta,alberta,edmonton,t6g 2b7
14338,1280 main street west,mcmaster childrens hospital,ontario,hamilton,l8s4l8
14339,2300 rue tupper,montreal childrens hospital,quebec,montreal,h3h 1p3
14340,3175 ch de lane côtesaintecatherine pediatrics,sainte justine hospital,quebec,montreal,h3t 1c5
14496,610 university avenuemedical oncologyhematology,princess margaret hospital,ontario,toronto,m5g 2m9
14497,201 georgian drive,royal victoria regional health centre,ontario,barrie,l4m 6m2
14545,4480 oak street,british columbia childrens hospital,british columbia,vancouver,v6h 3v4
14600,400 university avenuedepartment of oncology,saint john regional hospital,new brunswick,saint john,e2l 4l2
14652,555 university avenue,hospital for sick children,ontario,toronto,m5g 1x8
14655,58505980 university avenue,iwk health center,nova scotia,halifax,b3k 6r8
14656,103 hospital drive,royal university hospital,saskatchewan,saskatoon,s7n 0w8
14718,175 stillview,sir mortimer b davis jewish general hospital,quebec,pointclaire,h9r 4s3
14834,3001 12e avenue nordservice de génétique médicale,centre hospitalier universitaire de sherbrooke chus,quebec,sherbrooke,j1h 5n4
14835,2775 laurel streetadult metabolic clinic,vancouver general hospital,british columbia,vancouver,v5z 1m9
14836,1190 hornby streetfacility of medicine,bc women’s hospital and health centre,british columbia,vancouver,v6z 2k5
14839,2888 shaganappi trail northwestinherited metabolic disorders clinic,alberta childrens hospital,alberta,calgary,t3b 6a8
14885,1401 18e rue,centre hospitalier universitaire de quebec,quebec,quebec,g1j 1z4
15075,5400 boulevard gouin ouest,hopital du sacre coeur de montreal,quebec,montreal,h4j 1c5
15125,300 prince philip drive,eastern health  health sciences center general hospital,newfoundland,saint johns,a1b 3v6
15138,5820 university avenuedickinson building,queen elizabeth ii health sciences center,nova scotia,halifax,b3h 1v8
15181,2775 laurel street,vancouver general hospital,british columbia,vancouver,v5z 1m9
15182,2863 ellesmere road,corcare centenary,ontario,scarborough,m1e 5e9
15326,41 ramsey lake road,sudbury regional hospital,ontario,sudbury,p3e 5j1
15328,1403 29th street northwest,foothills medical centre,alberta,calgary,t2n 2t9
15382,790 commissioners road,medical cabinet drotiman gabriela,ontario,london,n6a 4l6
15386,25 king street west,kingston regional cancer centre,ontario,kingston,k7l 5p9
15408,399 bathurst street fell wing 6b,toronto western hospital,ontario,toronto,m5t 2s8
15411,715 coronation boulevard,dr saul vizel cardiac research office,ontario,cambridge,n1r 7r1
15427,2075 bayview avenue,sunnybrook health sciences centre,ontario,toronto,m4n 3m5
15441,835 king street west,grand river regional cancer centre,ontario,kitchener,n2g1g3
15474,3001 12th avenue north,centre hospitalier universitaire de sherbrooke chus,quebec,sherbrooke,j1h 5n4
15475,555 university avenue,hospital for sick children,ontario,toronto,m5g 1x8
15526,3001 12th avenue north,centre hospitalier universitaire de sherbrooke chus,quebec,fleurimont,m5g 2m9
15527,3120 taschereau boulevard,hopital charles le moyne,quebec,greenfield park,e2l 4l2
15563,2220 kildare road,windsor regional cancer center clinical trials,ontario,windsor,n8w 2x3
15568,300 prince philip drive,eastern health  health sciences center general hospital,newfoundland and labrador,saint johns,a1b 3v6
15569,2220 kildare road,windsor regional cancer center clinical trials,ontario,windsor,n8w 2x3
15636,2939 66th street millwoods cardiodiagnostics,office of dr mpj senaratne,alberta,edmonton,t6k 4c1
15681,2775 laurel streetdivison of hematology,vancouver general hospital,british columbia,vancouver,v5z 1m9
15689,1796 summer street,dalhousie university,nova scotia,halifax,b3h 3a7
15691,8440 112th street,walter c mackenzie health sciences centre wcm,alberta,edmonton,t6g 2b7
15696,8440 112 street northwest 471 msb division of hematologyoncology,university of alberta hospital,alberta,edmonton,t6g 2b7
15723,2268 grosvenor street,st josephs health centre,ontario,london,n6a 4
15724,245 east columbia street,royal columbian hospital,british columbia,new westminster,v3l 3w4
15725,412 boulevard du saguenay est,q and t research,quebec,chicoutimi,g7h7y8
15835,1526 5th avenue south,aim healthgroup,alabama,binghamton,35233
15837,5546 portage road,george zimakuss private practice,ontario,niagara,l2e 6k2
15838,700 coronation boulevard,cambridge memorial hospital,ontario,cambridge,n1r 3g2
15861,610 university ave,university health network,ontario,toronto,m5g 2m9
15866,201 georgian drive,royal victoria regional health centre,ontario,barrie,l4m 6m2
15893,2075 bayview avenue,sunnybrook health sciences centre,ontario,toronto,m4n 3m5
15962,399 royal avenue,cancer center for the southern interior,british columbia,kelowna,v1y 5l3
16019,1235 trafalgar road north,comisión de investigación y etica región sanitaria 6,ontario,oakville,l6h 3p1
16073,175 stillview,sir mortimer b davis jewish general hospital,quebec,pointe claire,k1h 8l6
16074,700 coronation boulevard,cambridge memorial hospital,ontario,cambridge,h1t 2m4
16075,2410 lee avenue,british columbia cancer agency,british columbia,victoria,l8v 5c2
16076,800 commissioners road east,london health sciences centre,ontario,london,l1g 2b9
16095,501 smyth road,ottawa hospital,ontario,ottawa,j1h 5n4
16096,143 rue wolfe,chu lhotel dieu de quebec,quebec,levis,g1j 1z4
16097,2100 bovaird drive east,william osler health centre,ontario,brampton,v3v 1z2
16098,4101 dewdney avenue,saskatoon cancer center,saskatchewan,regina,t6g 1z2
16099,11560 university avenue,cross cancer institute,alberta,edmonton,t6g 1z2
16236,60 murray street,mount sinai hospital  canada,ontario,toronto,m5t 3l9
16300,box 704  501 smyth rdgeneral campusdivision of hematology,ottawa hospital,ontario,ottawa,k1h 8l6
16318,1560 sherbrooke street east,chum notre dame hospital,quebec,montreal,k1h 8l6
16331,25 king street west,kingston general hospital,ontario,kingston,k7l5p9
16332,2705 boulevard laurier,centre hospitalier universitaire de quebec,quebec,quebec,g1v 4g2
16333,675 mcdermot avenue,cancer care manitoba,manitoba,winnepeg,r3e 0v9
16342,11405 87 avenue,stollery childrens hospital university of alberta,alberta,edmonton,t6g 1c9
16347,1200 main street west,mcmaster childrens hospital,ontario,hamilton,l8n 3z5
16351,259 yorkland road,canadian heart research centre,ontario,toronto,m2j 0b5
16355,3001 avenue 12e north,centre hospitalier universitaire de sherbrooke chus,quebec,sherbrooke,j1h 5n4
16398,1995 lens avenue,windsor regional hospital,ontario,windsor,n8w 1l9
16399,675 mcdermot avenue,cancer care manitoba,manitoba,winnepeg,r3e 0v9
16400,330 east columbia street,royal columbian hospital,british columbia,new westminster,v3l 3w7
16446,7007 14th street southwest,rockyview general hospital,,calgary,t2v 1
16464,3155 harvester road,g kenneth jansz medicine professional corporation,ontario,burlington,l7n 3v2
16491,5000 east belair,montreal heart institute,,montreal,h1t1
16492,30822230 north avenue,chest clinic,british columbia,maple ridge,v2x 2l5
16493,687 pine avenue west,royal victoria regional health centre,quebec,montreal,h3a 1a1
16521,2951 walkers line,jbn medical diagnostic services inc,ontario,burlington,l7m 4y1
16544,5400 boulevard gouin ouest,hopital du sacre coeur de montreal,quebec,montreal,h4j 1c5
16548,2075 bayview avenue,sunnybrook health sciences centre,ontario,toronto,m4n 3m5
16627,3234 boulevard taschereau,urology south shore research,quebec,greenfield park,j4v 2h3
16688,1278 tower road,queen elizabeth ii health sciences center,nova scotia,halifax,b3h 2y9
16723,2705 blv laurier cs1201,hypertension research unit,quebec,sainte foy,g1v 4g2
16724,375 south street,london health sciences centre,ontario,london,n6a 4g5
16727,1650 avenue cedar,mcgill university royal institution for the advancement of learning,quebec,montreal,h3g1a4
16731,1081 burrard street,saint pauls hospital,british columbia,vancouver,v6z 1y6
16732,1 hospital way,victoria general hospital,british columbia,victoria,v8z 6r5
16753,600 university avenue,mount sinai hospital,ontario,toronto,m5g 1x5
16754,300 booth drive,grace hospital,manitoba,winnepeg,r3j 3m7
16858,60 riverside drive,queen elizabeth hospital,prince edward island,charlottetown,c1a 8t5
16868,40 ruskin street,university of ottawa heart institute,ontario,ottawa,k1y 4w7
16872,200 elizabeth street,toronto general hospital,ontario,toronto,m5g 2c4
16873,899 west 12th street vancouver general hospital,vancouver general hospital,british columbia,vancouver,v5z 1m9
16874,820 sherbrooke street,health sciences centre  winnepeg,manitoba,winnepeg,r3a 1r9
16875,820 sherbrook street,health sciences centre  winnepeg,manitoba,winnepeg,r3a 1r9
16876,76 stuart street,kingston general hospital,ontario,kingston,k7l 2v7
16929,2888 shaganappi trail northwestinherited metabolic disorders clinic,alberta childrens hospital,alberta,calgary,t3b 6a8
16960,2300 tupper streetdivision of medical genetics,montreal childrens hospital,quebec,montreal,h3h 1p3
17007,6363 transcanadienne,lmc clinical research inc  diabetes and endocrinology  ppds,quebec,saint laurent,h4t 1z9
17023,1274750th street,medicentres canada incorporated,alberta,edmonton,t5a 4l8
17024,,victoria clinical research inc,,,
17028,531 atkinson avenue,lmc clinical research inc  diabetes and endocrinology  ppds,ontario,thornhill,l4j 8l7
17042,2065 finch ave w,toronto digestive disease associates inc,ontario,toronto,m3n 2v7
17043,820 sherbrook st,health sciences centre  winnipeg,manitoba,winnipeg,r3a 1r9
17069,36 toronto streetsuite 700,unity health,ontario,toronto,m5c 2c5
17085,4448 front streetsouth health campus pulmonary diagnostics clinic,university of calgary,alberta,calgary,t3m 1m4
17096,2065 finch ave w,toronto digestive disease associates inc,ontario,toronto,m3n 2v7
17097,501 smyth roaduniversity of ottawa eye institute,university of ottawa health services,ontario,ottawa,k1h 8l6
17148,3175  chemin cote saintecatherine,centre hospitalier universitaire saintejustine,quebec,montreal,
17156,3175 cote saintecatherine,centre hospitalier universitaire saintejustine,quebec,montreal,h3t 1c5
17164,555 university avenuedepartment of gastroenterology and nutrition,hospital for sick children,,toronto,m5g 1x8
17182,8440  112 street nwwalter c mackenzie health sciences centre wmc,university of alberta hospital,alberta,edmonton,ab t6g 2b7
17365,hotel  dieu de street jerome 290 rus montigny street local d040,hotel dieu de st jerome,,saint jerome,jzz 5
17448,60 murray street,mount sinai hospital  canada,ontario,toronto,m5t 3l9
17467,1030 ouellette avenueouellette campus,windsor regional hospital,ontario,windsor,n9a 1e1
17486,4480 oak street,british columbia childrens hospital,british columbia,vancouver,v6h 3v4
17498,306  5 quarry ridge road,lmc clinical research inc  diabetes and endocrinology  ppds,ontario,barrie,l4m 7g1
17499,490 bramalea road,aggarwal and associates ltd,ontario,brampton,l6t 0g1
17500,425 saint mary avenue,diabetes research group,manitoba,winnepeg,r3c 0n2
17578,1200 main street west,mcmaster childrens hospital,ontario,hamilton,l8n 3z5
17618,3001 12e avenue nordcomité d’éthique de la recherche,centre hospitalier universitaire de sherbrooke chus,quebec,sherbrooke,j1h 5n4
17690,1081 burrard street,saint pauls hospital,british columbia,vancouver,v6z 1y6
17759,394750 a avenue,bailey clinic,alberta,red deer,t4n 6v7
17765,1280 main street west,mcmaster university medical centre,ontario,hamilton,l8n 3z5
17766,2705 boul laurier,centre hospitalier de luniversité laval,quebec,quebec,g1v 4g2
17780,1001 decarie blvd,mcgill university health centre  glen site,quebec,montreal,h4a 3j1
17847,8440 112 st nw,university of alberta hospital,alberta,edmonton,t6g 2b7
17860,800 commissioners road east,london health sciences centre,ontario,london,n6a 4g5
17861,840 sherbrook st,winnipeg childrens hospital hscwinnipeg,manitoba,winnipeg,r3a 1s1
17975,2888 shaganappi trail northwest,alberta childrens hospital,alberta,calgary,t3b 6a8
17976,800 commissioners road east,london health sciences centre,ontario,london,n6a5w9
18068,300 prince philip driveprovincial medical genetics program,eastern health  health sciences center general hospital,newfoundland and labrador,st johns,a1b 3v6
18069,555 university avenue,hospital for sick children,ontario,toronto,m5g 1x8
18262,60 murray street,mount sinai hospital  canada,ontario,toronto,m5t 3l9
18264,8440112 street northwestdepartment of medical genetics,university of alberta,alberta,edmonton,t6g 2h7
18308,13798 94a avenue,surrey memorial hospital,british columbia,surrey,v3v 1n1
18309,306230 westney road south,hoteldieu grace hospital,ontario,ajax,l1s 7j5
18313,874 boul de luniversite e,cardiologues associes,quebec,chicoutimi,g7h 6b9
18314,237 barton street,hamilton general hospital,ontario,hamilton,l8l 2x2
18396,30211796  summer st,queen elizabeth ii health sciences center,nova scotia,halifax,b3h 3a7
18397,3120 taschereau boulevard,hopital charles le moyne,quebec,greenfield park,j4v 2h1
18454,800 commissioners road east,london regional cancer center,ontario,london,n6a 4g5
18460,1650 cedar avenue,mcgill university health center,quebec,montreal,h3g 1a4
18566,8440112 street northwestdepartment of medical genetics,university of alberta,alberta,edmonton,t6g 2h7
18603,1403 29th street northwest,foothills medical centre,alberta,calgary,t2n 2t9
18612,555 university avenue,hospital for sick children,ontario,toronto,m5g 1x8
18670,555 university avenue,hospital for sick children,ontario,toronto,m5g 1x8
18672,2888 shaganappi trail northwest,alberta childrens hospital,alberta,calgary,t3b 6a8
18673,4480 oak street,british columbia childrens hospital,british columbia,vancouver,v6h 3v4
18678,555 university avenuedivision of clinical  metabolic genetics,hospital for sick children,ontario,toronto,m5g 1x8
18707,4500 oak streetuniv of british columbia medical genetics,british columbia childrens hospital,,vancouver,v6h 3n1
19015,5160 decarie boulevard,anapharm,quebec,montreal,h3x 2h9
19060,277 evergreen road,alder medical centre,british columbia,campbell river,v9w 5y4
19083,58505980 university avenue,iwk health center,nova scotia,halifax,b3k 6r8
19092,1100 rue sanguinet,university of montreal,quebec,montreal,h2x 0c2
19093,b3214480 oak st,childrens and womens health centre of british columbia,british columbia,vancouver,v6h 3v4
19133,1276 south park street,dalhousie university,nova scotia,halifax,b3h 2y9
19134,1200 main street west,mcmaster university medical centre,ontario,hamilton,l8n 3z5
19135,5940 macleod trail southwest,lmc clinical research inc  diabetes and endocrinology  ppds,alberta,calgary,t2h 2g4
19136,687 pine avenue west,mcgill university health center,quebec,montreal,h3a 1a1
19143,33303330 hospital dr nw,alberta health services,alberta,calgary,t2n 4n1
19145,300 prince philip drive,memorial university of newfoundland,newfoundland,saint johns,a1b 3v6
19185,2211 wesbrook mall,university of british columbia ubc hospital,british columbia,vancouver,v6t 2b5
19216,3755 cote stcatherine road,sir mortimer b davis jewish general hospital,,montreal,h2t1e2
19220,237 barton street,hamilton general hospital,ontario,hamilton,l8l 2x2
19273,237 barton street,mcmaster university  hamilton health sciences,ontario,hamilton,l8l 2x2
19282,1001 decarie boulevardblock e,mcgill university health center,quebec,montreal,h4a 3j1
19287,800 commissioners road east,london health sciences centre,ontario,london,n6a 5w9
19337,5400 gouin boulevard west intensive care unit,hopital du sacre coeur de montreal,quebec,montreal,h4j 1c5
19344,30 bond street  queen,st michaels hospital,ontario,toronto,m5b 1w8
19389,840 sherbrook st,winnipeg childrens hospital hscwinnipeg,manitoba,winnipeg,r3a 1s1
19411,4480 oak street,british columbia childrens hospital,british columbia,vancouver,v6h3v4
19414,330 bronte street south,seashell medical centre,ontario,milton,l9t 7x1
19436,3175  chemin cote saintecatherine,centre hospitalier universitaire saintejustine,quebec,montreal,h3t 1c5
19653,60 murray street,mount sinai hospital  canada,ontario,toronto,m5t 3l9
19654,61 queen street east,st michaels hospital,ontario,toronto,m5c 2t2
19656,30 linden avenue,cornwall medical centre,prince edward island,charlottetown,c1a 5y9
19788,2705 boul laurier,chul et centre mèreenfant soleil,quebec,quebec city,g1v 4g2
21088,610 university avenue,princess margaret cancer centre,ontario,ontario,m5g 2m9
21094,600 west 10th avenue,bc cancer agency,british columbia,vancouver,v5z 4e6
21101,3280 hospital dr nwarnie charbonneau cancer institute,university of calgary medicine,alberta,calgary,t2n 4z6
21102,8440112 street northwestwalter c mackenzie health sciences centre,university of alberta,alberta,edmonton,t6g 2b7
21103,1276 south park street,queen elizabeth ii health sciences center,nova scotia,halifax,b3h 2y9
21104,699 concession streetjuravinski cancer centre,hamilton health sciences corporation,ontario,hamilton,l8v 5c2
21105,5400 boulevard gouin ouest,hopital du sacre coeur de montreal,quebec,montreal,h4j 1c5
21229,8440112 street northwestwalter c mackenzie health sciences centre,university of alberta,alberta,edmonton,t6g 2b7
21358,1503 carling avenue,ottawa hospital,ontario,ottawa,k1y 4e9
21553,600 w 10th ave,bc cancer agency,british columbia,vancouver,v5z 4e6
21688,,ottawa hospital,,,
21834,950 west 10th avenue,vancouver general hospital,british columbia,vancouver,v5z 4e3
21835,800 commissioners road east,london health sciences centre,ontario,london,n6a 4g5
21929,1401 18e rue,hopital de lenfant jesus,quebec,quebec,g1j 1z4
21930,800 commissioners road east,london health sciences centre,ontario,london,n6a 5w9
21980,133129th street north west,tom baker cancer centre,alberta,calgary,g1j 1z4
21981,3175 ch de la cotesaintecatherine,universite de montreal  saintejustine hospital,quebec,montreal,h3t 1c5
21982,400 university avenuedepartment of oncology,saint john regional hospital,new brunswick,saint john,e2l 4l2
22241,10405 jasper avenue,alberta cancer board,alberta,edmonton,t5j 3n4
22242,237 barton street eastmcmaster clinic,hamilton health sciences corporation,ontario,hamilton,l8l 2x2
22243,5955 veterans memorial lane,nova scotia health authority capital district health authority,nova scotia,halifax,b3h 2e1
22273,610 university avenue,princess margaret hospital,ontario,toronto,m5g 2m9
22274,2075 bayview avenue,sunnybrook health sciences centre,ontario,toronto,m4n 3m5
22294,1081 burrard street,saint pauls hospital,british columbia,vancouver,v6z 1y6
22295,1276 south park street,queen elizabeth ii health sciences center,nova scotia,halifax,b3h 2y9
22296,1331 29th street northwest,tom baker cancer centre,alberta,calgary,t2n 2t9
22349,11350  83 avenue4112 clinical sciences building,university of alberta,alberta,edmonton,t6g 2g3
22632,8440 112th street,university of alberta,alberta,edmonton,t6g 2b7
22646,5400 gouin boulevard westintensive care unit,hopital du sacre coeur de montreal,quebec,montreal,h4j 1c5
22647,5909 jubilee road ce ii  co laura magennis,queen elizabeth ii health sciences center,nova scotia,halifax,b3h2e2
22648,3330 hospital drive northwest,alberta health services,alberta,calgary,t2n 4n1
22800,5415 boul de lassomption,ciusssdel’estdel’îledemontréal,quebec,montreal,h1t 2m4
22901,675 mcdermot avenue,cancer care manitoba,manitoba,winnipeg,r3e 0v9
22910,5850 university avenue,iwk health center,nova scotia,halifax,b3k 6r8
22911,596 davis drivestronach regional cancer centre,southlake regional health centre,ontario,newmarket,l3y 2p9
22914,20 campus drive,saskatoon cancer center,saskatchewan,saskatoon,s7n 4h4
22915,133129th street northwest,tom baker cancer centre,alberta,calgary,t2n 4n2
22916,5415 boulevard de lassomption,ciusssdel’estdel’îledemontréal,quebec,montreal,h1t 2m4
22938,2075 bayview avenue,sunnybrook health sciences centre,ontario,toronto,m4n 3m5
22939,445660 university avenue,mount sinai hospital  canada,ontario,toronto,m5g 1x5
22952,675 mcdermot avenue,cancer care manitoba,manitoba,winnipeg,r3e 0v9
23054,1001 boulevard décarie,mcgill university health center,quebec,montreal,h4a 3j1
23055,2775 laurel streetdiamond health care centre,vancouver general hospital,british columbia,vancouver,v5z 1n9
23068,monteregie centre3120 boul taschereau,centre integre de sante et de services sociaux cisss de la monteregiecentre,quebec,greenfield park,j4v 2h1
23196,339 windermere road,london health sciences centre,ontario,london,n6a 5a5
23352,4480 oak street,british columbia childrens hospital,british columbia,vancouver,v6h3v4
23379,1200 main street west,mcmaster childrens hospital,,hamilton,l8n 3z5
23381,555 university avenue,hospital for sick children,ontario,toronto,m5g 1x8
23409,4480 oak street,british columbia childrens hospital,british columbia,vancouver,v6h 3v4
23412,3175 chemin cote stecatherine,sainte justine hospital,quebec,montreal,h3t 1c5
23413,1560 rue sherbrooke east,chum notre dame hospital,quebec,montreal,h2l 4m1
23479,800 commissioners rd e,university of western ontario,,london,n6a 5w9
23489,1200 main street west,mcmaster childrens hospital,ontario,hamilton,l8s 3z5
23495,2500 university drive north west,alberta childrens hospital,alberta,calgary,t2n 1n4
23500,4480 oak street,british columbia childrens hospital,british columbia,vancouver,v6h 3v4
23556,600 university avenue,mount sinai hospital,,toronto,m5g 1x5
23557,76 stuart st,queens university,ontario,kingston,k7l 2v7
23586,1440 14th avenue,regina general hospital,,regina,s4p 0w5
23590,3175 cote saintecatherine,sainte justine hospital,quebec,montreal,h3t 1c5
23658,5400 boulevard gouin ouest,hopital du sacre coeur de montreal,quebec,montreal,h4j 1c5
23659,687 pine avenue west,royal victoria hospital,quebec,montreal,h3a 1a1
23685,400 university avenuedepartment of oncology,saint john regional hospital,new brunswick,saint john,e2l 4l2
23692,1276 south park street,iwk health centre,nova scotia,halifax,b3h 2y9
23693,950 west 10th avenue,vancouver general hospital,british columbia,vancouver,v5z 4e3
23694,1503 carling avenue,ottawa hospital,ontario,ottawa,k1y 4e9
23764,1276 south park streetqeii hscvg site bethune building,nova scotia health authority capital district health authority,nova scotia,halifax,b3h2y9
23905,711 concession streethenderson juravinski hospital,hamilton health sciences corporation,ontario,hamilton,l8v 1c3
23906,11560 university avenuecross cancer institute,university of alberta hospital,alberta,edmonton,t6g 1z2
23985,13750 96th avenue,fraser health authority,british columbia,surrey,v3v 1z2
24010,1403 29 street northwest,foothills medical centre,alberta,calgary,ab t2n 2t9
24286,5415 boulevard de lassomption,hôpital maisonneuverosemont,quebec,montreal,h1t 2m4
24287,245 east columbia street,royal columbian hospital,british columbia,new westminster,v3l 3w4
24288,1440 14th avenue,regina general hospital,saskatchewan,regina,s4p 0w5
24361,555 university avenue,hospital for sick children,ontario,toronto,m5g 1x8
24402,1200 main street west,mcmaster childrens hospital,ontario,hamilton,l8n 3z5
24599,1403 29 street northwest,foothills medical centre,alberta,calgary,ab t2n 2t9
24631,1081 burrard street,university of british columbia,british columbia,vancouver,v6z 1y6
24704,501 smyth road,ottawa hospital,ontario,ottawa,k1h 8l6
24752,1200 main street west,mcmaster university medical centre,ontario,hamilton,l8n 3z5
24776,8440112 street,university of alberta,alberta,edmonton,t6g 2b7
24795,800 commissioners road east,london health sciences centre,ontario,london,n6a 5w9
24871,555 university avenue,hospital for sick children,ontario,toronto,m5g 1x8
24875,555 university avenue,royal belfast hospital for sick children,ontario,toronto,m5g 1x8
24877,8215 112th street,alberta health services,alberta,edmonton,t6g 2e1
24963,400 university avenue,saint john regional hospital,new brunswick,saint john,e2l 4l2
25008,10240 kingsway avenue,royal alexandra hospital,alberta,edmonton,t5h 3v9
25009,600 university avenue,mount sinai hospital  canada,,toronto,m5g 1x5
25046,339 windermere road,london health sciences centre,ontario,london,n6a 5a5
25047,4401144 burrard street,saint pauls hospital,british columbia,vancouver,v6z 2a5
25048,610 university avenuedrug development program,princess margaret hospital,ontario,toronto,m5g 2m9
25083,2953 health sciences center,university of calgary medicine,alberta,calgary,t2n 4
25084,600 university avenue,mount sinai hospital  canada,ontario,toronto,m5g 1x5
25216,8440 112 street northwest,stollery childrens hospital university of alberta,alberta,edmonton,t6g 2r7
25223,4480 oak street,british columbia childrens hospital,british columbia,vancouver,v6h 3n1
25270,2590 boulevard laurier 2e étage bureau 225,clinique sp�cialis�e en allergie de la capitale,quebec,quebec city,g1v 4m6
25271,3195 granville street,vancouver allergy clinic,,vancouver,v6h 3k2
25272,202 st clair avenue west,gordon sussman clinical research inc,,toronto,m4v 1r2
25298,585 university avenue,university of toronto,,toronto,
25349,711 concession streethenderson juravinski hospital,hamilton health sciences corporation,ontario,hamilton,l8v 1c3
25350,339 windermere road,london health sciences centre,ontario,london,n6a 5a5
25355,585 university ave 11pmb174,university health network,ontario,toronto,m5g 2n2
25361,501 smyth road,ottawa hospital,ontario,ottawa,k1h 8l6
25412,555 university avenue,hospital for sick children,ontario,toronto,m5g 1x8
25413,1200 main street west,mcmaster childrens hospital,ontario,hamilton,l8n 3z5
25432,1001 decarie blvd,mcgill university health center,quebec,montreal,h4a 3j1
25433,3175 chemin côte saintecatherine,sainte justine hospital,quebec,montreal,h3t 1c5
25434,501 smyth road,ottawa hospital,ontario,ottawa,k1h 8l6
25435,3175 ch de lane côtesaintecatherine pediatrics,sainte justine hospital,quebec,montreal,h3t 1c5
25469,medical oncologyhematology 610 university avenue 5220,princess margaret hospital,ontario,toronto,m5g2m9
25470,133129th street northwest,tom baker cancer centre,alberta,calgary,t2n 4
25471,2075 bayview avenue,sunnybrook health sciences centre,ontario,toronto,m4n3m5
25513,711 concession streetjuravinski hospital and cancer centre,hamilton health sciences corporation,ontario,hamilton,l8v 1c3
25533,5820 university avenue,dalhousie university,nova scotia,halifax,b3h 1
25580,8440 112 st nw,university of alberta hospital,alberta,edmonton,t6g 2b7
25582,820 sherbrooke street,cancer care manitoba,manitoba,winnepeg,r3a 1r9
25618,30 bond street,st michaels hospital,ontario,toronto,m5b 1w8
25637,2935 conroy road,ottawa allergy research corporation,ontario,ottawa,k1g 6c6
25638,8215 112th street,university of alberta,alberta,edmonton,t6g 2c8
25678,1560 sherbrooke east,chum notre dame hospital,quebec,montreal,h2l 4m1
25680,1160 burrard street,pacific nephrology group,british columbia,vancouver,v6t1z4
25686,585 university avenue,univerity of toronto,,toronto,
25693,1560 sherbrooke east,chum notre dame hospital,quebec,montreal,h2l 4m1
25706,1200 burrard streetvancouver infectious diseases centre,vancouver id research  care centre society,british columbia,vancouver,v6z 2c7
25707,855 west 12th avenuecentennial pavillion,hematology research  clinical trials unit  thrombosis program,british columbia,vancouver,v5z 1m9
25708,727 mcdermot avenue,university of manitoba,manitoba,winnipeg,r3e 3p5
25709,2100 bovaird drive east,brampton civic hospital,ontario,brampton,l6r 3j7
25760,1401 18e ruehopital de enfantjesus,chu de quebec,quebec,quebec,g1j 1z4
25773,650 16e avenue,mcgill university health center,quebec,lachine,h8s 3n5
25803,1276 south park st,queen elizabeth ii health sciences center,nova scotia,halifax,b3h 2y9
25804,855 west 12th avenue,vancouver general hospital,british columbia,vancouver,v5z 1m9
25845,699 concession streetjuravinski cancer centre,hamilton health sciences corporation,ontario,hamilton,l8v 5c2
25861,610 university avenuedept of medical oncology and hematology,princess margaret hospital,ontario,toronto,m5g 2m9
25862,3175 chemin de la côtesaintecatherine,centre hospitalier universitaire saintejustine,quebec,montreal,h3t 1c5
25918,2705 boulevard laurier,centre hospitalier universitaire de quebec,quebec,quebec,g1v 4g2
25920,4001 leslie street,north york general hospital,ontario,toronto,m2k 1e1
25921,750 west broadway,liver and intestinal research centre,british columbia,vancouver,v5z 1h2
25925,76 stuart street,kingston general hospital,ontario,kingston,k7l 2v7
25959,820 sherbrooke street,cancer care manitoba,manitoba,winnepeg,r3a 1r9
25960,140929th street northwestdepartment of emergency medicine,foothills medical centre,alberta,calgary,t2n 2t9
25981,8440 112 street,university of alberta,alberta,edmonton,t6g 2b7
26008,2155 guy street,research institute of the mcgill university health center,quebec,montreal,h3h 2r9
26074,2100 bovaird drive eastbrampton civic hospital,william osler health centre,ontario,brampton,l6r 3j7
26218,1001 boulevard décarie,montreal childrens hospital,quebec,montreal,h4a 3j1
26219,2075 bayview avenue,sunnybrook health sciences centre,ontario,toronto,m5g 1x8
26227,1503 carling avenue,ottawa hospital,ontario,ottawa,k1y 4e9
26306,4480 oak street,the university of british columbia,british columbia,vancouver,v6h 3v4
26331,600 university avenue,mount sinai hospital  canada,ontario,toronto,m5g 1x5
26343,1001 decarie blvd,montreal childrens hospital,quebec,montreal,h4a 3j1
26346,1361 avenue beaumont,institut orl de montreal,quebec,montroyal,h3p 2h7
26365,400 university avenue,saint john regional hospital,new brunswick,saint john,e2l 4l2
26366,1200 main street west,mcmaster childrens hospital,ontario,hamilton,l8n 3z5
26447,330 east columbia street,royal columbian hospital,british columbia,new westminster,v3l 3w7
26452,8440112 street,stollery childrens hospital university of alberta,alberta,edmonton,t6g 2b7
26459,555 university avenue,hospital for sick children,ontario,toronto,m5g 1x8
26600,cp 6128 succursale centreville,universit� de montr�al pavillon rogergaudry,quebec,montréal,h3c 3j7
26615,1401 18e rue,centre hospitalier universitaire de quebec,quebec,quebec city,g1j 1z4
26616,2300 tupper street,montreal childrens hospital,quebec,montreal,h3h 1p3
26620,555 university avenue,university health network,ontario,toronto,m5g 1x8
26649,501 smyth road,ottawa hospital,ontario,ottawa,k1h 8l6
26755,11405 87 avenue northwest,university of alberta,alberta,edmonton,t6g 1c9
26805,555 university avenue,hospital for sick children,ontario,toronto,m5g 1x8
26904,3175 cote saintecatherine,sainte justine hospital,quebec,montreal,h3t 1c5
26906,600 university avenue,mount sinai hospital  canada,ontario,toronto,m5g 1x5
26907,10240 kingsway northwest,royal alexandra hospital,alberta,edmonton,t5h 3v9
26946,409 tache avenue,university of manitoba,manitoba,winnepeg,r2h 2a6
26990,101 humber college boulevard,william osler health centre,ontario,etobicoke,m9v 1r8
27027,555 university avenue,hospital for sick children,ontario,toronto,m5g 1x8
27265,1664 dufferin street,liver care centre corporation,ontario,toronto,m6h 3m1
27266,820 sherbrook street,university of manitoba,manitoba,winnepeg,r3a 1r9
27268,5790 university avenue,dalhousie university,nova scotia,halifax,b3h 1v7
27293,3075 hospital gate,bone research and education centre,,oakville,l6m 1m1
27303,5790 universtiy avenuecentre for clinical research,nova scotia health authority capital district health authority,nova scotia,halifax,b3h 1v7
27304,2705 boulevard laurier,chu de quebecuniversite laval,quebec,quebec,g1v 4g2
27336,135 macbeath avenue,moncton hospital,new brunswick,moncton,e1c 6z8
27373,130 university campus,university of alberta,alberta,edmonton,t6g 2x8
27397,501 smyth road,ottawa hospital research institute,ontario,ottawa,k1h 8l6
27398,2705 boul laurier,centre hospitalier de luniversité laval,quebec,quebec,g1v 4g2
27409,555 university avenue,hospital for sick children,ontario,toronto,m5g 1x8
27412,1276 south park street,nova scotia health authority capital district health authority,nova scotia,halifax,b3h 2y9
27439,1200 main streethealth sciences centre hsc3h1d,mcmaster university medical centre,ontario,west hamilton,l8n 3z5
27440,8308 114 street,university of alberta hospital,alberta,edmonton,t6g 2v2
27474,268 grosvenor street,saint josephs healthcare system,ontario,london,n6a 4v2
27494,1058 stdenis,centre hospitalier de luniversite de montreal,quebec,montreal,h2x 3j4
27495,1001 decarie blvd,mcgill university health centre muhc,quebec,montreal,h4a 3j1
27525,427 princess streetethgrington hall,queens university,ontario,kingston,k7l3n6
27526,375 south street,university of western ontario,ontario,london,n6a 4g5
27540,2065 finch avenue west,toronto digestive disease associates inc,ontario,toronto,m3n 2v7
27558,820 sherbrook street,health sciences centre  winnipeg,manitoba,winnipeg,r3a 1r9
27561,1560 rue sherbrooke east,chum notre dame hospital,quebec,montreal,h2l 4m1
27567,687 avenue des pins ouest,royal victoria regional health centre,quebec,montreal,h3a1a1
27589,2065 finch avenue west,toronto digestive disease associates inc,ontario,toronto,m3n 2v7
27592,5400 boulevard gouin ouest,hopital du sacre coeur de montreal,quebec,montreal,h4j 1c5
27593,555 university avenue,hospital for sick children,ontario,toronto,m5g 1x8
27616,1001 decarie blvd,royal victoria hospital,quebec,montreal,h4a 3j1
27664,1403 29th street northwestcumming school of medicine,university of calgary medicine,alberta,calgary,t2n 2t9
27665,600 university avenue,mount sinai hospital  canada,ontario,toronto,m5g 1x5
27668,339 windermere road,lmc research org,ontario,london,n6a 5a5
27677,200 elizabeth street,university of toronto,ontario,toronto,m5g 2c4
27690,5820 university avenue,queen elizabeth ii health sciences center,nova scotia,halifax,b3h 1v7
27703,339 windermere road,lmc research org,ontario,london,n6a 5a5
27707,600 university avenue,mount sinai hospital  canada,ontario,toronto,m5g 1x5
27708,76 stuart streetmedical genetics connell 4,kingston general hospital,ontario,kingston,k7l 2v7
27716,555 university avenue,hospital for sick children,ontario,toronto,m5g 1x8
27732,345 oconnell drive,medical consultants of western newfoundland,newfoundland and labrador,corner brook,a2h 7e5
27733,60 murray street,fred a litwin family centre in genetic medicine,ontario,toronto,m5t 3l9
27745,300 prince philip driveprovincial medical genetics program,eastern health  health sciences center general hospital,newfoundland and labrador,newfoundland,a1b3v6
27788,1001 decarie boulevard,montreal childrens hospital,quebec,montreal,h3a 1a1
27814,600 university avenue,mount sinai hospital  canada,ontario,toronto,m5g 1x5
28008,cp 6128 succursale centreville,universit� de montr�al pavillon rogergaudry,quebec,montréal,h3c 3j7
28134,735 notre dame avenue,womens hospital,manitoba,winnipeg,r3e ol8
28219,1001 boulevard décarie,montreal childrens hospital,quebec,montreal,h4a 3j1
28261,555 university avenue,hospital for sick children,ontario,toronto,m5g 1x8
28327,3801 university street,montreal neurological institute and hospital,quebec,montreal,h3a 2b4
28328,2211 wesbrook mall,the university of british columbia,british columbia,vancouver,v6t 2b5
28457,,st michaels hospital,,,
28499,2950 chemin de polytechnique,hotel dieu du centre hospitalier de luniversite de montreal,quebec,montreal,h3c 1j4
28502,899 12th avenue west,vancouver general hospital,british columbia,vancouver,
28537,218 percy street,canadian centre for research on diabetes,ontario,smiths falls,k7a4w8
28546,725 parkdale avenueuniversity of ottawa  institut de recherche de lhospital dottawa,ottawa hospital,ontario,ottawa,k1y 4e9
28547,1440 14th avenue,regina general hospital,saskatchewan,regina,s4p 0w5
28552,2075 bayview avenuesunnybrook research institute sri,sunnybrook health sciences centre,ontario,toronto,m4n 3m5
28588,1200 main street west,mcmaster university medical centre,ontario,hamilton,l8n 3z5
28595,1967 riverside drive,ottawa hospital,,ottawa,k1h7w9
28620,2775 laurel street,vancouver general hospital,british columbia,vancouver,v5z1m9
28631,339 windermere road,london health sciences centre,ontario,london,n6a 5a5
28758,1647 woodroffe avenue,center for pediatric excellence,ontario,ottawa,k2g 1w2
28759,3280 hospital drive northwest,foothills medical centre,alberta,calgary,t2n 4z6
28763,1647 woodroffe avenue,center for pediatric excellence,ontario,ottawa,k2g 1w2
28785,269 boulevard saint jean,clinical research consultant group,quebec,pointe claire,h9r 3j1
28786,clinical skills building,the university of western ontario,ontario,london,n6a 5c1
28856,300 rossland road,the kids clinic,ontario,ajax,l1z 0m1
28862,3280 hospital drive northwest,foothills medical centre,alberta,calgary,t2n 4z6
28893,5657 spring garden road,halifax allergy and asthma associates,nova scotia,halifax,b3j 3r4
28915,,university of western ontario,,,
28927,1160 burrard street,providence health care research institute,british columbia,vancouver,v6t1z4
28941,585 university ave,university health network,ontario,toronto,m5g 2n2
29008,425 saint mary avenue,winnipeg clinic,manitoba,winnepeg,r3c 0n2
29009,110  470 hensall circle,cheema research inc,ontario,mississauga,l5a 3v4
29010,219 main street,clinic source unique,ontario,hawkesbury,k6a 1a1
29011,401 smyth road,childrens hospital of eastern ontario,ontario,ottawa,k1h 8l1
29037,401 smyth road,childrens hospital of eastern ontario,ontario,ottawa,k1h 8l1
29093,73 water street north vascular risk modification clinic,joanne f liutkus medicine professional corporation,ontario,cambridge,n1r 7l6
29094,1278 tower road,nova scotia health authority capital district health authority,nova scotia,halifax,b3h 2y9
29095,103 hospital drive,university of saskatchewan,saskatchewan,saskatoon,s7n 0w8
29096,715 coronation boulevard,dr saul vizel cardiac research office,ontario,cambridge,n1r 7r1
29097,2951 walkers line,jbn medical diagnostic services inc,ontario,burlington,l7m 4y1
29098,381 church street,markham stouffville,ontario,markham,l6b 1a1
29123,555 university avenue,hospital for sick children,ontario,toronto,m5g 1x8
29193,250 harding boulevard west,richmond hill childrens clinic,ontario,richmond hill,l4c 9m7
29196,490 bramalea road,aggarwal and associates ltd,ontario,brampton,l6t 0g1
29366,610 university avenue,princess margaret hospital,ontario,toronto,m5g 2m9
29390,50 charlton avenue east,st josephs healthcare hamilton,ontario,hamilton,l8n 4a6
29391,3175 chemin côte saintecatherine,sainte justine hospital,quebec,montreal,h3t 1c5
29404,3175 cote saintecatherine,sainte justine hospital,quebec,montreal,h3t 1c5
29500,4480 oak street,british columbia childrens hospital,british columbia,vancouver,v6h 3v4
29501,555 university avenue,hospital for sick children,ontario,toronto,m5g 1x8
29516,2950 chemin de polytechniquemarcellecoutu pavilion,centre hospitalier de luniversite de montreal hospital notre dame,quebec,montreal,h3c 1j4
29523,725 parkdale avenue,ottawa hospital,ontario,ottawa,k1y 4e9
29575,803 1st avenue north east,heart health research,alberta,calgary,t2e 7c5
29576,2880 chemin des quatre bourgeois,centre medical des halles,quebec,quebec city,g1v 4p9
29577,237 barton street east mcmaster clinic,hamilton general hospital,ontario,hamilton,l8l 2x2
29578,644 topsail road,topsail road medical clinic,newfoundland,saint johns,a1e2e2
29579,750 spadina crescent east,arun nayar md,saskatchewan,saskatoon,s7k 3h3
29580,2830 keele street,keele medical place,ontario,north york,m3m 3e5
29627,513715 mcdermot avenue,manitoba institute of child health,manitoba,winnipeg,r3e 3p4
29630,1213 4th street southwest,diabetes education centre,,calgary,t2r 0x7
29635,11402 university avenue,university of alberta,alberta,edmonton,t6g 2j3
29656,1605 gordon drive,medical arts health research group,,kelowna,viy 3g8
29664,301 1100 sheppard ave east,infant child and adolescent nutrition clinic,ontario,toronto,m2k 2w1
29710,3175 chemin de la côtesaintecatherine,sainte justine hospital,quebec,montreal,h3t 1c5
29785,800 commissioners road east,london health sciences centre,ontario,london,n6a 5w9
29786,300 prince philip drive,general hospital health sciences centre,newfoundland and labrador,st johns,a1b 3v6
29787,950 28th ave w,child and family research institute,british columbia,vancouver,v5z 4h4
29788,1058 rue saintdenis,centre hospitalier de luniversite de montreal,quebec,montreal,h2x 3j4
29793,825 coxwell avenue,toronto east general hospital,ontario,toronto,m4c 3e7
29867,1200 main street wes,mcmaster university  hamilton health sciences,ontario,hamilton,l8n 3z5
29910,300 prince philip drive,eastern health  health sciences center general hospital,,saint johns,a1b3v6
29950,3001 avenue 12e northhôpital fleurimont,centre hospitalier universitaire de sherbrooke chus,quebec,sherbrooke,j1h 5n4
29951,30 the queensway,st josephs health centre,ontario,toronto,m6r 1b5
29956,5790 university avenue,nova scotia health authority capital district health authority,nova scotia,halifax,b3h 1v7
29957,201280 main street westmichael g degroote institute for infectious disease research iidr,mcmaster university medical centre,ontario,hamilton,l8s 4l8
29958,1001 decarie boulevardroyal victoria hospital,mcgill university health center,quebec,montreal,h4a 3j1
29995,3075 hospital gate,bone research and education centre,ontario,oakville,l6m 1m1
30017,1560 east sherbrooke porte k6209department de microbiologie et infectiologie,chum notre dame hospital,quebec,montreal,h2l 4m1
30018,2075 bayview avenue,sunnybrook health sciences centre,ontario,toronto,m5g 1x8
30020,3120 boul taschereau,hopital charles le moyne,quebec,greenfield park,j4v 2h1
30021,400 university avenue,saint john regional hospital,new brunswick,saint john,e2l 4l2
30033,11560 university avenueclinical trials unit,cross cancer institute,alberta,edmonton,t6g 1z9
30041,1001 decarie boulevardblock e,mcgill university health center,quebec,montreal,h4a 3j1
30076,960 notre dame avenue,sudbury regional hospital,ontario,sudbury,p3a 2t4
30077,1401 18e rue,hopital de lenfant jesus,quebec,quebec city,g1j 1z4
30078,575 west 8th avenue,vancouver general hospital,british columbia,vancouver,v5z 1
30079,339 windermere road,london health sciences centre,ontario,london,n6a 5a5
30087,8215 112th street,alberta health services,alberta,edmonton,t6g 2c8
30088,600 west 10th avenue,british columbia cancer agency,british columbia,vancouver,v5z 4e6
30097,575 west 8th avenuedepartment critical care eschelon building,vancouver general hospital,british columbia,vancouver,v5z 1
30103,2705 boul laurier,centre hospitalier universitaire de quebec,quebec,quebec,g1v 4g2
30138,hospital maisonneuve  rosemont 5414 boulevard lassomption 3rd floor microbiologie,ciusssdel’estdel’îledemontréal,quebec,montreal,h1t 2m4
30142,546 pine avenue westoncology department,mcgill university,quebec,montreal,h9k 1p6
30143,700 university avenuehydro place building,princess margaret cancer centre,ontario,toronto,mg 1z6
30144,687 pine avenue west,royal victoria regional health centre,quebec,montreal,h3a 1a1
30146,725 parkdale avenue,ottawa hospital,ontario,ottawa,k1y 4e9
30147,11560 university avenueclinical trials unit,cross cancer institute,alberta,edmonton,t6g 1z9
30148,33303330 hospital dr nw,alberta health services,alberta,calgary,t2n 4n1
30163,3001 12e avenue nordcomité d’éthique de la recherche,centre hospitalier universitaire de sherbrooke chus,quebec,sherbrooke,j1h 5n4
30164,1280 main street west,mcmaster university medical centre,ontario,hamilton,l8n 3z5
30166,1796 summer st,halfax infirmary,nova scotia,halifax,b3h 3a7
30176,501 smyth rd bin 201,ottawa hospital research institute,ontario,ottawa,k1h 8l6
30206,3755 cote sainte catherine roadoncology departmnt,sir mortimer b davis jewish general hospital,quebec,montreal,h3t 1e2
30207,427 princess streetethgrington hall,queens university,ontario,kingston,k7l3n6
30208,750 base line road east,lawson health research institute,ontario,london,n6c 2r5
30209,6299 south street,dalhousie university,nova scotia,halifax,b3h 4h6
30210,3935 kincaid street,burnaby hospital,british columbia,burnaby,v5g 2x6
30213,445660 university avenue,mount sinai hospital  canada,ontario,toronto,m5g 1x5
30249,501 smith road,ottawa hospital,ontario,ottawa,k1h 8l6
30277,saint john regional hospital po box  cp 2100 research services,saint john regional hospital,new brunswick,saint john,e2l 4l2
30278,117 king street east,oshawa clinic,ontario,oshawa,l1h 1b9
30279,699 concession street,juravinski cancer centre,ontario,hamilton,l8v 5c2
30286,32900 marshall roadabbotsford centre,abbotsford regional hospital and cancer care centre,british columbia,abbotsford,v2s 0c2
30322,2935 conroy road,ottawa allergy research corporation,ontario,ottawa,k1g 6c6
30344,3175 ch de la cotesaintecatherine,sainte justine hospital,quebec,montreal,h3t 1c5
30392,200 elizabeth street,university health network,ontario,toronto,m5g 2c4
30405,3075 hospital gate,bone research and education centre,ontario,oakville,l6m 1m1
30435,1280 main street west,mcmaster university medical centre,ontario,hamilton,l8n 3z5
30446,1401 18e rue,chu de quebecuniversite laval,quebec,quebec,g1j 1z4
30455,7701190 hornby street,saint pauls hospital,british columbia,vancouver,v6z 2k5
30456,130 university campus,university of alberta,alberta,edmonton,t6g 2x8
30460,800 commissioners road east,london health sciences centre,ontario,london,n6a5w9
30480,399 bathurst street,toronto western hospital,ontario,toronto,m5t 2s8
30525,5415 boulevard de lassomption,hôpital maisonneuverosemont,quebec,montreal,h1t 2m4
30526,2111 finch avenue west,humber river regional hospital,ontario,toronto,m1n 1n1
30527,980 oliver road,thunder bay regional health sciences centre,ontario,thunder bay,p7b 6v4
30528,300 prince philip drive,memorial university of newfoundland,newfoundland and labrador,st johns,a1b 3v6
30529,2075 bayview avenue,sunnybrook health sciences centre,ontario,toronto,m4n 3m5
30570,4480 oak street,the university of british columbia,british columbia,vancouver,v6h 3v4
30585,50 charlton avenue east,saint josephs healthcare system,ontario,hamilton,l8n 4a6
30586,8440 112 street,university of alberta,alberta,edmonton,t6g 2b7
30677,8th floor 2775 laurel streetgordon  leslie diamond health care centre,vancouver general hospital vgh,british columbia,vancouver,v5z 1m9
30694,8440112 street northwest853 medical sciences building,university of alberta hospital,alberta,edmonton,t6g 2b7
30738,2075 bayview avenue,sunnybrook health sciences centre,ontario,toronto,m4n 3m5
30745,2211  wesbrook mall,university of british columbia ubc hospital,,vancouver,v6t 2b5
30748,2888 shaganappi trail northwest,university of calgary,alberta,calgary,t3b 6a8
30749,8440 112th street,university of alberta,alberta,edmonton,t6g 2b7
30753,339 windermere road,london health sciences centre,ontario,london,n6a 5a5
30764,3755 cote sainte catherine roadroom g19,jewish general  hospital,quebec,montreal,h3t1e2
30765,501 smyth road,ottawa hospital,ontario,ottawa,k1h 8l6
30818,8440  112 street nwwalter c mackenzie health sciences centre wmc,university of alberta hospital,alberta,edmonton,ab t6g 2b7
30890,600 university avenue,mount sinai hospital,ontario,toronto,m5g 1x5
30891,2065 finch avenue west,toronto digestive disease associates inc,ontario,toronto,m3n 2v7
30895,2705 boulevard laurier,chu de quebecuniversite laval,quebec,quebec,g1v 4g2
30898,5790 university avenuecenter for clinical research,nova scotia health authority capital district health authority,nova scotia,halifax,b3h 1v7
30972,pavillion saintfrancois dassise 10 rue de lespinay,centre hospitalier universitaire de quebec,quebec,quebec city,g1l3
30995,1001 decarie blvd,mcgill university health centre muhc  the montreal,quebec,montreal,h4a 3j1
30996,2888 shaganappi trail northwest,alberta childrens hospital,alberta,calgary,t3b 6a8
30997,800 commissioners road east,london health sciences centre,ontario,london,n6k 5w9
30998,58505980 university ave,iwk health centre,nova scotia,halifax,b3k 6r8
31083,2600 boulevard laurierresearch transition facility 4016 rtf,clinique spécialisée en allergie de la capitale,quebec,quebec city,g1v 4m6
31089,11405  87 avenue nwuniversity of alberta 4085 edmonton clinic health academy,university of alberta,alberta,edmonton,t6g 1c9
31105,820 sherbrook street,university of manitoba,manitoba,winnipeg,r3a 1r9
31207,5850 university avenue,iwk health centre,nova scotia,halifax,b3k 6r8
31233,3001 12th avenue north,centre hospitalier universitaire de sherbrooke chus,quebec,sherbrooke,j1h 5n4
31234,2775 laurel streetadult metabolic clinic,vancouver general hospital,british columbia,vancouver,v5z 1m9
31314,200 elizabeth streetuniversity health network,toronto general hospital,ontario,toronto,m5g 2c4
31315,2500 university drive northwest,the governors of the university of calgary,alberta,calgary,t2n 1n4
31338,1190 hornby streetfacility of medicine,bc women’s hospital and health centre,british columbia,vancouver,v6z 2k5
31340,8440 112 street northwest,university of alberta hospital,alberta,edmonton,t6g 2b7
31341,5400 boul gouin ouest,hopital du sacre coeur de montreal,quebec,montreal,h4j 1c5
31412,1 hospital court,lakeridge health center,ontario,oshawa,l1g 2b9
31456,62 barrie streetcenter for applied urological research,kingston general hospital,ontario,ontario,k7m 3j7
31457,4896  boulevard taschereau,recherche sepmus inc,quebec,greenfield park,j4v 2j2
31460,200 elizabeth street,toronto general hospital,ontario,toronto,m5g 2c4
31461,11350 83 ave,university of alberta,alberta,edmonton,t6g 2g3
31470,3280 hospital drive northwest,university of calgary,alberta,calgary,t2n 4z6
31499,5400 boulevard gouin ouest,hopital du sacre coeur de montreal,quebec,montreal,h4j 1c5
31503,790 commissioners road east,london regional cancer center,ontario,london,n6a 4l6
31529,600 west 10th avenue,british columbia cancer agency,british columbia,vancouver,v5z 4e6
31530,2100 bovaird drive east,william osler health system,ontario,brampton,l6r 3j7
31532,1503 carling avenue,ottawa hospital,ontario,ottawa,k1y 4e9
31534,2725 chemin sainte foy,institut universitaire de cardiologie et de pneumologie,quebec,quebec city,g1v 4g5
31550,362 lacewood drive,true north clinical research,nova scotia,halifax,b3s 1m7
31555,1615 dundas street east,the kids clinic,ontario,whitby,l1n 2l1
31569,800 commissioners road east,london health sciences centre,ontario,london,n6a5w9
31570,531 atkinson avenue,lifestyle metabolism center thornhill ltd,ontario,thornhill,l4j 8l7
31571,2b  1723 kipling avenue,lmc clinical research inc  diabetes and endocrinology  ppds,ontario,etobicoke,m9r 4e1
31584,555 university avenue,university of toronto,ontario,toronto,m5g 1x8
31585,5940 macleod trail southwest,calgary metabolic education and research centre,alberta,calgary,t2h 2g4
31592,151b dunlop street east,dr sudhir rajkhowa,ontario,barrie,l4m 1b2
31597,221679 davis drive,skds research inc,ontario,newmarket,l3y 5g8
31598,245 pleasant street,atlantic adhd center,nova scotia,dartmouth,b2y 1h6
31618,1001 decarie blvd,mcgill university health centre muhc  the montreal,quebec,montreal,h4a 3j1
31635,3755 côte ste catherine road,sir mortimer b davis jewish general hospital,quebec,montreal,h3t 1e2
31638,600 university avenue,mount sinai hospital  canada,ontario,toronto,on m5g 1x5
31655,201 georgian driveoncology clinical trials office,royal victoria regional health centre,ontario,barrie,l4m 6m2
31828,1929 bayview avenue,lmc clinical research inc  diabetes and endocrinology  ppds,ontario,toronto,m4g 3e8
31829,41022775 laurel street,bc diabetes,british columbia,vancouver,v5z 1m9
31839,3175 ch de la cotesaintecatherine,sainte justine hospital,quebec,montreal,h3t 1c5
31865,300 140 oxford street east,oxford aim clinic,ontario,london,n6a 5r9
31866,344 hume street,moran medical centre,ontario,collingwood,l9y 1w3
31867,496 topsail road,first line medical services ltd,newfoundland,saint johns,a1e 2c2
31868,60 street clair avenue east,centre medical acadie,,toronto,m4t 1
31869,9255 woodbine avenue,anapharm,ontario,markham,l6c 1y9
31870,4 robinson north,recherches cliniques theradev,quebec,granby,j2g 8z9
31871,1274750th street,medicentres canada incorporated,alberta,edmonton,t5a 4l8
31874,1001 decarie boulevard,mcgill university health center,quebec,montreal,h4a 3j1
31932,4480 oak street,british columbia childrens hospital,british columbia,vancouver,v6h 3v4
31986,5415 boul de lassomption,hôpital maisonneuverosemont,quebec,montreal,h1t 2m4
31993,3001 12e avenue nordcomité d’éthique de la recherche,centre hospitalier universitaire de sherbrooke chus,quebec,sherbrooke,j1h 5n4
31994,2705 boul laurier,centre hospitalier universitaire de quebec,quebec,quebec,g1v 4g2
32003,11560 university avenueclinical trials unit,cross cancer institute,alberta,edmonton,t6g 1z9
32007,hopital de lenfantjesus hej lodge1401 18e rue 3rd fl,hopital de lenfant jesus,quebec,quebec,g1j 1z4
32034,300112th avenue north rheumatology divisionrheumatology division,centre hospitalier universitaire de sherbrooke chus,quebec,sherbrooke,j1h 5n4
32035,2705 boulevard laurier,centre hospitalier universitaire de quebec,quebec,sainte foy,g1v 4g2
32036,2329 west mall,the university of british columbia,british columbia,vancouver,v6t 1z4
32037,18 pine street,shivinder jolly medicine,ontario,kitchener,n2h 5z8
32038,5955 veterans memorial lane,nova scotia health authority capital district health authority,nova scotia,halifax,b3h 2e1
32039,687 pine west avenue,mcgill university health center,quebec,montreal,h3a1a1
32054,1200 main street westhamilon health science center chedoke hospital,mcmaster university  hamilton health sciences,ontario,hamilton,l8n 3z5
32077,3801 university street room 207 qc h3a 2b4,montreal neurological institute and hospital,quebec,montreal,h3a 2b4
32079,3330 hospital drive northwest,university of calgary medicine,alberta,calgary,t2n 4n1
32087,339 windermere road,london health sciences centre,ontario,london,n6a 5a5
32090,33303330 hospital dr nwhotchkiss brain institute hbi calgary brain institute,university of calgary medicine,alberta,calgary,t2n 4n1
32297,,markham stouffville,,,
32298,1200 main street w,mcmaster childrens hospital,ontario,hamilton,l8n 3z5
32330,8th floor 2775 laurel streetgordon  leslie diamond health care centre,vancouver general hospital vgh,british columbia,vancouver,v5z 1m9
32425,17215 leslie street unit c,medical phase canada inc,ontario,newmarket,l3y 8e4
32426,2606 pandosy street,kelowna cardiology research,british columbia,kelowna,v1y 1v6
32427,3030 boulevard le carrefour,centre de rechere clinique de laval,quebec,laval,h7t 2p5
32428,221679 davis drive,sam henein md,ontario,newmarket,l3y 5g8
32505,600 tecumseh road east,windsor health centre,ontario,windsor,n8x 4w2
32537,699 concession street,juravinski cancer centre,ontario,hamilton,21231
32538,3001 12 ave n,centre hospitalier universitaire de sherbrooke chus,quebec,sherbrooke,j1h 5h3
32566,5160 decarie boulevard,inventiv health clinical,quebec,montreal,h3x 2h9
32568,2335 richmond avenue memorial pavillion kenning wing 1,office of david b miller md,alberta,victoria,v8r 1j8
32586,,manitoba institute of child health,,,
32587,1001 décarie boulevard,montreal childrens hospital,quebec,montreal,h4a 3j1
32595,1235 trafalgar road,lifestyle metabolism center,ontario,oakville,l6h 3p1
32654,1331 29 street north west,tom baker cancer center,alberta,calgary,t2n 4n2
33026,30 linden avenue,parkdale medical centre,prince edward island,charlottetown,c1a 5y9
33027,3280 hospital drive northwest,university of calgary medicine,alberta,calgary,t2n 4z6
33028,11402 university avenue,stollery childrens hospital university of alberta,alberta,edmonton,t6g 2j3
33054,8440 112 street northwest,university of alberta,alberta,edmonton,t6g 2b7
33100,3981 saint laurent comite dethique de recherche du pavillion cooper,centre hospitalier de luniversite de montreal,quebec,montreal,qc h2w
33219,60 street clair avenue east,sarnia institute of clinical research,,toronto,m4t 1
33225,1650 avenue cedar,montreal general hospital,quebec,montreal,h3g1a4
33226,219 main street,clinic source unique,ontario,hawkesbury,k6a 1a1
33229,fleming hall,queens university,ontario,kingston,k7l 3w6
33230,50 charlton southeastdepartment of medicine,queen elizabeth ii health sciences center,ontario,hamilton,l8n 4a6
33295,60 murray street,mount sinai hospital  canada,ontario,toronto,m5t 3l9
33296,10 avenue des pins ouest,clinical research institute of montreal,quebec,montreal,h2w 1r7
33297,800 commissioners road east,london health sciences centre,ontario,london,n6a 5w9
33298,626 main street,medical arts health research group,british columbia,penticton,v2a 5c8
33319,711 concession streetsecond floor lab,juravinski cancer centre,ontario,hamilton,m8v 1c3
33497,100 arden street,moncton hospital,new brunswick,moncton,e1c 4b7
33498,30 bond street bond wing,st michaels hospital,ontario,toronto,m5b 1w8
33499,143 rue wolfe,hotel dieu de levis,quebec,levis,g6v 3z1
33500,4401144 burrard street,saint pauls hospital,british columbia,vancouver,v6z 2a5
33501,5790 university avenue,queen elizabeth ii health sciences center,nova scotia,halifax,b3h 1v7
33506,1200 main street west,mcmaster childrens hospital,ontario,hamilton,l8n 3z5
33508,4480 oak street,british columbia childrens hospital,british columbia,vancouver,v6h 3v4
33541,,hydrostone medical centre,,,
33543,1025 pine avenue west,recherche clinique sigma inc,,montreal,h3a 1
33547,2725 chemin saintefoy,institut universitaire de cardiologie et de pneumologie,quebec,quebec,g1v 4g5
33659,911 montee des pionniers,centre hospitalier pierre le gardeur,quebec,terrebonne,j6v 2h2
33736,2775 laurel streetgordon and leslie diamond health care centre,vancouver general hospital,british columbia,vancouver,v5z 1m9
33790,1001 decarie boulevardblock e,mcgill university health center,quebec,montreal,h3a 1a1
33791,711 concession streetsecond floor lab,juravinski cancer centre,ontario,hamilton,m8v 1c3
33824,5700 east sainte zotique,clinique sante cardio mc,quebec,montreal,h1t 3y7
33878,5400 gouin boulevard west intensive care unit,hopital du sacre coeur de montreal,quebec,montreal,h4j 1c5
33879,133129th street northwest,tom baker cancer centre,alberta,calgary,t2n 4n2
33880,hamilon health science center chedoke hospital2nd floor wilcox building,mcmaster university  hamilton health sciences,ontario,hamilton,l8n 3z5
33881,237 barton street eastmcmaster clinic,hamilton general hospital,ontario,hamilton,l8l 2x2
33923,610 university ave,princess margaret cancer centre,ontario,toronto,m5g 2m9
33925,50 charlton southeastdepartment of medicine,queen elizabeth ii health sciences center,ontario,hamilton,l8n 4a6
33968,187 hughson street south,alfred cividinos private practice,,hamilton,l8n 2b6
33973,300 140 oxford street east,oxfordrichmond medical,ontario,london,n6a 5r9
33976,60 saint clair avenue east,corunna medical services ltd,ontario,toronto,m4t 1n5
33977,490 bramalea road,aggarwal and associates ltd,ontario,brampton,l6t 0g1
33987,1119 stemarguerite,centre de recherche musculosquelettique,quebec,troisrivieres,g8z 1y2
33997,8127 stlaurent,metropolitan clinical research center,quebec,montreal,h2p 2m1
34020,501 smyth road,ottawa hospital,ontario,ottawa,k1h 8l6
34025,840 coxwell avenue,stephen s chow medicine professional corporation,ontario,east york,m4c 5t2
34026,610 university avenuemedical oncologyhematology,princess margaret hospital,ontario,toronto,m5g2m9
34037,8440112 street northwestwalter c mackenzie health sciences centre,university of alberta hospital,alberta,edmonton,t6g 2b7
34050,30 bond street16 cardinal carter,st michaels hospital,,ontario,m5b1w8
34058,11400 university ave nwedmonton clinic south level 4,university of alberta hospital,alberta,edmonton,t6g 1z1
34059,501 smyth road,ottawa hospital,ontario,ottawa,k1h 8l6
34060,co research services 5000 retail postal outlet university,university of saskatchewan,saskatchewan,saskatoon,s7n 4j8
34125,800 commissioners road east,london health sciences centre,ontario,london,n6a 4g5
34132,3280 hospital drive northwest,university of calgary medicine,alberta,calgary,t2n 4z6
34133,11560 university avenuecross cancer institute,cross cancer institute,alberta,edmonton,t6g 1z2
34162,2291 kipling avenue,manna research inc  ppds,,toronto,m9w 4l6
34174,5051033 davie street,saint pauls hospital,british columbia,vancouver,v6e 1m7
34342,1265 military trail,university of toronto,ontario,scarborough,m1c 1a4
34352,40 finchgate boulevard,entralogix clinical group,ontario,brampton,l6t 3j1
34387,zeidler ledcor center university of alberta 130 university campus,university of alberta,alberta,edmonton,abt68 2x8
34482,1401 18e rue,hopital de lenfant jesus,quebec,quebec,g1j 1z4
34483,200 elizabeth street,toronto general hospital,ontario,toronto,m5g 2c4
34493,2211 wesbrook  mall,university of british columbia ubc hospital,british columbia,vancouver,v6e2e3
34494,2775 laurel street,vancouver general hospital,british columbia,vancouver,v5z 1m9
34568,11560 university avenuecross cancer institute,cross cancer institute,alberta,edmonton,t6g 1z2
34569,5788 university ave,queen elizabeth ii health sciences center,nova scotia,halifax,b3h 1v8
34570,2075 bayview avenueodette cancer centre,sunnybrook health sciences centre,ontario,toronto,m4n 3m5
34791,2 lakeshore road,niagara peninsula arthritis center,ontario,st catharines,l2n 7e4
34843,1147 boul pie xi n,alpha clinical research llc,quebec,quebec,g3k 2p8
34844,1200 avenue germains des pres,groupe de recherche en maladies osseuses inc,quebec,quebec city,g1v 3m7
34845,295 saskatoon street,london east medical centre,ontario,london,n5w6a2
34958,339 windermere road,london health sciences centre,ontario,london,n6a 5a5
34968,3330 hospital drive northwest,university of calgary medicine,alberta,calgary,t2n 4n1
35053,600 university avenue,mount sinai hospital  canada,ontario,toronto,m5g 1x5
35289,2075 bayview ave,sunnybrook health sciences centre,new york,armonk,
35291,30 bond street,st michaels hospital,ontario,toronto,m5b 1w8
35399,610 university avenueprincess margaret cancer centre,princess margaret hospital,ontario,ontario,m5g 2m9
35402,13750 96th avenue,fraser valley centre british columbia cancer agency,british columbia,surrey,v3v 1z2
35474,687 pine avenue west,montreal general hospital,quebec,montreal,h3a 1a1
35475,7701190 hornby street,gi research institute,british columbia,vancouver,v6z 2k5
35476,gi associatesvictoria campus 375 south streetpo box 5375,london health sciences centre,ontario,london,n6a 4
35477,20619191 riverside drive,ottawa hospital,ontario,ottawa,k1h7w9
35495,1331  29th street northwest,tom baker cancer center,alberta,calgary,t2n 4n2
35497,1051 rue sanguinet,centre hospitalier de luniversite de montreal,quebec,montreal,h2x 3e4
35586,820 sherbrook street,university of manitoba,manitoba,winnepeg,r3a 1r9
35587,5415 boulevard de lassomption,ciusssdel�estdel��ledemontréal,quebec,montreal,h1t 2m4
35844,1200 main street wes,mcmaster university medical centre,ontario,hamilton,l8n 3z5
36058,3755 cote sainte catherine road,sir mortimer b davis jewish general hospital,quebec,montreal,h3t 1e2
36100,610 university avenuesuite 5106,princess margaret hospital  toronto,on,toronto,m5g 2m9
36142,4600 highway 7,toronto digestive disease associates inc,ontario,vaughan,l4l 4y7
36143,268 grosvenor street,saint josephs healthcare system,ontario,london,n6a 4v2
36211,1001 decarie boulevard,mcgill university health centre,qc,montreal,h4a 3j1
36212,dept of clinical neurosciences1402 29th street northwest,tom baker cancer center,ab,calgary,t2n 2t9
36293,nova scotia cancer center5790 university ave building,queen elizabeth ii health sciences centre,ns,halifax,b3h 1v7
36330,610 university avenuefloor 5207,toronto university health network,on,toronto,m5g 2m9
36426,11560 university avenue northwest,cross cancer institute,ab,edmonton,t6g 1z2
36463,dept of clinical neurosciences1402 29th street northwest,tom baker cancer center,ab,calgary,t2n 2t9
36473,london regional cancer program790 commissioners road east,victoria hospital,on,london,n6a 4l6
36493,11560 university avenue northwest,cross cancer institute,ab,edmonton,t6g 1z2
36504,hpital de lenfantjsus hej1401 18me rue,hopital de lenfantjesus,qc,quebec,g1j 1z4
36526,5415 boulevard de lassomption,hopital maisonneuverosemont,qc,montreal,h1t 2m4
36529,555 university avenue,toronto hospital for sick children,on,toronto,m5g 1x8
36530,1140587 avenue northwest,university of alberta,ab,edmonton,t6g 1c9
36633,501 smyth road,the ottawa hospital cancer centre,on,ottawa,k1h 8l6
36634,610 university avenueroom 5110,princess margaret cancer centre,on,toronto,m5g 2m9
36655,50 charlton avenue east3rd floorroom g344,mcmaster university,on,hamilton,l8n 4a6
36677,610 university avenue,princess margaret cancer centre,ontario,toronto,m5g 2m9
36688,3755 chemin de la ctesaintecatherinee1031,jewish general hospital,qc,montreal,h3t 1e2
36690,2503 university drive northwestcalgary regional health authority,alberta childrens hospital,ab,calgary,t2n 1n7
36691,3175 chemin de la cotesaintecatherine,centre hospitalier universitaire saintejustine,qc,montreal,h3t 1c5
36709,501 smyth road,the ottawa hospital,on,ottawa,k1h 8l6
36803,3755 chemin de la ctesaintecatherinee1031,jewish general hospital,qc,montreal,h3t 1e2
36887,3755 chemin de la ctesaintecatherine,jewish general hospital,quebec,montreal,h3t 1e2
36908,610 university avenuefloor 5207,princess margaret cancer centre,on,toronto,m5g 2m9
37036,221679 davis drive,skds research inc,ontario,newmarket,l3y 5g8
37042,3330 hospital drive northwest,university of calgary medicine,alberta,calgary,t2n 4n1
37169,750 spadina crescent east,arun nayar md,saskatchewan,saskatoon,s7k 3h3
37256,department of diagnostic imaging1276 south park streetroom 3016 south victoria building,nova scotia health authority,ns,halifax,b3h 2y9
37533,855 west 12th avenueblackmore pavilion6th floor lb6,vancouver general hospital,bc,vancouver,v5z 1m9
37562,610 university avenuefloor 5207,toronto university health network,on,toronto,m5g 2m9
37589,1605 gordon drive,medical arts health research group,british columbia,kelowna,v1y 3g8
37593,757 klo road,scimed research inc,british columbia,kelowna,v1y 9l8
37594,1796 summer street,nova scotia health authority capital district health authority,nova scotia,halifax,b3h 3a7
37661,699 concession streetroom 393,juravinski cancer centre,on,hamilton,l8v 5c2
37767,644 topsail road,topsail road medical clinic,newfoundland,saint johns,a1e2e2
37817,675 mcdermot avenue,cancercare manitoba,mb,winnipeg,r3e 0v9
37818,3120 boulevard taschereausuite hs0054,centre integre de sante et de services sociaux de la monteregiecentre,qc,greenfield park,j4v 2h1
37956,5850 university avenue,iwk health centre,ns,halifax,b3k 6r8
38004,3120 boulevard taschereau,hopital charleslemoyne,qc,greenfield park,j4v 2h1
38028,20 campus drive,saskatchewan cancer agency,sk,saskatoon,s7n 4h4
38053,8054 yonge street,canadian centre for clinical trials,ontario,thornhill,l4j 1w3
38054,481 london road,london road diagnostic clinic and medical centre,ontario,sarnia,n7t 4x3
38056,1274750th street,alta clinical research inc,alberta,edmonton,t5a 4l8
38057,2830 keele street,keele medical place,ontario,north york,m3m 3e5
38062,5796 glover road,glover medical clinic,british columbia,langley,v3a 4h9
38090,,victoria clinical research inc,,,
38131,,legacy,,,
38144,,legacy,,,
38345,,legacy,,,
38358,,cross cancer institute,,,
38359,,torontosunnybrook regional cancer centre,,,
38360,,bc cancer agency,,,
38361,,jewish general hospital,,,
38362,,chum  hopital notredame,,,
38365,,bay area cancer research group   pleasant hill ca,,,
38366,,washington university cancer center pharmacy,,,
38367,,mcgill university  jewish general hospital,,,
38368,,charleston cancer center,,,
38369,,columbus ccop,,,
38370,,south texas institute of cancer,,,
38373,,mcphaden john md,,,
38374,,royal victoria medical center,,,
38379,,fred hutchinson cancer research center,,,
38380,,hopital hautepierre  chu strasbourg,,,
38381,,university of maryland,,,
38382,,new york medical college,,,
38383,,cape breton cancer ctr,,,
38417,4600 highway 7,toronto digestive disease associates inc,ontario,vaughan,l4l 4y7
38418,1200 main street west,mcmaster university medical centre,ontario,hamilton,l8n 3z5
38419,166 brock street,hotel dieu hospital,ontario,kingston,k7l 5g2
38608,,legacy,,,
38823,,,,,
38844,,legacy,,,
38849,,hopital charles lemoyne,,,
38855,,hôpital lapeyronie,,,
38945,855 west 12th avenue,vancouver general hospital,british columbia,vancouver,v5z 1m9
38968,,hopital maisonneuve  rosemont,,,
38971,,northwest alabama cancer center,,,
38972,,rush university medical center,,,
39037,,hopital de brabois adultes,,,
39042,,london health sciences centreuniversity hospital,,,
39043,,bc cancer agency,,,
39064,900 rue stdenis bureau r05630,centre hospitalier de luniversite de montreal,quebec,montreal,h2x 0a9
39065,103 hospital drive,royal university hospital,saskatchewan,saskatoon,s7n 0w8
39084,1280 main street west,mcmaster university medical centre,ontario,hamilton,l8n 3z5
39199,,vancouver general hospital,,,
39205,,institut de cancérologie de la loire,,,
39206,,hopital necker  enfants malades,,,
39207,,virginia commonwealth university,,,
39208,,center for cancer and blood disorders  fort worth tx,,,
39209,,burnaby hospital regional cancer centre,,,
39719,4101 dewdney avenue,saskatchewan cancer agency,sk,regina,s4t 7t1
39743,,,,,
39906,1051 sanguinet street,centre hospitalier de luniversite de montreal  hopital notredame,qc,montreal,h2x 3e4
39932,3755 chemin de la ctesaintecatherinee1031,jewish general hospital,qc,montreal,h3t 1e2
40009,,,,,
40067,,dr cal andreou research,,,
40068,,centre hospitalier universitaire de sherbrookehospital fleurimont,,,
40069,,ultramed inc,,,
40070,,centre hospitalier universitaire de quebec hotel dieu,,,
40071,,princess margaret hospital university health network,,,
40074,800 commissioners raod eastroom b1161b,london health sciences centre university hospital,on,london,n6a 5w9
40103,,moncton hospital,,,
40104,,bramalea medical centre,,,
40105,,cool comisión de investigación y etica región sanitaria 6,,,
40117,,sunnybrook and womens health sciences centre,,,
40118,,medical arts health research group,,,
40174,,prostate centre at ugh,,,
40176,,cape breton regional hospital,,,
40178,,ottawa,,,
40428,610 university ave,princess margaret hospital university health network,on,toronto,m5g 2m9
40611,,hopital hautleveque,,,
40612,,mcmaster university health sciences ctr,,,
40613,,chum  hopital notredame,,,
40614,,sparrow regional cancer center,,,
40617,,jewish general hospital,,,
40702,,urology south shore research,,,
40703,,dr gary steinhoff clinical research,,,
40704,,male and females health and research centres,,,
40705,,prostate centre at vgh,,,
40713,,prostate cancer institute,,,
40714,,anthony skehan medicine professionals corporation,,,
40716,,male health center,,,
40717,,humber river regional hospital,,,
40738,,stanley flax medical professional corporation,,,
40794,,mcgill university  jewish general hospital,,,
40807,,,,,
40861,,,,,
41012,,centre hospitalier universitaire de sherbrookehospital fleurimont,,,
41013,,southern interior medical research incorporated,,,
41028,,london health sciences centreuniversity hospital,,,
41029,,guelph urology associates,,,
41030,,dr ken jansz,,,
41031,,sinkaf incorporated,,,
41096,,canmed clinical research incorporated,,,
41097,,princess margaret hospital university health network,,,
41104,,male health centres,,,
41105,,dr ken jansz,,,
41106,,joseph brant memorial hospital,,,
41108,,william osler health centre,,,
41124,,uro laval,,,
41134,,british columbia cancer agency,,,
41210,5415 boulevard de lassomption,hopital maisonneuverosemont,qc,montreal,h1t 2m4
41211,675 mcdermot avenue,cancercare manitoba,mb,winnipeg,r3e 0v9
41236,,legacy,,,
41308,,urology south shore research,,,
41309,,male and females health and research centres,,,
41310,,prostate centre at vgh,,,
41333,,,,,
41399,,urotec,,,
41408,,london health sciences centreuniversity hospital,,,
41445,,quest clinical trials  scarborough on,,,
41459,,urology resource centre,,,
41460,,mahoney medicine professional corporation,,,
41482,,prostate cancer institute,,,
41483,,guelph urology associates,,,
41521,2503 university drive northwestcalgary regional health authority,alberta childrens hospital,ab,calgary,t2n 1n7
41531,,brantford urology research,,,
41533,,alberta urology institute research centre,,,
41534,,quest clinical trial  markham on,,,
41557,,peter vlaovic medical professional corporation,,,
41582,,the scarborough hospital,,,
41605,900 rue saint denis,centre de recherche du centre hospitalier de luniversite de montreal,quebec,montreal,h2x 0a9
41637,820 sherbrook street,cancercare manitoba,mb,winnipeg,r3e 0v9
41655,,the hospital for sick children,,,
41719,,brantford urology research,,,
41785,,ultramed inc,,,
41786,,centre hospitalier universitaire de quebec hotel dieu,,,
41801,,anthony skehan medicine professionals corporation,,,
41979,,the scarborough hospital,,,
42063,,cross cancer institute,,,
42075,,dr bernard goldfarb,,,
42088,,urotec,,,
42280,,cape breton regional hospital,,,
42281,,quest clinical trial  markham on,,,
42300,,peter vlaovic medical professional corporation,,,
42372,,cross cancer institute,,,
42373,,tom baker cancer centre,,,
42401,,dr gary steinhoff clinical research,,,
42407,,dr cal andreou research,,,
42409,,london health sciences centreuniversity hospital,,,
42448,,stanley flax medical professional corporation,,,
42635,,hopital charles lemoyne,,,
42639,,baptist regional cancer center,,,
42640,,saint lukes hospital of kansas city,,,
42641,,dana farber cancer institute,,,
42642,,washington cancer institute  medstar health,,,
42643,,hopital jean minjoz  chu de besançon,,,
42644,,virginia crosson cancer ctr,,,
42645,,hôpital du sacrécoeur de montréal,,,
42704,,,,,
42735,,hôpital claude huriez,,,
42736,,ch de mulhouse  hopital emile muller,,,
42737,,institut bergonié  centre régional de lutte contre le cancer de bordeaux et sudouest,,,
42738,,jewish general hospital,,,
42739,,kalamazoo hematology and oncology,,,
42740,,mcgill university health centredept oncology,,,
43130,,british columbia cancer agency,,,
43142,,hopital notredame,,,
43143,,centre hospitalier universitaire de sherbrookehospital fleurimont,,,
43169,,london health sciences centreuniversity hospital,,,
43255,,centre hospitalier universitaire de quebec hotel dieu,,,
43268,,,,,
43503,,mor urology incorporated,,,
43513,,chuq pavillon hoteldieu,,,
43600,,janeway childrens health  rehabilitation hospital,,,
43601,,chu sainte justine,,,
43632,,,,,
43747,,kingston general hospital,,,
43803,,uro services incorporated,,,
43967,,,,,
44026,,,,,
44049,,,,,
44113,,,,,
44134,,,,,
44161,,,,,
44189,,london health sciences centreuniversity hospital,,,
44211,,,,,
44261,,,,,
44415,,,,,
44423,,,,,
44428,,mcmaster institute of urology,,,
44429,,cool comisión de investigación y etica región sanitaria 6,,,
44430,,notredame hospital,,,
44431,,todd webster md,,,
44432,,quest clinical trials  scarborough on,,,
44433,,dr allan abramovitch,,,
44449,,,,,
44465,,british columbias childrens hospital,,,
44466,,the hospital for sick children,,,
44467,,saskatchewan cancer agency,,,
44501,,,,,
44520,,,,,
44546,,jonathan giddens medicine professional corporation,,,
44547,,mor urology incorporated,,,
44548,,sinkaf incorporated,,,
44556,,saint josephs health centre,,,
44557,,canmed clinical research incorporated,,,
44558,,probity medical research incorporated,,,
44559,,tom baker cancer centre,,,
44560,,bruce w palmer urology incorporated,,,
44561,,northern urology center,,,
44608,,mcmaster childrens hospital,,,
44688,,hamilton district urology association,,,
44704,,uro services incorporated,,,
44712,,mahoney medicine professional corporation,,,
44858,,moncton hospital,,,
44859,,notredame hospital,,,
44860,,todd webster md,,,
44861,,british columbia cancer agency,,,
44900,,saint josephs health centre,,,
44901,,probity medical research incorporated,,,
44913,,uro laval,,,
44917,,male health center,,,
44918,,dr allan abramovitch,,,
44939,,the ottawa hospital cancer centre,,,
44991,,,,,
45091,,,,,
45117,,urology resource centre,,,
45127,,montreal childrens hospital,,,
45353,,,,,
45368,,childrens hospital of eastern ontario,,,
45435,,,,,
