SR_NUM,CONCAT_ADDRESS,SITE_NAME,STATE,CITY,POSTAL_CODE
7861,corso bramante 8890,azienda ospedaliera città della salute e della scienza di torino,torino,torino,00126
7862,dipto oncologia medicavia alvaro del portillo 200,policlinico universitario campus biomedico,roma,roma,00128
7863,via alvaro del portillo 200,policlinico universitario campus biomedico di roma,roma,roma,00128
7864,via alvaro del portillo 200,policlinico universitario campus biomedico di roma,roma,roma,00128
7865,via alvaro del portillo 200,policlinico universitario campus biomedico di roma,roma,roma,00128
7866,via alvaro del portillo 200,policlinico universitario campus biomedico di roma,roma,roma,00128
7867,via alvaro del portillo 200,policlinico universitario campus biomedico di roma,roma,roma,00128
7868,via alvaro del portillo 200,policlinico universitario campus biomedico di roma,roma,roma,00128
7869,via alvaro del portillo 200,policlinico universitario campus biomedico di roma,roma,roma,00128
7870,viale oxford 81azienda ospedaliera univ pol tor vergata  dermatologia,azienda ospedaliera universitaria policlinico tor vergata,roma,roma,00133
7871,viale oxford 81azienda ospedaliera univ pol tor vergata  dermatologia,azienda ospedaliera universitaria policlinico tor vergata,roma,roma,00133
7872,viale oxford 81,azienda ospedaliera universitaria policlinico tor vergata,rome,roma,00133
7873,viale oxford 81azienda ospedaliera univ pol tor vergata  dermatologia,fondazione ptv  policlinico tor vergata,rome,roma,00133
7874,via montpellier 1dipartimento di neuroscienze,fondazione ptv policlinico tor vergata,lazio,roma,00133
7875,viale oxford 81uoc gastroenterologia ed endoscopia digestiva,fondazione ptv policlinico tor vergata,lazio,roma,00133
7876,viale oxford 81uoc servizio di reumatologia,fondazione ptv policlinico tor vergata,lazio,roma,00133
7877,viale oxford 81uoc oncoematologia,fondazione ptv policlinico tor vergata,lazio,roma,00133
7878,viale oxford 81uoc gastroenterologia ed endoscopia digestiva,fondazione ptv policlinico tor vergata,lazio,roma,00133
7879,viale oxford 81,fondazione ptv policlinico tor vergata,lazio,roma,00133
7880,viale oxford 81uoc gastroenterologia ed endoscopia digestiva,fondazione ptv policlinico tor vergata,lazio,roma,00133
7881,viale oxford 81,fondazione ptv policlinico tor vergata,lazio,roma,00133
7882,viale oxford 81uoc gastroenterologia ed endoscopia digestiva,fondazione ptv policlinico tor vergata,lazio,roma,00133
7883,viale oxford 81uoc gastroenterologia ed endoscopia digestiva,fondazione ptv policlinico tor vergata,lazio,roma,00133
7884,viale oxford 81uoc gastroenterologia ed endoscopia digestiva,fondazione ptv policlinico tor vergata,lazio,roma,00133
7885,viale oxford 81uoc gastroenterologia ed endoscopia digestiva,fondazione ptv policlinico tor vergata,lazio,roma,00133
7886,viale oxford 81azienda ospedaliera universitaria policlinico tor vergata,fondazione ptv policlinico tor vergata,lazio,rome,00133
7887,viale oxford 81azienda ospedaliera universitaria policlinico tor vergata,fondazione ptv policlinico tor vergata,lazio,rome,00133
7888,viale oxford 81azienda ospedaliera universitaria policlinico tor vergata,fondazione ptv policlinico tor vergata,lazio,rome,00133
7889,viale oxford 81azienda ospedaliera universitaria policlinico tor vergata,fondazione ptv policlinico tor vergata,lazio,rome,00133
7890,viale oxford 81azienda ospedaliera universitaria policlinico tor vergata,fondazione ptv policlinico tor vergata,lazio,rome,00133
7891,viale oxford 81,fondazione ptv policlinico tor vergata,lazio,rome,00133
7892,viale oxford 81azienda ospedaliera universitaria policlinico tor vergata,fondazione ptv policlinico tor vergata,lazio,rome,00133
7893,via tommaso gargollo  24largo agostino gemelli 8,fondazione policlinico universitario agostino gemelli irccs,roma,roma,00137
7894,via tommaso gargollo  24largo agostino gemelli 8,fondazione policlinico universitario agostino gemelli irccs,roma,roma,00137
7895,via elio chianesi 53,istituto nationale tumori regina elena,roma,roma,00144
7896,via elio chianesi 53istituti fisioterapici ospitalieri,istituto nazionale tumori regina elena,lazio,rome,00144
7897,piazzale dellumanesimo 10divisione di ematologia,ospedale s eugenio,lazio,roma,00144
7898,piazzale umanesimo 10unità operativa complessa ematologia,ospedale s eugenio,lazio,roma,00144
7899,endocrinologiaviale di san paolo 15,ospedale pediatrico bambino gesu,roma,roma,00146
7900,circonvallazione gianicolenseunità di ematologia e centro trapianti di cellule staminali,azienda ospedaliera san camillo forlanini,lazio,roma,00152
7901,circonvallazione gianicolense 87uosd malattie intestinali croniche,azienda ospedaliera san camillo forlanini,lazio,roma,00152
7902,circonvallazione gianicolense 87,azienda ospedaliera san camillo forlanini,lazio,roma,00152
7903,circonvallazione gianicolense 87gastroenterol ed endoscopia dig e diagn operat,azienda ospedaliera san camillo forlanini,lazio,roma,00152
7904,circonvallazione gianicolense 87uosd malattie intestinali croniche,azienda ospedaliera san camillo forlanini,lazio,roma,00152
7905,circonvallazione gianicolense 87uosd malattie intestinali croniche,azienda ospedaliera san camillo forlanini,lazio,roma,00152
7906,circonvallazione gianicolense 87uosd malattie intestinali croniche,azienda ospedaliera san camillo forlanini,lazio,roma,00152
7907,circonvallazione gianicolense 87gastroenterol ed endoscopia dig e diagn operat,azienda ospedaliera san camillo forlanini,lazio,roma,00152
7908,circonvallazione gianicolense 87gastroenterol ed endoscopia dig e diagn operat,azienda ospedaliera san camillo forlanini,lazio,roma,00152
7909,circonvallazione gianicolense 87gastroenteroled endoscopia digestiva diagnostica,azienda ospedaliera san camillo forlanini,lazio,roma,00152
7910,circonvallazione gianicolense 87gastroenterol ed endoscopia dig e diagn operat,azienda ospedaliera san camillo forlanini,lazio,roma,00152
7911,circonvallazione gianicolense 87unità operativa di cardiologia interventistica,azienda ospedaliera san camillo forlanini,lazio,roma,00152
7912,circonvallazione gianicolense 87unità di ematologia e centro trapianti di cellule staminali,azienda ospedaliera san camillo forlanini,lazio,roma,00152
7913,circonvallazione gianicolense 87,azienda ospedaliera san camillo forlanini,lazio,roma,00152
7914,circonvallazione gianicolense 87unità di ematologia e centro trapianti di cellule staminali,azienda ospedaliera san camillo forlanini,lazio,roma,00152
7915,circonvallazione gianicolense 87co azienda ospedaliera san camillo forlanini,azienda ospedaliera san camillo forlanini,roma,roma,00152
7916,circonvallazione gianicolese 87,azienda ospedaliera san camillo forlanini,roma,roma,00152
7917,unit operativa di oncologia medicacirconvallazione gianicolense 871 piano,azienda ospedaliera san camillo forlanini,roma,roma,00152
7918,via benevento 6dipartimento di ematologia clinical trial service piano 1,azienda ospedaliera universitaria policlinico umberto i  università di roma la sapienza,roma,roma,00161
7919,via benevento 6,azienda ospedaliera universitaria policlinico umberto i  università di roma la sapienza,roma,roma,00161
7920,via benevento 6,azienda ospedaliera universitaria policlinico umberto i  università di roma la sapienza,roma,roma,00161
7921,via benevento 6,azienda ospedaliera universitaria policlinico umberto i  università di roma la sapienza,roma,roma,00161
7922,via benevento 6,azienda ospedaliera universitaria policlinico umberto i  università di roma la sapienza,roma,roma,00161
7923,via benevento 6,azienda ospedaliera universitaria policlinico umberto i  università di roma la sapienza,roma,roma,00161
7924,via delluniversità 30,azienda ospedaliera universitaria policlinico umberto i  università di roma la sapienza,roma,roma,00161
7925,via delluniversità 30,azienda ospedaliera universitaria policlinico umberto i  università di roma la sapienza,roma,roma,00161
7926,viale del policlinico 151,azienda ospedaliera universitaria policlinico umberto i  università di roma la sapienza,rome,roma,00161
7927,via benevento 6dipartimento di biotecnologie ed ematologia  sezione ematologia,azienda policlinico umberto i,lazio,roma,00161
7928,via benevento 6,azienda policlinico umberto i,lazio,roma,00161
7929,via benevento 6,azienda policlinico umberto i,lazio,roma,00161
7930,via benevento 6dipartimento di biotecnologie cellulari ed ematologia,azienda policlinico umberto i,lazio,roma,00161
7931,via benevento 6,azienda policlinico umberto i,lazio,roma,00161
7932,via benevento 6dipartimento di biotecnologie ed ematologia  sezione ematologia,azienda policlinico umberto i,lazio,roma,00161
7933,via benevento 6uoc ematologia dipartimento di biotecnologie cellulari ed ematologia,azienda policlinico umberto i,lazio,roma,00161
7934,via benevento 6uoc ematologia dipartimento di biotecnologie cellulari ed ematologia,azienda policlinico umberto i,lazio,roma,00161
7935,via benevento 6uoc ematologia dipartimento di biotecnologie cellulari ed ematologia,azienda policlinico umberto i,lazio,roma,00161
7936,viale del policlinico 155dipartimento di scienze dellinvecchiamento,azienda policlinico umberto i,lazio,roma,00161
7937,viale del policlinico 155dipartimento di scienze dellinvecchiamento,azienda policlinico umberto i,lazio,roma,00161
7938,viale del policlinico 155dipartimento di biotecnologie cellulari ed ematologia,azienda policlinico umberto i,lazio,roma,00161
7939,viale del policlinico 155dipartimento di scienze dellinvecchiamento,azienda policlinico umberto i,lazio,roma,00161
7940,viale regina elena 324dipartimento di medicina sperimentale – sez di fisiopatologia medica ed endocrinologia,azienda policlinico umberto i,lazio,roma,00161
7941,via benevento 6centro di ematologia,azienda policlinico umberto i,roma,roma,00161
7942,via benevento 6centro di ematologia,azienda policlinico umberto i,roma,roma,00161
7943,dipartamento di biotecnologie cellulari ed ematologiasezione di ematologiavia benevento 6,centro di ematologia policlinico umberto i universita sapienza di roma,roma,roma,00161
7944,dipartimento di biotecnologie cellulari ed ematologiasezione di ematologiavia benevento 6,centro di ematologia policlinico umberto i universita sapienza di roma,roma,roma,00161
7945,via chianesi 53,presidio ospedaliero di livorno,roma,roma,00161
7946,viale regina elena 324pediatric gastroenterology unit,sapienza university of rome,lazio,rome,00161
7947,viale del policlinico 155,universita degli studi di roma la sapienza  umberto i policlinico di roma,roma,roma,00161
7948,viale del policlinico 155centro di ematologia,universita degli studi la sapienza,lazio,rome,00161
7949,piazza santonofrio 4,bambin gesu hospital  ospedale pediatrico bambin gesu,rome,rome,00165
7950,piazza santonofrio 4,department of pediatric hematology and oncology irccs ospedale pediatrico bambino gesã¹,italy,rome,00165
7951,piazza santonofrio 4dipartimento di cardiologia pediatrica,irccs ospedale pediatrico bambino gesù,lazio,roma,00165
7952,piazza s onofrio 4division of metabolism,irccs ospedale pediatrico bambino gesù  incipit  pin,lazio,roma,00165
7953,piazza s onofrio 4dipartimento di oncoematologia pediatrica e medicina trasfusionale,irccs ospedale pediatrico bambino gesù  incipit  pin,lazio,roma,00165
7954,piazza s onofrio 4dipartimento di oncoematologia pediatrica e medicina trasfusionale,irccs ospedale pediatrico bambino gesù  incipit  pin,lazio,roma,00165
7955,piazza sant onofrio 4dipartimento di oncoematologia pediatrica e medicina trasfusionale,irccs ospedale pediatrico bambino gesù  incipit  pin,lazio,roma,00165
7956,piazza sant onofrio 4dipartimento di oncoematologia pediatrica e medicina trasfusionale,irccs ospedale pediatrico bambino gesù  incipit  pin,lazio,roma,00165
7957,piazza sant onofrio 4dipartimento di oncoematologia pediatrica e medicina trasfusionale,irccs ospedale pediatrico bambino gesù  incipit  pin,lazio,roma,00165
7958,piazza santonofrio 4nefrologia pediatricaunità trapianto emopoietico e terapia cellulare,irccs ospedale pediatrico bambino gesù  incipit  pin,lazio,roma,00165
7959,piazza s onofrio 4uoc farmacia ospedaliera,irccs ospedale pediatrico bambino gesù  incipit  pin,roma,roma,00165
7960,piazza s onofrio 4,ospedale pediatrico bambino gesù,roma,roma,00165
7961,piazza s onofrio 4,ospedale pediatrico bambino gesù,roma,roma,00165
7962,piazza s onofrio 4,ospedale pediatrico bambino gesù,roma,roma,00165
7963,piazza s onofrio 4,ospedale pediatrico bambino gesù,roma,roma,00165
7964,piazza sant onofrio 43° piano stanza k5,ospedale pediatrico bambino gesù,roma,roma,00165
7965,piazza sant’onofrio 4padiglione giovanni paolo 2 3 piano stanza k5,ospedale pediatrico bambino gesù,rome,roma,00165
7966,via g moscati 31unità operativa di medicina interna e gastroenterologia,complesso integrato columbus,roma,roma,00168
7967,via g moscati 31unità operativa di medicina interna e gastroenterologia,complesso integrato columbus,roma,roma,00168
7968,via g moscati 31unità operativa di medicina interna e gastroenterologia,complesso integrato columbus,roma,roma,00168
7969,via g moscati 31unità operativa di medicina interna e gastroenterologia,complesso integrato columbus,roma,roma,00168
7970,via g moscati 31unità operativa di medicina interna e gastroenterologia,complesso integrato columbus,roma,roma,00168
7971,via g moscati 31unità operativa di medicina interna e gastroenterologia,complesso integrato columbus,roma,roma,00168
7972,largo a gemelli 8,fondazione policlinico universitario a gemelli,emiliaromagna,roma,00168
7973,largo a gemelli  8unità operativa di medicina interna e gastroenterologia,fondazione policlinico universitario a gemelli,lazio,roma,00168
7974,largo a gemelli  8,fondazione policlinico universitario a gemelli,lazio,roma,00168
7975,largo a gemelli  8,fondazione policlinico universitario a gemelli,lazio,roma,00168
7976,largo a gemelli 8uoc medicina interna gastroenterologia e malattie del fegato,fondazione policlinico universitario a gemelli,lazio,roma,00168
7977,largo a gemelli 8uoc medicina interna gastroenterologia e malattie del fegato,fondazione policlinico universitario a gemelli,lazio,roma,00168
7978,largo a gemelli 8uoc medicina interna gastroenterologia e malattie del fegato,fondazione policlinico universitario a gemelli,lazio,roma,00168
7979,largo a gemelli 8uoc medicina interna gastroenterologia e malattie del fegato,fondazione policlinico universitario a gemelli,lazio,roma,00168
7980,largo a gemelli 8uoc medicina interna gastroenterologia e malattie del fegatopiano 3 ala a,fondazione policlinico universitario a gemelli,lazio,roma,00168
7981,largo a gemelli 8uoc medicina interna gastroenterologia e malattie del fegato,fondazione policlinico universitario a gemelli,lazio,roma,00168
7982,largo a gemelli 8uoc medicina interna gastroenterologia e malattie del fegato,fondazione policlinico universitario a gemelli,lazio,roma,00168
7983,largo agostino gemelli 8cemad,fondazione policlinico universitario a gemelli,lazio,roma,00168
7984,largo agostino gemelli 8uo neurologiaistituto di neurologia,fondazione policlinico universitario a gemelli,lazio,roma,00168
7985,largo agostino gemelli 8unità operativa semplice di diabetologia,fondazione policlinico universitario a gemelli,lazio,roma,00168
7986,largo agostino gemelli 8cemad,fondazione policlinico universitario a gemelli,lazio,roma,00168
7987,largo agostino gemelli 8universita cattolica del sacro cuore,fondazione policlinico universitario a gemelli,lazio,roma,00168
7988,largo agostino gemelli 8institute of dermatology ucsc,fondazione policlinico universitario a gemelli,lazio,roma,00168
7989,largo agostino gemelli 8dipartimento per la tutela della salute della donna,fondazione policlinico universitario a gemelli,lazio,roma,00168
7990,largo agostino gemelli 8,fondazione policlinico universitario a gemelli,lazio,roma,00168
7991,largo agostino gemelli 8uoc di neonatologia,fondazione policlinico universitario a gemelli,lazio,roma,00168
7992,largo agostino gemelli 8cemad,fondazione policlinico universitario a gemelli,lazio,roma,00168
7993,largo gemelli 8istituto di ematologia,fondazione policlinico universitario a gemelli,lazio,roma,00168
7994,via giuseppe moscati 31,fondazione policlinico universitario a gemelli,lazio,roma,00168
7995,via giuseppe moscati 31,fondazione policlinico universitario a gemelli,lazio,roma,00168
7996,via giuseppe moscati 31dipartimento di oftalmologia,fondazione policlinico universitario a gemelli,lazio,roma,00168
7997,largo agostino gemelli 8divisione di ematologia,fondazione policlinico universitario a gemelli,liguria,rome,00168
7998,largo a gemelli 8unità terapia intesiva cardiologica e subintensiva,fondazione policlinico universitario a gemelli,roma,roma,00168
7999,largo a gemelli 8unità terapia intesiva cardiologica e subintensiva,fondazione policlinico universitario a gemelli,roma,roma,00168
8000,dipt di ginecologia oncologicalargo a gemelli 8,fondazione policlinico universitario agostino gemelli,roma,roma,00168
8001,largo a gemelli 8,fondazione policlinico universitario agostino gemelli,roma,roma,00168
8002,largo agostino gemelli 8,fondazione policlinico universitario agostino gemelli,roma,roma,00168
8003,largo a gemelli 8,fondazione policlinico universitario agostino gemelli irccs,roma,roma,00168
8004,largo agostino gemelli 8farmacia interna primo piano ala f stanza f194,fondazione policlinico universitario agostino gemelli irccs,roma,roma,00168
8005,largo agostino gemelli 8farmacia interna primo piano ala f stanza f194,fondazione policlinico universitario agostino gemelli irccs,roma,roma,00168
8006,largo agostino gemelli 8farmacia interna primo piano ala f stanza f194,fondazione policlinico universitario agostino gemelli irccs,roma,roma,00168
8007,servizio malattie emorragiche e trombotiche largo gemelli 8ala j piano 3,fondazione policlinico universitario agostino gemelli irccs,roma,roma,00168
8008,largo agostino gemelli 88,fondazione policlinico universitario agostino gemelli irccs,rome,roma,00168
8009,largo agostino gemelli 8,university of sacred heart policlinico a gemelli,rome,rome,00168
8010,viale università 30,azienda ospedaliera universitaria policlinico umberto i  università di roma la sapienza,roma,roma,00185
8011,viale università 30dipartimento di neuroscienze,azienda policlinico umberto i,lazio,roma,00185
8012,piazzale aldo moro 5,sapienza university of rome,lazio,roma,00185
8013,strada sammartinese,ospedale di belcolle,lazio,viterbo,01100
8014,strada sammartinese,ospedale di belcolle,lazio,viterbo,01100
8015,viale tristano di jaonnuccio 1struttura complessa di oncoematologia,azienda ospedaliera s maria di terni,umbria,terni,05100
8016,viale tristano di jaonnuccio 1struttura complessa di oncoematologia,azienda ospedaliera s maria di terni,umbria,terni,05100
8017,viale tristano di jaonnuccio 1struttura complessa di oncoematologia,azienda ospedaliera s maria di terni,umbria,terni,05100
8018,via brunamonti 51,azienda sanitaria universitaria integrata di udine  po universitario santa maria della misericordia,umbria,perugia,06122
8019,sc oncologia medicavia gdottori 1,azienda ospedaliera di perugia,perugia,perugia,06132
8020,piazza menghinistruttura complessa di ematologia con trapianto di midollo osseo,ospedale santa maria della misericordia di perugia,umbria,perugia,06156
8021,piazza menghinistruttura complessa di ematologia con trapianto di midollo osseo,ospedale santa maria della misericordia di perugia,umbria,perugia,06156
8022,viale san pietro 12universita degli studi di sassari istituto di ematologia,azienda ospedaliera universitaria di sassari,sardegna,sassari,07100
8023,ss 554 km 4500,azienda ospedaliera di cagliari  presidio monserrato,monserrato,cagliari,09042
8024,ss 554 km 4500,azienda ospedaliera di cagliari  presidio monserrato,monserrato,cagliari,09042
8025,ss 554 bivio per sestu,presidio policlinico di monserrato,sardegna,monserrato,09042
8026,via jenner,clinica pediatrica e malattie rare,sardegna,cagliari,09121
8027,7° piano ala b via edward jenner 1,ospedale oncologico businco ematologia e ctmo,italy,cagliari,09121
8028,piazzale ricchi 1sc gastroenterologia,ao brotzu  clinica di neuropsichiatria dellinfanzia e delladolescenza  incipit – pin,cagliari,cagliari,09134
8029,piazzale ricchi 1,ao brotzu  clinica di neuropsichiatria dellinfanzia e delladolescenza  incipit – pin,cagliari,cagliari,09134
8030,piazzale ricchi 1sc gastroenterologia,ao brotzu  clinica di neuropsichiatria dellinfanzia e delladolescenza  incipit – pin,cagliari,cagliari,09134
8031,piazzale ricchi 1sc gastroenterologia,ao brotzu  clinica di neuropsichiatria dellinfanzia e delladolescenza  incipit – pin,cagliari,cagliari,09134
8032,piazzale ricchi 1,ao brotzu  clinica di neuropsichiatria dellinfanzia e delladolescenza  incipit – pin,cagliari,cagliari,09134
8033,scdu malattie apparato respiratorio 5 ad indirizzo oncologicovia regione gonzole 10,azienda ospedaliero  universitaria san luigi gonzaga,torino,orbassano,10043
8034,regione gonzole 10divisione di medicina interna ed ematologia,azienda sanitaria ospedaliera s luigi gonzaga,piemonte,orbassano,10043
8035,regione gonzole 10,azienda sanitaria ospedaliera s luigi gonzaga,piemonte,orbassano,10043
8036,regione gonzole 10ssd terapia oncoematologica intensiva e trapianto cse,azienda sanitaria ospedaliera s luigi gonzaga,piemonte,orbassano,10043
8037,regione gonzole 10divisione di medicina interna ed ematologia,azienda sanitaria ospedaliera s luigi gonzaga,piemonte,orbassano,10043
8038,regione gonzole 10,azienda sanitaria ospedaliera s luigi gonzaga,piemonte,orbassano,10043
8039,strada provinciale 142,azienda ospedaliera città della salute e della scienza di torino,candiolo,torino,10060
8040,strada provinciale di none 142,fondazione del piemonte per l’oncologia irccs,piemonte,candiolo,10060
8041,corso dogliotti 14scdu endocrinologia diabetologia e metabolismo,università degli studi di torino,piemonte,torino,10123
8042,via ventimiglia 3dipartimento di discipline ginecologiche e ostetriche,azienda ospedaliera città della salute e della scienza di torino,piemonte,torino,10124
8043,via cherasco 11,azienda ospedaliera città della salute e della scienza di torino,torino,torino,10124
8044,corso bramante 88ematologia,azienda ospedaliera città della salute e della scienza di torino,piemonte,torino,10126
8045,corso bramante 88sscvd trapianto allogenico di cellule staminali,azienda ospedaliera città della salute e della scienza di torino,piemonte,torino,10126
8046,corso bramante 8890scdo ematologia 2,azienda ospedaliera città della salute e della scienza di torino,piemonte,torino,10126
8047,via cherasco 15dipartimento radiologia,azienda ospedaliera città della salute e della scienza di torino,piemonte,torino,10126
8048,via genova 3unità operativa ematologia 1,azienda ospedaliera città della salute e della scienza di torino,piemonte,torino,10126
8049,via genova 3ssd clinical trial in oncoematologia e mieloma multiplo,azienda ospedaliera città della salute e della scienza di torino,piemonte,torino,10126
8050,via genova 3unità operativa ematologia 1,azienda ospedaliera città della salute e della scienza di torino,piemonte,torino,10126
8051,corso bramante 88struttura complessa ematologia u,azienda ospedaliera città della salute e della scienza di torino,torino,torino,10126
8052,corso bramante 88,azienda ospedaliera città della salute e della scienza di torino,torino,torino,10126
8053,corso bramante 8890gastroenterologia u,azienda ospedaliera città della salute e della scienza di torino,torino,torino,10126
8054,corso bramante 8890gastroenterologia u,azienda ospedaliera città della salute e della scienza di torino,torino,torino,10126
8055,corso bramante 8890gastroenterologia u,azienda ospedaliera città della salute e della scienza di torino,torino,torino,10126
8056,corso bramante 8890,azienda ospedaliera città della salute e della scienza di torino,torino,torino,10126
8057,corso bramante 8890,azienda ospedaliera città della salute e della scienza di torino,torino,torino,10126
8058,corso bramante 8890,azienda ospedaliera città della salute e della scienza di torino,torino,torino,10126
8059,corso spezia 60,azienda ospedaliera città della salute e della scienza di torino,torino,torino,10126
8060,piazza polonia 94,azienda ospedaliera città della salute e della scienza di torino,torino,torino,10126
8061,struttura complessa di ematologiacorso bramante 8890,azienda ospedaliera universitaria citta della salute e della scienza di torino,piemonte,torino,10126
8062,via genova 3unità operativa ematologia 1,azienda ospedaliero universitaria san giovanni battista di torino,piemonte,torino,10126
8063,ospedale sgiovanni battista molinettedermatologia 2corso bramante 8890,azienda sanitaria ospedaliera sgiovanni battista molinette,italy,torino,10126
8064,piazza polonia 94sc oncoematologia pediatrica e centro trapianti,ospedale infantile regina margherita  incipit  pin,piemonte,torino,10126
8065,piazza polonia 94,ospedale infantile regina margherita  incipit  pin,piemonte,torino,10126
8066,piazza polonia 94,ospedale infantile regina margherita  incipit  pin,torino,turin,10126
8067,piazza polonia 94,ospedale infantile regina margherita  incipit  pin,torino,turin,10126
8068,via magellano n1ospedale umberto i di torino dipartimento strutturale medico  scdu ematologia,azienda ospedaliera ordine mauriziano di torino,piemonte,torino,10128
8069,via magellano1scdu ematologia,azienda ospedaliera ordine mauriziano di torino,piemonte,torino,10128
8070,via ferdinando magellano 1,azienda ospedaliera ordine mauriziano di torino,piemonte,turin,10128
8071,via ferdinando magellano 1sc gastroenterologia,azienda ospedaliera ordine mauriziano di torino,torino,torino,10128
8072,via ferdinando magellano 1sc gastroenterologia,azienda ospedaliera ordine mauriziano di torino,torino,torino,10128
8073,via ferdinando magellano 1sc gastroenterologia,azienda ospedaliera ordine mauriziano di torino,torino,torino,10128
8074,via ferdinando magellano 1sc gastroenterologia,azienda ospedaliera ordine mauriziano di torino,torino,torino,10128
8075,largo filippo turati62,ospedale mauriziano umberto i,torino,torino,10128
8076,largo filippo turati62,ospedale mauriziano umberto i,torino,torino,10128
8077,via m coppino 26struttura complessa ematologia,azienda sanitaria ospedaliera s croce e carle,piemonte,cuneo,12100
8078,via michele coppino 25hematology department and bmt unit,azienda sanitaria ospedaliera s croce e carle,piemonte,cuneo,12100
8079,via michele coppino 26,azienda sanitaria ospedaliera s croce e carle,piemonte,cuneo,12100
8080,divisione di cardiologia  utic,ospedale civile di cuneo santa croce e carle,cuneo,cuneo,12100
8081,piazzale dellumanesimo 10divisione di ematologia,ospedale s eugenio,lazio,roma,144
8082,piazzale umanesimo 10unità operativa complessa ematologia,ospedale s eugenio,lazio,roma,144
8083,piazzale dell umanesimo 10uoc di ematologia,ospedale s eugenio,lazio,rome,144
8084,via venezia 16,azienda ospedaliera nazionale santi antonio e biagio e cesare arrigo,alessandria,alessandria,15100
8085,via venezia 18struttura complessa oncologia  dipartimento oncoematologico,azienda ospedaliera santi antonio biagio e cesare arrigo,piemonte,allessandria  al,15100
8086,circonvallazione gianicolense 87department of gastroenterology,azienda ospedaliera san camillo forlanini,lazio,rome,152
8087,via benevento 6uoc ematologia,azienda policlinico umberto i,lazio,roma,161
8088,via mura delle cappuccine 1416128 genova,ente ospedaliero ospedali galliera,genova,genova,16128
8089,clinica ematologicalargo rosanna benzi 10,azienda ospedaliera universitaria san martino,genova,genova,16132
8090,largo paolo daneo 3,azienda ospedaliero universitaria san martino,genova,genova,16132
8091,largo rosanna benzi 10padiglione 15,azienda ospedaliero universitaria san martino,genova,genova,16132
8092,oncologia medica alargo rosanna benzi 10,azienda policlinico san martino,genova,genova,16132
8093,largo rosanna benzi 10,azienda policlinico san martino,liguria,genova,16132
8094,largo rosanna benzi 10,irccs  azienda ospedaliera universitaria  ist san martino,genova,genova,16132
8095,largo daneo  3dipartimento di neuroscienze riabilitazione oftalmologia genetica e scienze maternoinfantiliunità operativa clinica neurologica,irccs aou san martino,liguria,genova,16132
8096,largo r benzi 10clinica gastroenterologica con endoscopia,irccs az osp universitaria san martino ist,liguria,genova,16132
8097,largo r benzi 10clinica gastroenterologica con endoscopia,irccs az osp universitaria san martino ist,liguria,genova,16132
8098,largo r benzi 10clinica gastroenterologica con endoscopia,irccs az osp universitaria san martino ist,liguria,genova,16132
8099,largo r benzi 10clinica gastroenterologica con endoscopia,irccs az osp universitaria san martino ist,liguria,genova,16132
8100,largo r benzi 10clinica gastroenterologica con endoscopia,irccs az osp universitaria san martino ist,liguria,genova,16132
8101,largo r benzi 10clinica gastroenterologica con endoscopia,irccs az osp universitaria san martino ist,liguria,genova,16132
8102,largo r benzi 10clinica gastroenterologica con endoscopia,irccs az osp universitaria san martino ist,liguria,genova,16132
8103,largo rosanna benzi 10,irccs az osp universitaria san martino ist,liguria,genova,16132
8104,largo rosanna benzi 10,irccs az osp universitaria san martino ist,liguria,genova,16132
8105,largo rosanna benzi 10dipartimento di medicina interna  clinica  ematologica,irccs az osp universitaria san martino ist,liguria,genova,16132
8106,largo rosanna benzi 10,ospedale policlinico san martino,liguria,genoa,16132
8107,largo rosanna benzi 10unità operativa clinica ematologica,ospedale policlinico san martino,liguria,genova,16132
8108,piazzale rosanna benzi 10divisione di ematologia 2 centro trapianti di midollo osseo,ospedale policlinico san martino,liguria,genova,16132
8109,viale benedetto xv 5clinica oculistica,ospedale policlinico san martino,liguria,genova,16132
8110,largo rosanna benzi 10unità operativa clinica gastroentologica con endoscopia  dipartimento medicina interna,università degli studi di genova,liguria,genoa,16132
8111,largo rosanna benzi 10unità operativa clinica gastroentologica con endoscopia  dipartimento medicina interna,università degli studi di genova,liguria,genoa,16132
8112,largo rosanna benzi 10unità operativa clinica gastroentologica con endoscopia  dipartimento medicina interna,università degli studi di genova,liguria,genova,16132
8113,largo rosanna benzi 10unità operativa clinica gastroentologica con endoscopia  dipartimento medicina interna,università degli studi di genova,liguria,genova,16132
8114,largo rosanna benzi 10unità operativa clinica gastroentologica con endoscopia  dipartimento medicina interna,università degli studi di genova,liguria,genova,16132
8115,via gerolamo gaslini 5 padiglione n 12uosd trapianto staminali emopoietiche,istituto g gaslini ospedale pediatrico irccs  incipit  pin,genova,genova,16147
8116,via gerolamo gaslini 5 padiglione n 12,istituto g gaslini ospedale pediatrico irccs  incipit  pin,genova,genova,16147
8117,via gerolamo gaslini 5 padiglione n 12,istituto g gaslini ospedale pediatrico irccs  incipit  pin,genova,genova,16147
8118,largo gerolamo gaslini 5dipartimento di onco – ematologia pediatrica,istituto g gaslini ospedale pediatrico irccs  incipit  pin,liguria,genoa,16147
8119,largo gerolamo gaslini 5dipartimento di onco – ematologia pediatrica,istituto g gaslini ospedale pediatrico irccs  incipit  pin,liguria,genoa,16147
8120,l go g gaslini 5dipartimento di ematologia e oncologia pediatrica,istituto g gaslini ospedale pediatrico irccs  incipit  pin,liguria,genova,16147
8121,l go g gaslini 5dipartimento di ematologia e oncologia pediatrica,istituto g gaslini ospedale pediatrico irccs  incipit  pin,liguria,genova,16147
8122,l go g gaslini 5dipartimento di ematologia e oncologia pediatricadipartimento ematologia e oncologia pediatrica,istituto g gaslini ospedale pediatrico irccs  incipit  pin,liguria,genova,16147
8123,largo g gaslini 5,istituto g gaslini ospedale pediatrico irccs  incipit  pin,liguria,genova,16147
8124,largo g gaslini 5,istituto g gaslini ospedale pediatrico irccs  incipit  pin,liguria,genova,16147
8125,largo agostino gemelli 8uoc ematologia,fondazione policlinico universitario a gemelli,lazio,roma,168
8126,largo gemelli 1,university policlinico gemelli,lazio,roma,168
8127,largo gemelli 1unità operativa complessa oncologia medica,university policlinico gemelli,toscana,roma,168
8128,via di grottarossa 10351039uoc neurologia,azienda ospedaliera santandrea,lazio,roma,189
8129,corso europa 250gastroenterologia,asst rhodense  ospedale di rho,milano,rho,20017
8130,corso europa 250gastroenterologia,asst rhodense  ospedale di rho,milano,rho,20017
8131,corso europa 250gastroenterologia,asst rhodense  ospedale di rho,milano,rho,20017
8132,corso europa 250gastroenterologia,asst rhodense  ospedale di rho,milano,rho,20017
8133,corso europa 250gastroenterologia,asst rhodense  ospedale di rho,milano,rho,20017
8134,corso europa 250gastroenterologia,asst rhodense  ospedale di rho,milano,rho,20017
8135,corso europa 250gastroenterologia,asst rhodense  ospedale di rho,milano,rho,20017
8136,via giovanbattista pergolesi 33,asst di monza  azienda ospedaliera san gerardo,lombardia,monza,20052
8137,via giovanbattista pergolesi 33,asst di monza  azienda ospedaliera san gerardo,lombardia,monza,20052
8138,via giambattista pergolesi 33uos malattie metaboliche rare clinica pediatrica,azienda socio sanitaria territoriale – asst di monza,lombardia,monza,20052
8139,via giambattista pergolesi 33,azienda socio sanitaria territoriale – asst di monza,lombardia,monza,20052
8140,via alessandro manzoni 56,istituto clinico humanitas,lombardia,rozzano,20089
8141,via manzoni 56uo oncologia medica ed ematologia,istituto clinico humanitas,lombardia,rozzano,20089
8142,via manzoni 56uo oncologia medica ed ematologia,istituto clinico humanitas,lombardia,rozzano,20089
8143,via manzoni 56unità operativa medicina nucleare,istituto clinico humanitas,lombardia,rozzano mi,20089
8144,via a manzoni 56,istituto clinico humanitas,milano,rozzano,20089
8145,via a manzoni 56uo oncologia medica ed ematologia,istituto clinico humanitas,milano,rozzano,20089
8146,via manzoni 56uo oncologia medica ed ematologia,istituto clinico humanitas,milano,rozzano,20089
8147,via manzoni 56,istituto clinico humanitas,milano,rozzano,20089
8148,via manzoni 56,istituto clinico humanitas,milano,rozzano,20089
8149,via manzoni 56,istituto clinico humanitas,milano,rozzano,20089
8150,via manzoni 56,istituto clinico humanitas,milano,rozzano,20089
8151,via manzoni 56,istituto clinico humanitas,milano,rozzano,20089
8152,via manzoni 56,istituto clinico humanitas,milano,rozzano,20089
8153,via manzoni 56,istituto clinico humanitas,milano,rozzano,20089
8154,via manzoni 56,istituto clinico humanitas,milano,rozzano,20089
8155,via manzoni 56,istituto clinico humanitas,rozzano,milano,20089
8156,via manzoni 56,istituto clinico humanitas,rozzano,milano,20089
8157,via manzoni 56sperimentazioni cliniche uo farmacia humanitas research hospital,istituto clinico humanitas,rozzano,milano,20089
8158,via manzoni 56,istituto clinico humanitas,rozzano,milano,20089
8159,via manzoni 56sperimentazioni cliniche uo farmacia humanitas research hospital,istituto clinico humanitas,rozzano,milano,20089
8160,uo oncologia medica ed ematologia  humanitas cancer centervia manzoni 56,istituto clinico humanitas humanitas cancer center,milano,milano,20089
8161,via pergolesi 33unit  di ricerca clinica  sezione di ematologia,azienda ospedaliera san gerardo di monza,monza e brianza,monza,20090
8162,via pergolesi 33unit  di ricerca clinica  sezione di ematologia,azienda ospedaliera san gerardo di monza,monza e brianza,monza,20090
8163,piazza edmondo malan 2,irccs policlinico san donato,san donato milanese,milano,20097
8164,via morandi 30irccs policlin san donato,irccs policlinico san donato,san donato milanese mi,milano,20097
8165,via morandi 30uo medicina generale iii  gastroenterologia,policlinico san donato,lombardia,san donato,20097
8166,via morandi 30uo gastroenterologia ed endoscopia digestiva,policlinico san donato,milano,san donato milanese,20097
8167,via morandi 30uo gastroenterologia ed endoscopia digestiva,policlinico san donato,milano,san donato milanese,20097
8168,via morandi 30uo gastroenterologia ed endoscopia digestiva,policlinico san donato,milano,san donato milanese,20097
8169,via morandi 30uo gastroenterologia ed endoscopia digestiva,policlinico san donato,milano,san donato milanese,20097
8170,via morandi 30uo gastroenterologia ed endoscopia digestiva,policlinico san donato,milano,san donato milanese,20097
8171,via morandi 30uo gastroenterologia ed endoscopia digestiva,policlinico san donato,milano,san donato milanese,20097
8172,via morandi 30uo gastroenterologia ed endoscopia digestiva,policlinico san donato,milano,san donato milanese,20097
8173,via morandi 30uo gastroenterologia ed endoscopia digestiva,policlinico san donato,milano,san donato milanese,20097
8174,via morandi 30uo gastroenterologia ed endoscopia digestiva,policlinico san donato,milano,san donato milanese,20097
8175,via morandi 30uo gastroenterologia ed endoscopia digestiva,policlinico san donato,milano,san donato milanese,20097
8176,via morandi 30policlinico san donato,policlinico san donato,milano,san donato milanese,20097
8177,via morandi 30uo gastroenterologia ed endoscopia digestiva,policlinico san donato,milano,san donato milanese,20097
8178,corso mazzini 18struttura complessa ematologia,aou maggiore della carità,piemonte,novara,20100
8179,corso di porta nuova 23,asst fatebenefratelli sacco  ospedale luigi sacco,lombardia,milano,20121
8180,corso di porta nuova 23,asst fatebenefratelli sacco  ospedale luigi sacco,lombardia,milano,20121
8181,corso di porta nuova 23,asst fatebenefratelli sacco  ospedale luigi sacco,lombardia,milano,20121
8182,corso di porta nuova 23,asst fatebenefratelli sacco  ospedale luigi sacco,lombardia,milano,20121
8183,corso di porta nuova 23,asst fatebenefratelli sacco  ospedale luigi sacco,lombardia,milano,20121
8184,corso di porta nuova 23,asst fatebenefratelli sacco  ospedale luigi sacco,lombardia,milano,20121
8185,corso di porta nuova 23,asst fatebenefratelli sacco  ospedale luigi sacco,lombardia,milano,20121
8186,via pace 9dipartimento medicina interna centro emofilia e trombosi angelo bianchi bonomi,fondazione irccs cà granda ospedale maggiore policlinico,lombardia,milano,20121
8187,via francesco sforza 28,fondazione irccs ca granda ospedale maggiore policlinico,milano,milano,20122
8188,via francesco sforza 28,fondazione irccs ca granda ospedale maggiore policlinico,milano,milano,20122
8189,via francesco sforza 28,fondazione irccs ca granda ospedale maggiore policlinico,milano,milano,20122
8190,via francesco sforza 28,fondazione irccs ca granda ospedale maggiore policlinico,milano,milano,20122
8191,via francesco sforza 28,fondazione irccs ca granda ospedale maggiore policlinico,milano,milano,20122
8192,via francesco sforza35padiglione sacco  broncopneumologia  piano  2,fondazione irccs ca granda ospedale maggiore policlinico,milano,milano,20122
8193,via pace 9,fondazione irccs ca granda ospedale maggiore policlinico,milano,milano,20122
8194,via pace 9,fondazione irccs ca granda ospedale maggiore policlinico,milano,milano,20122
8195,via pace 9uoc medicina generale emostasi e trombosi,fondazione irccs ca granda ospedale maggiore policlinico,milano,milano,20122
8196,via pace 9uoc medicina generale emostasi e trombosi,fondazione irccs ca granda ospedale maggiore policlinico,milano,milano,20122
8197,via pace 9uoc medicina generale emostasi e trombosi,fondazione irccs ca granda ospedale maggiore policlinico,milano,milano,20122
8198,via francesco sforzaendocrinologia e malattie metabolichepadiglione zonda,fondazione irccs cà granda ospedale maggiore policlinico,lombardia,milano,20122
8199,via francesco sforza 28,fondazione irccs cà granda ospedale maggiore policlinico,lombardia,milano,20122
8200,via francesco sforza 28,fondazione irccs cà granda ospedale maggiore policlinico,lombardia,milano,20122
8201,via francesco sforza 28,fondazione irccs cà granda ospedale maggiore policlinico,lombardia,milano,20122
8202,via francesco sforza 28,fondazione irccs cà granda ospedale maggiore policlinico,lombardia,milano,20122
8203,via francesco sforza 28,fondazione irccs cà granda ospedale maggiore policlinico,lombardia,milano,20122
8204,via francesco sforza 28uo di neonatologia e terapia intensiva neonatalemangiagalli,fondazione irccs cà granda ospedale maggiore policlinico,lombardia,milano,20122
8205,via francesco sforza 28,fondazione irccs cà granda ospedale maggiore policlinico,lombardia,milano,20122
8206,via francesco sforza 28uo gastroenterologia ed endoscopia digestiva,fondazione irccs cà granda ospedale maggiore policlinico,lombardia,milano,20122
8207,via francesco sforza 28,fondazione irccs cà granda ospedale maggiore policlinico,lombardia,milano,20122
8208,via francesco sforza 28,fondazione irccs cà granda ospedale maggiore policlinico,lombardia,milano,20122
8209,via francesco sforza 28uo gastroenterologia ed endoscopia digestiva,fondazione irccs cà granda ospedale maggiore policlinico,lombardia,milano,20122
8210,via francesco sforza 35,fondazione irccs cà granda ospedale maggiore policlinico,lombardia,milano,20122
8211,via francesco sforza 35centro anemie congenite iii divisione di medicinapadiglione granelli,fondazione irccs cà granda ospedale maggiore policlinico,lombardia,milano,20122
8212,via f sforza 15uoc di oncoematologia,fondazione irccs cà granda ospedale maggiore policlinico,milano,milano,20122
8213,via francesco sforza 28gastroenterologia e endoscopia,fondazione irccs cà granda ospedale maggiore policlinico,milano,milano,20122
8214,via francesco sforza 35dipartimento delle units multispecialistiche e dei trapianti area ematologica trasfusionale uoc onc,fondazione irccs cà granda ospedale maggiore policlinico,milano,milano,20122
8215,via francesco sforza 35dipartimento di scienze mediche,fondazione irccs cà granda ospedale maggiore policlinico,milano,milano,20122
8216,via francesco sforza 35dipartimento delle units multispecialistiche e dei trapianti area ematologica trasfusionale uoc onc,fondazione irccs cà granda ospedale maggiore policlinico,milano,milano,20122
8217,via francesco sforza 35dipartimento di ematologia e oncologia,fondazione irccs cà granda ospedale maggiore policlinico,milano,milano,20122
8218,via francesco sforza 28,fondazione irccs ca’ granda ospedale maggiore policlinico,milano,milano,20122
8219,via stamira dancona 20,ospedale san raffaele san raffaele turro,milano,milano,20127
8220,dipartimento di oncoematologicavia olgettina 60,istituto scientifico universitario san raffaele,milano,milano,20132
8221,unit operativa di oncologia medicavia olgettina 60,istituto scientifico universitario san raffaele,milano,milano,20132
8222,unit operativa di oncologia medicavia olgettina 60,istituto scientifico universitario san raffaele,milano,milano,20132
8223,via olgettina 60ambulatori di ematologia settore r piano 1,ospedale san raffaele,milan,milano,20132
8224,via olgettina 60dipartimento di oncologia medicasettore q  1 piano,ospedale san raffaele,milano,milano,20132
8225,via olgettina 60,ospedale san raffaele srl  ppds,lombardia,milan,20132
8226,via olgettina 60,ospedale san raffaele srl  ppds,lombardia,milan,20132
8227,via olgettina 60,ospedale san raffaele srl  ppds,lombardia,milan,20132
8228,via olgettina 60unità funzionale epatogastroenterologia clinica,ospedale san raffaele srl  ppds,lombardia,milano,20132
8229,via olgettina 60unità funzionale epatogastroenterologia clinica,ospedale san raffaele srl  ppds,lombardia,milano,20132
8230,via olgettina 60unità funzionale epatogastroenterologia clinica,ospedale san raffaele srl  ppds,lombardia,milano,20132
8231,via olgettina 58unita di immunobioterapia del melanoma e dei tumori solidisettore c 4  piano,ospedale san raffaele srl  ppds,lombardia,milano,20132
8232,via olgettina 60medicina interna e dei  trapianti,ospedale san raffaele srl  ppds,lombardia,milano,20132
8233,via olgettina 48unità operativa di neurologia,ospedale san raffaele srl  ppds,milano,milan,20132
8234,via giacomo venezian 1,fondazione irccs  istituto nazionale dei tumori  milano,milano,milano,20133
8235,via celoria 11uoc neurologia 4  neuroimmunologia e malattie neuromuscolari,fondazione irccs di rilievo nazionale istituto nazionale neurologico carlo besta,lombardia,milano,20133
8236,via venezian 1,fondazione irccs istituto nazionale dei tumori,lombardy,milano,20133
8237,via g venezian 1oncologia medica 3  struttura semplice trattamento medico dei sarcomi dell adulto,istituto nazionale dei tumori,lombardia,milano,20133
8238,via g venezian 1oncologia medica 3  struttura semplice trattamento medico dei sarcomi dell adulto,istituto nazionale dei tumori,lombardia,milano,20133
8239,via gvenezian 1dipartimento di ematologia e oncoematologia pediatrica,istituto nazionale dei tumori,lombardia,milano,20133
8240,via venezian 1unità operativa trapianto midollo osseo,istituto nazionale dei tumori,lombardia,milano,20133
8241,via venezian 1unità operativa trapianto midollo osseo,istituto nazionale dei tumori,lombardia,milano,20133
8242,via venezian 1unità operativa trapianto midollo osseo,istituto nazionale dei tumori,lombardia,milano,20133
8243,via venezian 1dipartimento di ematologia e oncoematologia pediatrica,istituto nazionale dei tumori,milano,milano,20133
8244,via venezian 1dipartimento di ematologia e oncoematologia pediatrica,istituto nazionale dei tumori,milano,milano,20133
8245,via venezian 1dipartimento di ematologia e oncoematologia pediatrica,istituto nazionale dei tumori,milano,milano,20133
8246,dipartimento oncologia toracicavia giuseppe ripamonti 435,istituto di ricovero e cura a carattere scientifico  istituto europeo di oncologia,milano,milano,20141
8247,via ripamonti 435divisione di oncologia toracica,istituto europeo di oncologia,lombardia,milan,20141
8248,via ripamonti 435,istituto europeo di oncologia,lombardia,milan,20141
8249,dipartimento oncologia toracicavia giuseppe ripamonti 435,istituto europeo di oncologia,milano,milano,20141
8250,dipartimento oncologia toracicavia giuseppe ripamonti 435,istituto europeo di oncologia,milano,milano,20141
8251,divisione di ginecologia oncologicavia giuseppe ripamonti 435,istituto europeo di oncologia,milano,milano,20141
8252,divisione di oncologia medicavia ripamonti 435,istituto europeo di oncologia,milano,milano,20141
8253,via ripamonti 435divisione di ematoncologia clinica,istituto europeo di oncologia,milano,milano,20141
8254,via dezza 49,casa di cura del policlinico,milano,milano,20144
8255,via dezza 49,casa di cura del policlinico,milano,milano,20144
8256,via pio ii 3,asst santi paolo e carlo  ospedale san carlo borromeo,lombardia,milano,20153
8257,via g b grassi 74dipartimento di scienze biomediche e cliniche luigi sacco,asst fatebenefratelli sacco  ospedale luigi sacco,lombardia,milano,20157
8258,via gb grassi 74dipartimento di scienze biomediche e cliniche luigi sacco,asst fatebenefratelli sacco  ospedale luigi sacco,lombardia,milano,20157
8259,via giovanni battista grassi 74,asst fatebenefratelli sacco  ospedale luigi sacco,lombardia,milano,20157
8260,via g b grassi 74padiglione 20uo farmacia1° piano,azienda socio sanitaria territoriale fatebenefratelli presidio ospedale sacco,milano,milano,20157
8261,via g b grassi 74padiglione 20uo farmacia1° piano,azienda socio sanitaria territoriale fatebenefratelli presidio ospedale sacco,milano,milano,20157
8262,via gb grassi 74,azienda socio sanitaria territoriale fatebenefratelli presidio ospedale sacco,milano,milano,20157
8263,via gb grassi 74,azienda socio sanitaria territoriale fatebenefratelli presidio ospedale sacco,milano,milano,20157
8264,piazza ospedale maggiore 3centro clinico nemo,asst grande ospedale metropolitano niguarda  presidio ospedaliero ospedale niguarda ca granda,lombardia,milan,20162
8265,pzza ospedale maggiore 3sc ematologia,asst grande ospedale metropolitano niguarda  presidio ospedaliero ospedale niguarda ca granda,lombardia,milano,20162
8266,piazza dellospedale maggiore 3sc di nefrologia,asst grande ospedale metropolitano niguarda  presidio ospedaliero ospedale niguarda ca granda,lombardia,milano,20162
8267,piazza ospedale maggiore 3division of hematology,asst grande ospedale metropolitano niguarda  presidio ospedaliero ospedale niguarda ca granda,lombardia,milano,20162
8268,piazza ospedale maggiore 1dipartimento cardiologico a de gasperis divisione di cardiologia 4,asst grande ospedale metropolitano niguarda  presidio ospedaliero ospedale niguarda ca granda,milano,milano,20162
8269,piazza ospedale maggiore 1struttura complessa di ematologia,asst grande ospedale metropolitano niguarda  presidio ospedaliero ospedale niguarda ca granda,milano,milano,20162
8270,piazza ospedale maggiore 3sc ematologia,asst grande ospedale metropolitano niguarda  presidio ospedaliero ospedale niguarda ca granda,milano,milano,20162
8271,piazza ospedale maggiore 3oncologia medica falck,asst grande ospedale metropolitano niguarda  presidio ospedaliero ospedale niguarda ca granda,milano,milano,20162
8272,piazza ospedale maggiore 3sc ematologia,asst grande ospedale metropolitano niguarda  presidio ospedaliero ospedale niguarda ca granda,milano,milano,20162
8273,div di ematologia e utmopzza ospedale maggiore 3blocco sud terzo piano,azienda socio sanitaria territoriale grande ospedale metropolitano niguarda,milano,milano,20162
8274,piazza dell ospedale maggiore 3ctu ematologia,azienda socio sanitaria territoriale grande ospedale metropolitano niguarda,milano,milano,20162
8275,piazza ospedale maggiore 3,azienda socio sanitaria territoriale niguarda grande ospedale metropolitano niguarda,milano,milano,20162
8276,piazza ospedale maggiore 3,azienda socio sanitaria territoriale niguarda grande ospedale metropolitano niguarda,milano,milano,20162
8277,via paccagnella 11unità operativa complessa ematologiaospedale dell angelo,azienda ulss 3 serenissima,venezia,zelarino,20174
8278,via donizetti 106unità operativa di neurochirurgia,asst di monza  azienda ospedaliera san gerardo,lombardia,monza,20900
8279,via donizetti 106unità operativa di neurochirurgia,asst di monza  azienda ospedaliera san gerardo,lombardia,monza,20900
8280,via donizetti 106unità operativa di neurochirurgia,asst di monza  azienda ospedaliera san gerardo,lombardia,monza,20900
8281,via giovanbattista pergolesi 33uoc gastroenterologia,asst di monza  azienda ospedaliera san gerardo,lombardia,monza,20900
8282,via giovanbattista pergolesi 33uoc gastroenterologia,asst di monza  azienda ospedaliera san gerardo,lombardia,monza,20900
8283,via giovanbattista pergolesi 33uoc gastroenterologia,asst di monza  azienda ospedaliera san gerardo,lombardia,monza,20900
8284,via giovanbattista pergolesi 33uoc gastroenterologia,asst di monza  azienda ospedaliera san gerardo,lombardia,monza,20900
8285,via giovanbattista pergolesi 33uoc gastroenterologia,asst di monza  azienda ospedaliera san gerardo,lombardia,monza,20900
8286,via giovanbattista pergolesi 33uoc gastroenterologia,asst di monza  azienda ospedaliera san gerardo,lombardia,monza,20900
8287,via giovanbattista pergolesi 33uoc gastroenterologia,asst di monza  azienda ospedaliera san gerardo,lombardia,monza,20900
8288,via giovanbattista pergolesi 33,asst di monza  azienda ospedaliera san gerardo,lombardia,monza,20900
8289,via pergolesi 33uos malattie metaboliche rare clinica pediatrica,asst di monza  azienda ospedaliera san gerardo,lombardia,monza,20900
8290,via pergolesi 33,asst di monza  azienda ospedaliera san gerardo,lombardia,monza,20900
8291,via pergolesi 33ematologia pediatrica,asst di monza  azienda ospedaliera san gerardo,monza e brianza,monza,20900
8292,via pergolesi 33ematologia pediatrica,asst di monza  azienda ospedaliera san gerardo,monza e brianza,monza,20900
8293,struttura complessa oncologia medicaazienda ospedaliera sgerardo monzavia pergolesi 33,azienda ospedaliera san gerardo di monza,milano,milano,20900
8294,via cadoreclinica pediatrica11 piano  settore c,fondazione mbbm monza e brianza per il bambino e la sua mamma  co centro maria letizia verga,lombardia,monza,20900
8295,via pergolesi 33,fondazione mbbm monza e brianza per il bambino e la sua mamma  co centro maria letizia verga,monza e brianza,monza,20900
8296,via pergolesi 33unità operativa di malattie infettive,fondazione mbbm monza e brianza per il bambino e la sua mamma  co centro maria letizia verga,monza e brianza,monza,20900
8297,viale borri  57,asst dei sette laghi  ospedale di circolo e fondazione macchi,lombardia,varese,21100
8298,viale luigi borri 57,asst dei sette laghi  ospedale di circolo e fondazione macchi,lombardia,varese,21100
8299,viale luigi borri 57,asst dei sette laghi  ospedale di circolo e fondazione macchi,lombardia,varese,21100
8300,viale luigi borri 57,asst dei sette laghi  ospedale di circolo e fondazione macchi,lombardia,varese,21100
8301,viale luigi borri 57,asst dei sette laghi  ospedale di circolo e fondazione macchi,lombardia,varese,21100
8302,viale luigi borri 57,asst dei sette laghi  ospedale di circolo e fondazione macchi,lombardia,varese,21100
8303,viale luigi borri 57,asst dei sette laghi  ospedale di circolo e fondazione macchi,lombardia,varese,21100
8304,viale borri 57,azienda socio sanitaria territoriale  sette laghi presidio ospedale di circolo e fondazione macchi,varese,varese,21100
8305,via dante alighieri 11div di gastroenterologia,ospedale valduce,lombardia,como,22100
8306,via dante alighieri 11div di gastroenterologia,ospedale valduce,lombardia,como,22100
8307,via dante alighieri 11div di gastroenterologia,ospedale valduce,lombardia,como,22100
8308,via dante alighieri 11div di gastroenterologia,ospedale valduce,lombardia,como,22100
8309,via dante alighieri 11div di gastroenterologia,ospedale valduce,lombardia,como,22100
8310,via dante alighieri 11div di gastroenterologia,ospedale valduce,lombardia,como,22100
8311,via dante alighieri 11div di gastroenterologia,ospedale valduce,lombardia,como,22100
8312,piazza oms 1,asst papa giovanni xxiii  azienda ospedaliera papa giovanni xxiii,lombardia,bergamo,24127
8313,piazza oms 1uo ematologia,asst papa giovanni xxiii  azienda ospedaliera papa giovanni xxiii,lombardia,bergamo,24127
8314,piazza oms 1uo ematologia con trapianto,asst papa giovanni xxiii  azienda ospedaliera papa giovanni xxiii,lombardia,bergamo,24127
8315,piazza oms 1uo ematologia con trapianto,asst papa giovanni xxiii  azienda ospedaliera papa giovanni xxiii,lombardia,bergamo,24127
8316,usc ematologiapiazza organizzazione mondiale della sanit 1torre 6  4 piano,azienda ospedaliera papa giovanni xxiii,lombardia,bergamo,24127
8317,piazza oms 1neurologia,azienda socio sanitaria territoriale papa giovanni xxiii presidio papa giovanni xxiii,bergamo,bergamo,24127
8318,piazza oms 1neurologia,azienda socio sanitaria territoriale papa giovanni xxiii presidio papa giovanni xxiii,bergamo,bergamo,24127
8319,piazza oms 1gastroenterologia 2  endoscopia digestiva,asst papa giovanni xxiii  azienda ospedaliera papa giovanni xxiii,lombardia,bergamo,24128
8320,piazza oms 1,asst papa giovanni xxiii  azienda ospedaliera papa giovanni xxiii,lombardia,bergamo,24128
8321,piazza oms 1usc malattie infettive,asst papa giovanni xxiii  azienda ospedaliera papa giovanni xxiii,lombardia,bergamo,24128
8322,piazzale spedali civili 1uo ematologia,asst degli spedali civili di brescia  spedali civili di brescia  incipit  pin,brescia,brescia,25123
8323,pazzale spedali civili 1uo ematologia,asst degli spedali civili di brescia  spedali civili di brescia  incipit  pin,lombardia,brescia,25123
8324,piazza spedali civili 1uo ematologia con trapianto,asst degli spedali civili di brescia  spedali civili di brescia  incipit  pin,lombardia,brescia,25123
8325,piazza spedali civili 1uo ematologia con trapianto,asst degli spedali civili di brescia  spedali civili di brescia  incipit  pin,lombardia,brescia,25123
8326,piazza spedali civili 1uo ematologia con trapianto,asst degli spedali civili di brescia  spedali civili di brescia  incipit  pin,lombardia,brescia,25123
8327,piazzale spedali civili 1uo ematologia,asst degli spedali civili di brescia  spedali civili di brescia  incipit  pin,lombardia,brescia,25123
8328,piazzale spedali civili 1uo ematologia,asst degli spedali civili di brescia  spedali civili di brescia  incipit  pin,lombardia,brescia,25123
8329,piazzale spedali civili 1uo ematologia,asst degli spedali civili di brescia  spedali civili di brescia  incipit  pin,lombardia,brescia,25123
8330,piazzale spedali civili sn,azienda socio sanitaria territoriale degli spedali civili di brescia,brescia,brescia,25123
8331,piazzale spedali civili sn,azienda socio sanitaria territoriale degli spedali civili di brescia,brescia,brescia,25123
8332,unit di ostetricia e ginecologiapiazza spedali civili 1,spedali civili di brescia,brescia,brescia,25123
8333,ple spedali civili 1ple spedali civili  1,azienda socio sanitaria territoriale degli spedali civili di brescia presidio spedali civili,brescia,brescia,25124
8334,largo priori 1unità operativa cardiologia,asst di cremona  azienda socio sanitaria territoriale di cremona,lombardia,cremona,26100
8335,viale golgi 19amyloidosis research  treatment center,fondazione irccs policlinico san matteo di pavia,lombardia,pavia,2710
8336,viale golgi 19,amyloidosis research  treatment center fondazione irccs policlinico san matteo,italy,pavia,27100
8337,via mondino 2ss di neurooncologia,asst di pavia  fondazione istituto neurologico  mondino irccs,pavia,pavia,27100
8338,piazzale golgi19,fondazione irccs policlinico san matteo,pavia,pavia,27100
8339,viale camillo golgi 19,fondazione irccs policlinico san matteo,pavia,pavia,27100
8340,viale camillo golgi 19,fondazione irccs policlinico san matteo,pavia,pavia,27100
8341,ple golgi 19sc ematologia,fondazione irccs policlinico san matteo di pavia,lombardia,pavia,27100
8342,piazzale golgi 1divisione di cardiologia laboratorio di emodinamica,fondazione irccs policlinico san matteo di pavia,lombardia,pavia,27100
8343,piazzale golgi 19,fondazione irccs policlinico san matteo di pavia,lombardia,pavia,27100
8344,via ferrata 8medicina nucleare,fondazione irccs policlinico san matteo di pavia,lombardia,pavia,27100
8345,via ferrata 8medicina nucleare,fondazione irccs policlinico san matteo di pavia,lombardia,pavia,27100
8346,viale golgi 19,fondazione irccs policlinico san matteo di pavia,lombardia,pavia,27100
8347,viale golgi 19divisione di ematologia,fondazione irccs policlinico san matteo di pavia,lombardia,pavia,27100
8348,viale golgi 19macro attività complessa ambulatori  medicina generale i,fondazione irccs policlinico san matteo di pavia,pavia,pavia,27100
8349,viale golgi 19macro attività complessa ambulatori  medicina generale i,fondazione irccs policlinico san matteo di pavia,pavia,pavia,27100
8350,viale golgi 19dipartimento oncoematologico,fondazione irccs policlinico san matteo di pavia,pavia,pavia,27100
8351,viale golgi 19macro attività complessa ambulatori  medicina generale i,fondazione irccs policlinico san matteo di pavia,pavia,pavia,27100
8352,viale golgi 19dipartimento oncoematologico,fondazione irccs policlinico san matteo di pavia,pavia,pavia,27100
8353,via mondino 2,fondazione istituto neurologico casimiro mondino,pavia,pavia,27100
8354,via mondino 2,fondazione istituto neurologico casimiro mondino,pavia,pavia,27100
8355,corso giuseppe mazzini 18universita degli studi del piemonte orientale amedeo avogadro,aou maggiore della carità,piemonte,novara,28100
8356,corso mazzini 18struttura complessa a direzione universitaria ematologia,aou maggiore della carità,piemonte,novara,28100
8357,corso mazzini 18,aou maggiore della carità,piemonte,novara,28100
8358,corso mazzini 18gastroenterologia,aou maggiore della carità,piemonte,novara,28100
8359,corso mazzini 18gastroenterologia,aou maggiore della carità,piemonte,novara,28100
8360,corso mazzini 18struttura complessa a direzione universitaria ematologia,aou maggiore della carità,piemonte,novara,28100
8361,corso mazzini 18gastroenterologia,aou maggiore della carità,piemonte,novara,28100
8362,corso mazzini 18farmaciaaou maggiore della carità,aou maggiore della carità,piemonte,novara,28100
8363,corso mazzini 18gastroenterologia,aou maggiore della carità,piemonte,novara,28100
8364,corso mazzini 18farmacia,aou maggiore della carità,piemonte,novara,28100
8365,corso mazzini 18struttura complessa a direzione universitaria ematologia,aou maggiore della carità,piemonte,novara,28100
8366,corso mazzini 18struttura complessa a direzione universitaria ematologia,aou maggiore della carità,piemonte,novara,28100
8367,corso mazzini 18,azienda ospedaliero universitaria maggiore della carita,novara,novara,28100
8368,struttura complessa direzione universitaria ematologia scdu ematologiacorso mazzini 18,azienda ospedalierouniversitaria,novara,novara,28100
8369,via paccagnella 11uo di ematologiaospedale dell angelo,azienda ulss 3 serenissima,veneto,venezia,30100
8370,via don federico tosatto 147,azienda ulss 3 serenissima,veneto,venezia,30174
8371,dipartimento di ematologiavia don federico tosatto 147,ospedale dellangelo,venezia,mestre,30174
8372,lunit operativa complessa di ematologiapaccagnella 11,ospedale dellangelo,venezia,mestre,30174
8373,via paccagnella  11uo ematologia,ospedale dellangelo,venezia,venezia mestre,30174
8374,via dei carpani 16,presidio ospedaliero di castelfranco veneto,castelfranco veneto,treviso,31033
8375,via ospedale 18,presidio ospedaliero di castelfranco veneto,castelfranco veneto,treviso,31033
8376,via ospedale 18,presidio ospedaliero di castelfranco veneto,castelfranco veneto,treviso,31033
8377,piazza ospedale 1uoc terapia intensiva neonatale,presidio ospedaliero di treviso ca foncello,veneto,treviso,31100
8378,via franco gallini 2struttura operativa complessa di oncologia medica b,centro di riferimento oncologico,pordenone,aviano,33081
8379,oncologia medicacentro oncologico avianovia gallini 2,centro di riferimento oncologico di aviano,pordenone,aviano,33081
8380,oncologia medicacentro oncologico avianovia gallini 2,centro di riferimento oncologico di aviano,pordenone,aviano,33081
8381,oncologia medicacentro oncologico avianovia gallini 2,centro di riferimento oncologico di aviano,pordenone,aviano,33081
8382,oncologia medicacentro oncologico avianovia gallini 2,centro di riferimento oncologico di aviano,pordenone,aviano,33081
8383,clinica ematologicapiazzale santa maria della misericordia 15,azienda ospedaliero universitaria santa maria della misericordia di udine,udine,udine,33100
8384,ple smaria della misericordia 15,azienda ospedalierouniversitaria santa maria della misericordia,udine,udine,33100
8385,ple smaria della misericordia 15,azienda ospedalierouniversitaria santa maria della misericordia,udine,udine,33100
8386,piazzale s maria della misericordiaclinica malattie infettive,azienda sanitaria universitaria integrata di udine  po universitario santa maria della misericordia,friulivenezia giulia,udine,33100
8387,piazzale s maria della misericordia 15clinica ematologica4° piano padiglione pensionanti,azienda sanitaria universitaria integrata di udine  po universitario santa maria della misericordia,friulivenezia giulia,udine,33100
8388,piazzale smaria della misericordia 15,azienda sanitaria universitaria integrata di udine  po universitario santa maria della misericordia,friulivenezia giulia,udine,33100
8389,piazzale s maria della misericordiaclinica ematologica4° piano,azienda sanitaria universitaria integrata di udine  po universitario santa maria della misericordia,udine,udine,33100
8390,piazzale s maria della misericordiaclinica ematologica4° piano,azienda sanitaria universitaria integrata di udine  po universitario santa maria della misericordia,udine,udine,33100
8391,piazzale s maria della misericordiaclinica ematologica4° piano,azienda sanitaria universitaria integrata di udine  po universitario santa maria della misericordia,udine,udine,33100
8392,piazzale s maria della misericordiaclinica di ematologica,azienda sanitaria universitaria integrata di udine  po universitario santa maria della misericordia,udine,udine,33100
8393,via dellistria 651laboratorio di diagnostica avanzata e traslazionale,irccs materno infantile burlo garofolo  incipit  pin,friulivenezia giulia,trieste,34137
8394,via giustiniani 2,azienda ospedaliera di padova,padova,padova,35100
8395,via giustiniani 2,azienda ospedaliera di padova,padova,padova,35100
8396,via 8 febbraio 2unità operativa medicina generale patologia speciale,universita degli studi di padova,veneto,padova,35122
8397,via giustiniani 2dipartimento di scienze chirurgiche e gastroenterologiche  sezione di gastroenterologia,azienda ospedale università padova  dipartimento salute della donna e del bambino  incipit  pin,veneto,padova,35128
8398,via giustiniani 2unità operativa malattie infettive e tropicali,azienda ospedale università padova  dipartimento salute della donna e del bambino  incipit  pin,veneto,padova,35128
8399,via giustiniani 2dipartimento di scienze chirurgiche e gastroenterologiche  sezione di gastroenterologia,azienda ospedale università padova  dipartimento salute della donna e del bambino  incipit  pin,veneto,padova,35128
8400,via giustiniani 2clinica gastroenterologica6° piano monoblocco,azienda ospedale università padova  dipartimento salute della donna e del bambino  incipit  pin,veneto,padova,35128
8401,via giustiniani 2unità operativa malattie infettive e tropicali,azienda ospedale università padova  dipartimento salute della donna e del bambino  incipit  pin,veneto,padova,35128
8402,via giustiniani 3uoc malattie metaboliche ereditarie,azienda ospedale università padova  dipartimento salute della donna e del bambino  incipit  pin,veneto,padova,35128
8403,via giustiniani 3uoc malattie metaboliche ereditarieclinica neurologica,azienda ospedale università padova  dipartimento salute della donna e del bambino  incipit  pin,veneto,padova,35128
8404,via giustiniani 3unità operativa complessa di patolgia neonatale,azienda ospedale università padova  dipartimento salute della donna e del bambino  incipit  pin,veneto,padova,35128
8405,via giustiniani 3dipartimento a i per la salute della donna e del bambino,azienda ospedale università padova  dipartimento salute della donna e del bambino  incipit  pin,veneto,padova,35128
8406,via giustiniani 2uoc gastroenterologia,azienda ospedale università padova  dipartimento salute della donna e del bambino  incipit  pin,veneto,padova,35128
8407,via giustiniani 2uoc gastroenterologia6° piano monoblocco,azienda ospedale università padova  dipartimento salute della donna e del bambino  incipit  pin,veneto,padova,35128
8408,via giustiniani 2uoc gastroenterologia,azienda ospedale università padova  dipartimento salute della donna e del bambino  incipit  pin,veneto,padova,35128
8409,via giustiniani 2uoc gastroenterologia,azienda ospedale università padova  dipartimento salute della donna e del bambino  incipit  pin,veneto,padova,35128
8410,via giustiniani 2uoc gastroenterologia,azienda ospedale università padova  dipartimento salute della donna e del bambino  incipit  pin,veneto,padova,35128
8411,via giustiniani 2uoc gastroenterologia6° piano monoblocco,azienda ospedale università padova  dipartimento salute della donna e del bambino  incipit  pin,veneto,padova,35128
8412,via giustiniani 2uoc gastroenterologia,azienda ospedale università padova  dipartimento salute della donna e del bambino  incipit  pin,veneto,padova,35128
8413,via giustiniani 2uoc gastroenterologia,azienda ospedale università padova  dipartimento salute della donna e del bambino  incipit  pin,veneto,padova,35128
8414,via giustiniani 5dipartimento di neuroscienze,azienda ospedale università padova  dipartimento salute della donna e del bambino  incipit  pin,veneto,padova,35128
8415,via nicolo giustiniani 2uoc trapianti rene e pancreas,azienda ospedale università padova  dipartimento salute della donna e del bambino  incipit  pin,veneto,padova,35128
8416,via giustiniani 2dipartimento di scienze chirurgiche e gastroenterologiche  sezione di gastroenterologia,azienda ospedale università padova  dipartimento salute della donna e del bambino  incipit  pin,veneto,padua,35128
8417,presso azienda ospedaliera di padovavia giustiniani 1,azienda ospedaliera di padova,padova,padova,35128
8418,presso azienda ospedaliera di padovavia giustiniani 1,azienda ospedaliera di padova,padova,padova,35128
8419,presso azienda ospedaliera di padovavia giustiniani 1,azienda ospedaliera di padova,padova,padova,35128
8420,via giustiniani 1,azienda ospedaliera di padova,padova,padova,35128
8421,via giustiniani 2,azienda ospedaliera di padova,padova,padova,35128
8422,via giustiniani 2,azienda ospedaliera di padova,padova,padova,35128
8423,via roma 67,azienda ospedaliera di padova,padova,padova,35128
8424,via roma 67,azienda ospedaliera di padova,padova,padova,35128
8425,via giustiniani3,clinica di oncoematologia pediatrica azienda ospedalierauniversita di padova,italy,padova,35128
8426,oncologia medica 1istituto oncologico veneto iov irccsvia gattamelata 64,istituto di ricovero e cura a carattere scientifico istituto oncologico veneto,padova,padova,35128
8427,via giustiniani 3università di padova,azienda ospedale università padova  dipartimento salute della donna e del bambino  incipit  pin,veneto,padova,35238
8428,via rodolfi 37uo ematologia,azienda ulss 8 berica  ospedale san bortolo,veneto,vicenza,36100
8429,via rodolfi 37uo ematologia,azienda ulss 8 berica  ospedale san bortolo,veneto,vicenza,36100
8430,via rodolfi 37uo ematologia,azienda ulss 8 berica  ospedale san bortolo,veneto,vicenza,36100
8431,viale rodolfi 37,ospedale san bortolo di vicenza,vicenza,vicenza,36100
8432,viale rodolfi 37,ospedale san bortolo di vicenza,vicenza,vicenza,36100
8433,viale rodolfi 37uoc ematologia,azienda ulss 8 berica  ospedale san bortolo,veneto,vicenza,361000
8434,viale rodolfi 37uoc ematologia,azienda ulss 8 berica  ospedale san bortolo,veneto,vicenza,361000
8435,via don a sempreboni 5,ospedale sacro cuore don calabria,veneto,negrar,37024
8436,via don a sempreboni 5,ospedale sacro cuore don calabria,veneto,negrar,37024
8437,via don a sempreboni 5gastroenterologia,ospedale sacro cuore don calabria,veneto,negrar,37024
8438,via don a sempreboni 5gastroenterologia,ospedale sacro cuore don calabria,veneto,negrar,37024
8439,via don a sempreboni 5,ospedale sacro cuore don calabria,veneto,negrar,37024
8440,via don a sempreboni 5gastroenterologia,ospedale sacro cuore don calabria,veneto,negrar,37024
8441,via don a sempreboni 5,ospedale sacro cuore don calabria,veneto,negrar,37024
8442,piazzale la scuro 10co policlinico gb rossi,centro ricerche cliniche di verona,veneto,verona,37124
8443,piazzale stefani 1,azienda ospedaliera universitaria integrata di verona,veneto,verona,37126
8444,piazzale aristide stefani 1,azienda ospedaliera universitaria integrata di verona,verona,verona,37126
8445,dipartimento di ematologiapiazzale l e a scuro 10,aoui  ospedale policlinico giambattista rossi di borgo roma,verona,verona,37134
8446,piazzale la scuro 10uo ematologia,azienda ospedaliera universitaria integrata di verona,veneto,verona,37134
8447,piazzale l a scuro 10,policlinico gb rossi,veneto,verona,37134
8448,irccs isnb uoc clinica neurologica ospedale bellaria,università di bolognaclinica neurologicadipartimento di scienze neurologiche,bologna,bologna,40123
8449,largo bartolo nigrisoli 2ospedale maggiorepediatria,azienda usl di bologna,emiliaromagna,bologna,40133
8450,largo bartolo nigrisoli 2ospedale maggiorepediatria,azienda usl di bologna,emiliaromagna,bologna,40133
8451,via massarenti 11,azienda ospedaliera universitaria policlinico santorsola malpighi,bologna,bologna,40138
8452,via massarenti 11,azienda ospedaliera universitaria policlinico santorsola malpighi,bologna,bologna,40138
8453,via massarenti 9policlinico sorsolamalpighipoli building 11istituto di ematologia le a seragnoli,azienda ospedaliera universitaria policlinico santorsola malpighi,bologna,bologna,40138
8454,via massarenti 9policlinico sorsolamalpighipoli building 11,azienda ospedaliera universitaria policlinico santorsola malpighi,bologna,bologna,40138
8455,via massarenti 9policlinico sorsolamalpighipoli building 11,azienda ospedaliera universitaria policlinico santorsola malpighi,bologna,bologna,40138
8456,via massarenti 9uo di gastroenterologia ed endoscopia digestiva,azienda ospedaliero universitaria di bologna  policlinico s orsola malpighi,bologna,bologna,40138
8457,via massarenti 9uo di gastroenterologia ed endoscopia digestiva,azienda ospedaliero universitaria di bologna  policlinico s orsola malpighi,bologna,bologna,40138
8458,via massarenti 9uo di gastroenterologia ed endoscopia digestiva,azienda ospedaliero universitaria di bologna  policlinico s orsola malpighi,bologna,bologna,40138
8459,via massarenti 9uo di gastroenterologia ed endoscopia digestiva,azienda ospedaliero universitaria di bologna  policlinico s orsola malpighi,bologna,bologna,40138
8460,via massarenti 9uo di gastroenterologia ed endoscopia digestiva,azienda ospedaliero universitaria di bologna  policlinico s orsola malpighi,bologna,bologna,40138
8461,via massarenti 9istituto di ematologia lorenzo e ariosto seragnoli,azienda ospedaliero universitaria di bologna  policlinico s orsola malpighi,bologna,bologna,40138
8462,via massarenti 9unità operativa di ematologia,azienda ospedaliero universitaria di bologna  policlinico s orsola malpighi,bologna,bologna,40138
8463,via massarenti 13uo semplice terapia intensiva neonatale,azienda ospedaliero universitaria di bologna  policlinico s orsola malpighi,emiliaromagna,bologna,40138
8464,via massarenti 9uo ematologia cavo,azienda ospedaliero universitaria di bologna  policlinico s orsola malpighi,emiliaromagna,bologna,40138
8465,via massarenti 9uo ematologia cavo,azienda ospedaliero universitaria di bologna  policlinico s orsola malpighi,emiliaromagna,bologna,40138
8466,via massarenti 9struttura semplice dipartimentale per le malattie infiammatorie croniche intestinali,azienda ospedaliero universitaria di bologna  policlinico s orsola malpighi,emiliaromagna,bologna,40138
8467,via massarenti 9istituto di ematologia lorenzo e ariosto seragnoli,azienda ospedaliero universitaria di bologna  policlinico s orsola malpighi,emiliaromagna,bologna,40138
8468,via massarenti 9dipartimento di medicina interna e gastroenterologia,azienda ospedaliero universitaria di bologna  policlinico s orsola malpighi,emiliaromagna,bologna,40138
8469,via massarenti 9dipartimento di ematologia e scienze oncologiche,azienda ospedaliero universitaria di bologna  policlinico s orsola malpighi,emiliaromagna,bologna,40138
8470,via massarenti 9istituto di ematologia lorenzo e ariosto seragnolipadiglione 19,azienda ospedaliero universitaria di bologna  policlinico s orsola malpighi,emiliaromagna,bologna,40138
8471,via massarenti 9istituto clinicio pediatria preventiva neonatologia,azienda ospedaliero universitaria di bologna  policlinico s orsola malpighi,emiliaromagna,bologna,40138
8472,via massarenti 9struttura semplice dipartimentale per le malattie infiammatorie croniche intestinali,azienda ospedaliero universitaria di bologna  policlinico s orsola malpighi,emiliaromagna,bologna,40138
8473,via massarenti 9uo ematologia cavo,azienda ospedaliero universitaria di bologna  policlinico s orsola malpighi,emiliaromagna,bologna,40138
8474,via massarenti 9struttura semplice dipartimentale per le malattie infiammatorie croniche intestinali,azienda ospedaliero universitaria di bologna  policlinico s orsola malpighi,emiliaromagna,bologna,40138
8475,via massarenti 9struttura semplice dipartimentale per le malattie infiammatorie croniche intestinali,azienda ospedaliero universitaria di bologna  policlinico s orsola malpighi,emiliaromagna,bologna,40138
8476,via massarenti 9struttura semplice dipartimentale per le malattie infiammatorie croniche intestinali,azienda ospedaliero universitaria di bologna  policlinico s orsola malpighi,emiliaromagna,bologna,40138
8477,via massarenti 9struttura semplice dipartimentale per le malattie infiammatorie croniche intestinali,azienda ospedaliero universitaria di bologna  policlinico s orsola malpighi,emiliaromagna,bologna,40138
8478,via massarenti 11dipartimento malattie apparato digerente e medicina interna  unità operativa malattie infettive,azienda ospedaliero universitaria di bologna  policlinico s orsola malpighi,emiliaromagna,bologna,40138
8479,via massarenti 9unità operativa di ematologiapadiglione 8,azienda ospedaliero universitaria di bologna  policlinico s orsola malpighi,emiliaromagna,bologna,40138
8480,via massarenti 9medicina internasemeitico medicopad 8,azienda ospedaliero universitaria di bologna  policlinico s orsola malpighi,emiliaromagna,bologna,40138
8481,via palagi 9unità operativa oftalmologiafloor 0  building n 19,azienda ospedaliero universitaria di bologna  policlinico s orsola malpighi,emiliaromagna,bologna,40138
8482,via pietro albertoni 15dipartimento di medicina interna e gastroenterologia,azienda ospedaliero universitaria di bologna  policlinico s orsola malpighi,emiliaromagna,bologna,40138
8483,viale massarenti 9dipartimento di ematologia e scienze oncologiche  l  a seragnoli,azienda ospedaliero universitaria di bologna  policlinico s orsola malpighi,emiliaromagna,bologna,40138
8484,istituto di ematologia ed oncologia medica la seragnolidipartimento di ematologia e scienze oncologiche delluniversit degli studi di bolognavia massarenti 9  pad 8,azienda ospedaliero universitaria di bologna policlinico santorsolamalpighi,bologna,bologna,40138
8485,unita operativa oncologia medicavia albertoni 15padiglione 2,azienda ospedaliero universitaria di bologna policlinico santorsolamalpighi,bologna,bologna,40138
8486,unita operativa oncologia medicavia pietro albertoni 15,azienda ospedaliero universitaria di bologna policlinico santorsolamalpighi,bologna,bologna,40138
8487,unita operativa oncologia medicavia albertoni 15padiglione 2,azienda ospedaliero universitaria di bologna policlinico santorsolamalpighi,bologna,bologna,40138
8488,via massarenti 9,azienda ospedaliero universitaria di bologna policlinico santorsolamalpighi,bologna,bologna,40138
8489,via massarenti 9idsinvestigational drug servicefloor 0  building n 19,istematologia e oncologia medica le aseragnoli,emiliaromagna,bologna,40138
8490,unita operativa medicina internavia albertoni 15,policlinico santorsola malpighi,bologna,bologna,40138
8491,via altura 3,irccs istituto delle scienze neurologiche di bologna,bologna,bologna,40139
8492,via del pozzo 71,azienda ospedaliero universitaria di modena policlinico,emiliaromagna,modena,41100
8493,via del pozzo 71sc ematologia,azienda ospedaliero universitaria di modena policlinico,emiliaromagna,modena,41100
8494,via del pozzo 71sc ematologia,universita degli studi di modena e reggio emilia  modena,emiliaromagna,modena,41100
8495,via universita 4sc ematologia,universita degli studi di modena e reggio emilia  modena,emiliaromagna,modena,41121
8496,via del pozzo 71ingresso 2  piano  4laboratorio of gastroenterologia,aou policlinico di modena,modena,modena,41124
8497,via del pozzo 71ingresso 2  piano  4laboratorio of gastroenterologia,aou policlinico di modena,modena,modena,41124
8498,via del pozzo 71,azienda ospedaliero  universitaria policlinico di modena,modena,modena,41124
8499,via del pozzo 71uc gastroenterologia,azienda ospedaliero universitaria di modena policlinico,emiliaromagna,modena,41124
8500,via del pozzo 71uc gastroenterologia,azienda ospedaliero universitaria di modena policlinico,emiliaromagna,modena,41124
8501,via del pozzo 71uc gastroenterologia,azienda ospedaliero universitaria di modena policlinico,emiliaromagna,modena,41124
8502,via del pozzo 71uc gastroenterologia,azienda ospedaliero universitaria di modena policlinico,emiliaromagna,modena,41124
8503,via del pozzo 71uc gastroenterologia,azienda ospedaliero universitaria di modena policlinico,emiliaromagna,modena,41124
8504,via del pozzo 71uc gastroenterologia,azienda ospedaliero universitaria di modena policlinico,emiliaromagna,modena,41124
8505,via del pozzo 71uc gastroenterologia,azienda ospedaliero universitaria di modena policlinico,emiliaromagna,modena,41124
8506,via del pozzo 71,azienda ospedalierouniversitaria di modena policlinico,modena,modena,41124
8507,via risorgimento 80struttura complessa di  ematologia,arcispedale santa maria nuova,emiliaromagna,reggio emilia,42123
8508,via risorgimento 80struttura complessa di  ematologia,arcispedale santa maria nuova,emiliaromagna,reggio emilia,42123
8509,viale risorgimento 80,arcispedale santa maria nuova,reggio nella emilia,reggio emilia,42123
8510,via gramsci 14dipartimento oncoematologico internisticostruttura complessa oncologia medica,azienda ospedaliero universitaria di parma,emiliaromagna,parma,43100
8511,via gramsci 14dipartimento oncoematologico internisticostruttura complessa oncologia medica,azienda ospedaliero universitaria di parma,parma,parma,43100
8512,via gramsci 5,azienda ospedaliero universitaria di parma,parma,parma,43100
8513,oncologia medicavia gramsci 14,azienda ospedaliero universitaria di parma,parma,parma,43126
8514,oncologia medicavia gramsci 14,azienda ospedaliero universitaria di parma,parma,parma,43126
8515,oncologia medicavia gramsci 14,azienda ospedaliero universitaria di parma,parma,parma,43126
8516,via gramsci 14dipartimento oncoematologico internistico,azienda ospedaliero universitaria di parma,parma,parma,43126
8517,corso giovecca 203,azienda ospedalierouniversitaria di ferrara,ferrara,ferrara,44100
8518,via aldo moro 8uo di ematologia,azienda ospedalierouniversitaria di ferrara  arcispedale sant anna,ferrara,cona,44124
8519,via aldo moro 8uo di oncologia clinica,azienda ospedalierouniversitaria di ferrara  arcispedale sant anna,ferrara,cona ferrara,44124
8520,irccs irst meldola,irccs irst meldola,italy,meldola,47014
8521,oncologia medicavia p maroncelli 40,istituto scientifico romagnolo per lo studio e la cura dei tumori,forlicesena,meldola,47014
8522,oncologia medicavia p maroncelli 40,istituto scientifico romagnolo per lo studio e la cura dei tumori,forlicesena,meldola,47014
8523,oncologia medicavia piero maroncelli 40,istituto scientifico romagnolo per lo studio e la cura dei tumori,forlicesena,meldola,47014
8524,unita operativa toracicavia piero maroncelli 40,istituto scientifico romagnolo per lo studio e la cura dei tumori,forlicesena,meldola,47014
8525,unita operativa toracicavia piero maroncelli 40,istituto scientifico romagnolo per lo studio e la cura dei tumori,forlicesena,meldola,47014
8526,via piero maroncelli 40divisione di oncologia medica,istituto scientifico romagnolo per lo studio e la cura dei tumori irst  ppds,forlicesena,meldola,47014
8527,viale ghirotti 286,ospedale m bufalini,cesena,forli  cesena,47028
8528,via settembrini 2dipartimento di oncologia ed oncoematologia,ospedale infermi di rimini,emiliaromagna,rimini,47900
8529,via settembrini 2dipartimento di oncologia ed oncoematologia,ospedale infermi di rimini,emiliaromagna,rimini,47900
8530,via settembrini 2dipartimento di oncologia e oncoematologia,ospedale infermi di rimini,emiliaromagna,rimini,47900
8531,viale randi 5uo ematologia,ospedale santa maria delle croci,emiliaromagna,ravenna,48100
8532,viale randi 5uo ematologia,ospedale santa maria delle croci,ravenna,ravenna,48100
8533,viale randi 5uoc ematologia,ospedale santa maria delle croci,ravenna,ravenna,48100
8534,viale randi 5uo ematologia,ospedale santa maria delle croci,ravenna,ravenna,48100
8535,ausl di ravennaoncologia medicaviale randi 5,presidio ospedaliero di lugo,ravenna,ravenna,48100
8536,ospedale santa maria delle crociunit operativa di oncologiaviale randi 5,azienda unita sanitaria locale di ravenna,ravenna,ravenna,48121
8537,via alcide de gasperi 8,azienda unita sanitaria locale di ravenna,ravenna,ravenna,48121
8538,uo ematologiaviale vincenzo randi 5,azienda usl della romagna,ravenna,ravenna,48121
8539,uoc oncologia medicapoliclinico ravennaviale randi 5,azienda usl della romagna,ravenna,ravenna,48121
8540,viale randi 5uo oncologia medicaasl6 presidio ospedaliero livorno,ospedale santa maria delle croci,emiliaromagna,ravenna,48121
8541,uoc oncologia medicapresidio ospedaliero di ravennaviale randi 5,ospedale santa maria delle croci,ravenna,ravenna,48121
8542,via alcide de gasperi 8,ospedale santa maria delle croci,ravenna,ravenna,48121
8543,avenida requejo 35,hospital virgen de la concha,zamora,zamora,49022
8544,via roma 67unità operativa ematologia,azienda ospedaliero universitaria pisana,toscana,pisa,50125
8545,via roma 67unità operativa ematologia,azienda ospedaliero universitaria pisana,toscana,pisa,50125
8546,largo brambilla 3sod malattie emorragiche e della coagulazione,azienda ospedaliera universitaria careggi,emiliaromagna,bologna,50134
8547,largo brambilla 3sod malattie emorragiche e della coagulazione,azienda ospedaliera universitaria careggi,emiliaromagna,bologna,50134
8548,careggi largo brambilla 3,azienda ospedaliera universitaria careggi,firenze,firenze,50134
8549,largo brambilla 3dipartimento maternoinfantile,azienda ospedaliera universitaria careggi,firenze,firenze,50134
8550,largo brambilla 3sod ematologia dipartimento ad attività integrata di biomedica,azienda ospedaliera universitaria careggi,firenze,firenze,50134
8551,largo brambilla 3,azienda ospedaliera universitaria careggi,firenze,firenze,50134
8552,largo brambilla 3padiglione 15 piastra dei servizipiano terra stanza 31,azienda ospedaliera universitaria careggi,firenze,firenze,50134
8553,largo brambilla 3padiglione 15 piastra dei servizipiano terra stanza 31,azienda ospedaliera universitaria careggi,firenze,firenze,50134
8554,largo brambilla 3struttura operativa dipartimentale neurologia 3  dipartimento di neuroscienze,azienda ospedaliera universitaria careggi,firenze,firenze,50134
8555,largo brambilla 3dipartimento materno infantile neonatologia terapia intensiva neonatale,azienda ospedaliera universitaria careggi,firenze,firenze,50134
8556,largo brambilla 3padiglione 15 piastra dei servizipiano terra stanza 31,azienda ospedaliera universitaria careggi,firenze,firenze,50134
8557,largo brambilla 3padiglione 14b  primo piano,azienda ospedaliera universitaria careggi,firenze,firenze,50134
8558,largo brambilla 3padiglione 15 piastra dei servizipiano terra stanza 31,azienda ospedaliera universitaria careggi,firenze,firenze,50134
8559,largo brambilla 3padiglione 15 piastra dei servizipiano terra stanza 31,azienda ospedaliera universitaria careggi,firenze,firenze,50134
8560,largo brambilla 3padiglione 15 piastra dei servizipiano terra stanza 31,azienda ospedaliera universitaria careggi,firenze,firenze,50134
8561,viale gb morgagni 65,azienda ospedaliera universitaria careggi,firenze,firenze,50134
8562,viale morgagni 85sod agenzia per lemofilia  dip di emergenza e accettazione east medicina generale e durgenza,azienda ospedaliera universitaria careggi,firenze,firenze,50134
8563,aou careggiematologia pad 16largo brambilla 3,azienda ospedaliera universitaria careggi,italy,firenze,50134
8564,largo brambilla 3sod ematologia,azienda ospedaliera universitaria careggi,toscana,firenze,50134
8565,largo brambilla 3sod ematologia dipartimento ad attività integrata di biomedica,azienda ospedaliera universitaria careggi,toscana,firenze,50134
8566,largo brambilla 3department of gastroenterology,azienda ospedaliera universitaria careggi,toscana,firenze,50134
8567,largo brambilla 3department of gastroenterology,azienda ospedaliera universitaria careggi,toscana,firenze,50134
8568,largo brambilla 3department of gastroenterology,azienda ospedaliera universitaria careggi,toscana,firenze,50134
8569,largo brambilla 3department of gastroenterology,azienda ospedaliera universitaria careggi,toscana,firenze,50134
8570,largo brambilla 3department of gastroenterology,azienda ospedaliera universitaria careggi,toscana,firenze,50134
8571,largo brambilla 3department of gastroenterology,azienda ospedaliera universitaria careggi,toscana,firenze,50134
8572,largo brambilla 3department of gastroenterology,azienda ospedaliera universitaria careggi,toscana,firenze,50134
8573,largo giovanni alessandro brambilla 3dipartimento di medicina sperimentale e clinica  sod ematologia,azienda ospedaliera universitaria careggi,toscana,firenze,50134
8574,viale gaetano pieraccini,azienda ospedaliera universitaria careggi,toscana,firenze,50134
8575,viale gaetano pieraccini,azienda ospedaliera universitaria careggi,toscana,firenze,50134
8576,viale morgani 85department of gastroenterology,azienda ospedaliera universitaria careggi,toscana,florence,50134
8577,viale pieraccini 17,azienda ospedaliera universitaria careggi,firenze,firenze,50139
8578,viale pieraccini 17unità operativa di ematologia,azienda ospedaliera universitaria careggi,toscana,firenze,50139
8579,viale gaetano pieraccini 24dipartimento oncoematologia,azienda ospedaliero universitaria a meyer  incipit  pin,firenze,firenze,50139
8580,viale gaetano pieraccini 24dipartimento oncoematologia,azienda ospedaliero universitaria a meyer  incipit  pin,firenze,firenze,50139
8581,viale gaetano pieraccini 24dipartimento oncoematologia,azienda ospedaliero universitaria a meyer  incipit  pin,firenze,firenze,50139
8582,viale gaetano pieraccini 24dipartimento oncoematologia,azienda ospedaliero universitaria a meyer  incipit  pin,firenze,firenze,50139
8583,viale pieraccini 24dipartimento oncoematologia,azienda ospedaliero universitaria a meyer  incipit  pin,toscana,firenze,50139
8584,viale pieraccini 24dipartimento oncoematologia,azienda ospedaliero universitaria a meyer  incipit  pin,toscana,firenze,50139
8585,viale pieraccini 6,azienda ospedaliero universitaria ospedale pediatrico meyer,firenze,firenze,50139
8586,viale pieraccini 6dipartimento di medicina generale,universita di firenze dipartimento di chirurgia e medicina traslazionale dcmt,firenze,firenze,50139
8587,largo brambilla 3,azienda ospedaliera universitaria careggi,firenze,firenze,50141
8588,largo brambilla 3,azienda ospedaliera universitaria careggi,firenze,firenze,50141
8589,viale tristano di jaonnuccio 1,azienda ospedaliera s maria di terni,umbria,terni,5100
8590,ospedale santa chiaravia roma 67,azienda ospedaliera santandrea,pisa,pisa,56100
8591,via roma 67,azienda ospedaliero universitaria pisana,pisa,pisa,56100
8592,via roma 67presidio cisanello uo pnemologiaedificio 10,azienda ospedaliero universitaria pisana,toscana,pisa,56100
8593,via roma 67unità operativa ematologia,azienda ospedaliero universitaria pisana,toscana,pisa,56100
8594,via roma 67clinica neurologica  ambulatorio malattie neuromuscolari,azienda ospedaliero universitaria pisana,toscana,pisa,56100
8595,vdct roma 67,azienda ospedaliero universitaria pisana,toscana,pisa,56123
8596,aoup sede cisanello edificio 10  piano terrastanza 3 via paradisa 2,azienda ospedaliero universitaria pisana,pisa,pisa,56124
8597,via paradisa 2uo pneumologia 2,azienda ospedaliero universitaria pisana,toscana,pisa,56124
8598,unit operativa gastroenteroligavia paradisa 2,azienda ospedalierouniversitaria pisana ospedale cisanello,pisa,pisa,56124
8599,via roma 67,azienda ospedaliero universitaria pisana,pisa,pisa,56126
8600,via roma 67,azienda ospedaliero universitaria pisana,pisa,pisa,56126
8601,via roma 67,azienda ospedaliero universitaria pisana,toscana,pisa,56126
8602,via roma 67dipartimento di medicina interna  istituto di reumatologia clinica,università di pisa,toscana,pisa,56126
8603,via roma 67uo ematologia,azienda ospedaliero universitaria pisana,toscana,pisa,56127
8604,via roma 67oncoematologia e trapianti,azienda ospedaliero universitaria a meyer  incipit  pin,toscana,pisa,58126
8605,via conca 71clinica di oncologia medica,azienda ospedaliero universitaria ospedali riuniti di anconaumberto i gm lancisi g salesi,ancona,ancona,60020
8606,via conca 71clinica di ematologia  unità di trapianto di cellule staminali e terapia cellulare,azienda ospedaliero universitaria ospedali riuniti di anconaumberto i gm lancisi g salesi,marche,ancona,60020
8607,via conca 71clinica di gastroenterologia epatologia ed endoscopia digestiva durgenzag salesi di ancona presidio ospedaliero di alta specializzazione gsalesi,azienda ospedaliero universitaria ospedali riuniti di anconaumberto i gm lancisi g salesi,marche,ancona,60020
8608,via conca 71clinica di gastroenterologia epatologia ed endoscopia digestiva durgenzag salesi di ancona presidio ospedaliero di alta specializzazione gsalesi,azienda ospedaliero universitaria ospedali riuniti di anconaumberto i gm lancisi g salesi,marche,ancona,60020
8609,via conca 71clinica di gastroenterologia epatologia ed endoscopia digestiva durgenzag salesi di ancona presidio ospedaliero di alta specializzazione gsalesi,azienda ospedaliero universitaria ospedali riuniti di anconaumberto i gm lancisi g salesi,marche,ancona,60020
8610,via conca 71clinica di gastroenterologia epatologia ed endoscopia digestiva durgenzag salesi di ancona presidio ospedaliero di alta specializzazione gsalesi,azienda ospedaliero universitaria ospedali riuniti di anconaumberto i gm lancisi g salesi,marche,ancona,60020
8611,via conca 71clinica di gastroenterologia epatologia ed endoscopia digestiva durgenzag salesi di ancona presidio ospedaliero di alta specializzazione gsalesi,azienda ospedaliero universitaria ospedali riuniti di anconaumberto i gm lancisi g salesi,marche,ancona,60020
8612,via conca 71clinica di gastroenterologia epatologia ed endoscopia digestiva durgenzag salesi di ancona presidio ospedaliero di alta specializzazione gsalesi,azienda ospedaliero universitaria ospedali riuniti di anconaumberto i gm lancisi g salesi,marche,ancona,60020
8613,via conca 71clinica di ematologia,azienda ospedaliero universitaria ospedali riuniti di anconaumberto i gm lancisi g salesi,marche,ancona,60020
8614,via conca 71clinica di ematologiacorpo c  piano 2,azienda ospedaliero universitaria ospedali riuniti di anconaumberto i gm lancisi g salesi,marche,ancona,60020
8615,vai corridoni 11clinica di pediatria,azienda ospedaliero universitaria ospedali riuniti di anconaumberto i gm lancisi g salesi,ancona,ancona,60123
8616,via corridoni 11centro regionale di diabetologia pediatrica  clinica pediatrica,azienda ospedaliero universitaria ospedali riuniti di anconaumberto i gm lancisi g salesi,ancona,ancona,60123
8617,via conca 71ita1671,azienda ospedaliero universitaria ospedali riuniti,torrette di ancona,ancona,60126
8618,via conca 71ita1671,azienda ospedaliero universitaria ospedali riuniti,torrette di ancona,ancona,60126
8619,via conca 71torrette,azienda ospedaliero universitaria ospedali riuniti di ancona,ancona,ancona,60126
8620,via lombrosounità operativa ematologia,azienda ospedaliera ospedali riuniti marche nord,marche,pesaro,61100
8621,via lombroso 1uoc ematologia e centro trapianti,azienda ospedaliera ospedali riuniti marche nord,marche,pesaro,61122
8622,via lombroso 1,azienda ospedaliera ospedali riuniti marche nord,pesaro e urbino,pesaro,61122
8623,via degli iris 6,ospedale mazzoni,marche,ascoli piceno,63100
8624,via fonte romana,azienda sanitaria locale di pescara ospedale civile dello spirito santo,pescara,pescara,65100
8625,via fonte romana 8ematologia con trapianto,presidio ospedaliero di pescara,abruzzo,pescara,65100
8626,dipartimento di ematologiavia fonte romana 8,presidio ospedaliero di pescara,pescara,pescara,65125
8627,via dei vestiniclinica neurologica,ospedale clinicizzato ss annunziata,abruzzo,chieti,66013
8628,via dei vestini,ospedale clinicizzato ss annunziata,chieti,chieti,66013
8629,via dei vestini,ospedale clinicizzato ss annunziata,chieti,chieti,66013
8630,universita degli studi azienda asl chieti  clinica pediatricavia dei vestini 5,ospedale policlinico ss annunziata,chieti,chieti,66100
8631,viale ippocrate 15,ospedale monsignor raffaele dimiccoli,barletta,bari,70051
8632,piazza giulio cesare 11medicina interna universitaria g baccelli,azienda ospedaliero universitaria consorziale policlinico di bari  incipit  pin,puglia,bari,70120
8633,dipart di ematologiapiazza giulio cesare 11,azienda ospedaliera policlinico di bari,bari,bari,70124
8634,dipartimento di psichiatria11 piazza g cesare,azienda ospedaliero universitaria consorziale policlinico di bari,bari,bari,70124
8635,pzza giulio cesare 11,azienda ospedaliero universitaria consorziale policlinico di bari,bari,bari,70124
8636,piazza giulio cesare 11,azienda ospedaliero universitaria consorziale policlinico di bari,bari,bari,70124
8637,piazza giulio cesare 11,azienda ospedaliero universitaria consorziale policlinico di bari,bari,bari,70124
8638,piazza giulio cesare 11,azienda ospedaliero universitaria consorziale policlinico di bari,bari,bari,70124
8639,piazza giulio cesare 11medicina interna universitaria g baccelli,azienda ospedaliero universitaria consorziale policlinico di bari  incipit  pin,puglia,bari,70124
8640,piazza giulio cesare 11,azienda ospedaliero universitaria consorziale policlinico di bari  incipit  pin,puglia,bari,70124
8641,piazza giulio cesare 11oncologia medica universitaria,azienda ospedaliero universitaria consorziale policlinico di bari  incipit  pin,puglia,bari,70124
8642,piazza giulio cesare 11uo gastroentoerologia universitaria,azienda ospedaliero universitaria consorziale policlinico di bari  incipit  pin,puglia,bari,70124
8643,piazza giulio cesare 11sc nefrologia dialisi e trapianto,azienda ospedaliero universitaria consorziale policlinico di bari  incipit  pin,puglia,bari,70124
8644,piazza giulio cesare 11uo gastroentoerologia universitaria,azienda ospedaliero universitaria consorziale policlinico di bari  incipit  pin,puglia,bari,70124
8645,piazza giulio cesare 11uo gastroentoerologia universitaria,azienda ospedaliero universitaria consorziale policlinico di bari  incipit  pin,puglia,bari,70124
8646,piazza giulio cesare 11uo ematologia con trapianto,azienda ospedaliero universitaria consorziale policlinico di bari  incipit  pin,puglia,bari,70124
8647,piazza giulio cesare 11uo gastroentoerologia universitaria,azienda ospedaliero universitaria consorziale policlinico di bari  incipit  pin,puglia,bari,70124
8648,piazza giulio cesare 11,azienda ospedaliero universitaria consorziale policlinico di bari  incipit  pin,puglia,bari,70124
8649,piazza giulio cesare 11uo gastroentoerologia universitaria,azienda ospedaliero universitaria consorziale policlinico di bari  incipit  pin,puglia,bari,70124
8650,via orazio flacco 65unità operativa di oncologia medica sperimentale dipartimento di oncologia medica,irccs giovanni paolo ii istituto oncologico,puglia,bari,70124
8651,viale orazio flacco 65,irccs giovanni paolo ii istituto oncologico,puglia,bari,70124
8652,viale orazio flacco 65,istituto oncologico di bari giovanni paolo ii,bari,bari,70124
8653,viale cappuccini 1liver unit  irccs san giovanni rotondo,irccs ospedale casa sollievo della sofferenza,san giovanni rotondo,foggia,71013
8654,viale cappuccini 1liver unit  irccs san giovanni rotondo,irccs ospedale casa sollievo della sofferenza,san giovanni rotondo,foggia,71013
8655,viale cappuccini 1liver unit  irccs san giovanni rotondo,irccs ospedale casa sollievo della sofferenza,san giovanni rotondo,foggia,71013
8656,viale cappuccini 1liver unit  irccs san giovanni rotondo,irccs ospedale casa sollievo della sofferenza,san giovanni rotondo,foggia,71013
8657,viale cappuccini 1,ospedale casa sollievo della sofferenza,foggia,san giovanni rotondo,71013
8658,viale cappuccini 1unità operativa complessa di oncologia  dipartimento di oncoematologia,ospedale casa sollievo della sofferenza irccs,foggia,san giovanni rotondo,71013
8659,viale cappuccini 1dipartimento di oncoematologia struttura complessa di ematologia e trapianto di cellule staminali,ospedale casa sollievo della sofferenza irccs,puglia,san giovanni rotondo,71013
8660,viale cappuccini 1,ospedale casa sollievo della sofferenza irccs,puglia,san giovanni rotondo,71013
8661,viale cappuccini 1sc di gastroenterologia ed endoscopia digestiva,ospedale casa sollievo della sofferenza irccs,puglia,san giovanni rotondo,71013
8662,viale cappuccini 1sc di gastroenterologia ed endoscopia digestiva,ospedale casa sollievo della sofferenza irccs,puglia,san giovanni rotondo,71013
8663,viale cappuccini 1dipartimento di oncoematologia struttura complessa di ematologia e trapianto di cellule staminali,ospedale casa sollievo della sofferenza irccs,puglia,san giovanni rotondo,71013
8664,viale cappuccini 1sc di gastroenterologia ed endoscopia digestiva,ospedale casa sollievo della sofferenza irccs,puglia,san giovanni rotondo,71013
8665,viale cappuccini 1dipartimento di oncoematologia  struttura complessa di ematologia,ospedale casa sollievo della sofferenza irccs,puglia,san giovanni rotondo fg,71013
8666,viale cappuccini 1dipartimento di oncoematologia  struttura complessa di ematologia,ospedale casa sollievo della sofferenza irccs,puglia,san giovanni rotondo fg,71013
8667,via san pio x 4dipartimento di ematologia e medicina trasfusionale,azienda ospedaliera cardinale g panico,lecce,tricase,73039
8668,via san pio x 4dipartimento di ematologia e medicina trasfusionale,azienda ospedaliera cardinale g panico,lecce,tricase,73039
8669,via san pio x 4,azienda ospedaliera cardinale g panico,lecce,tricase,73039
8670,unit operativa di ematologiapiazza filippo muratore 1,azienda ospedaliera vito fazzi,lecce,lecce,73100
8671,piazza miragliaunità operativa complessa di gastroenterologia ed endoscopia digestiva divisione di medicinapadiglione b 1° piano,aou delluniversità degli studi della campania luigi vanvitelli,campania,napoli,80100
8672,piazza miragliaunità operativa complessa di gastroenterologia ed endoscopia digestiva divisione di medicinapadiglione b 1° piano,aou delluniversità degli studi della campania luigi vanvitelli,campania,napoli,80100
8673,piazza miragliaunità operativa complessa di gastroenterologia ed endoscopia digestiva divisione di medicinapadiglione b 1° piano,aou delluniversità degli studi della campania luigi vanvitelli,campania,napoli,80100
8674,piazza miragliaunità operativa complessa di gastroenterologia ed endoscopia digestiva divisione di medicinapadiglione b 1° piano,aou delluniversità degli studi della campania luigi vanvitelli,campania,napoli,80100
8675,piazza miragliaunità operativa complessa di gastroenterologia ed endoscopia digestiva divisione di medicinapadiglione b 1° piano,aou delluniversità degli studi della campania luigi vanvitelli,campania,napoli,80100
8676,piazza giulio cesare,azienda ospedaliero universitaria consorziale policlinico di bari,bari,bari,80100
8677,piazza giulio cesare,azienda ospedaliero universitaria consorziale policlinico di bari,bari,bari,80100
8678,via posillipo 226,azienda ospedaliera pediatrica santobono pausillipon,napoli,napoli,80122
8679,via posillipo 226,azienda ospedaliera pediatrica santobono pausillipon,napoli,napoli,80122
8680,via antonio cardarelli 9divisione di ematologia con trapianto di cellule staminali emopoietiche,aorn a cardarelli,campania,naples,80131
8681,via antonio cardarelli 9dipartimento oncoematologico uoc ematologia con trapianto di midollo osseo,aorn a cardarelli,campania,naples,80131
8682,via antonio cardarelli 9,aorn a cardarelli,campania,napoli,80131
8683,via antonio cardarelli 9divisione di ematologia con trapianto di cellule staminali emopoietiche,aorn a cardarelli,campania,napoli,80131
8684,via antonio cardarelli 9divisione di ematologia con trapianto di cellule staminali emopoietiche,aorn a cardarelli,campania,napoli,80131
8685,via antonio cardarelli 9divisione di ematologia con trapianto di cellule staminali emopoietiche,aorn a cardarelli,campania,napoli,80131
8686,via cardarelli 9uos di reumatologia,aorn a cardarelli,campania,napoli,80131
8687,via leonardo bianchiuoc dipneumotisiologia,aorn dei colli ospedale monaldi napoli,campania,napoli,80131
8688,via pansini 5unità operativa complessa di gastroenterologia ed endoscopia digestiva divisione di medicinapadiglione b 1° piano,aou delluniversità degli studi della campania luigi vanvitelli,campania,napoli,80131
8689,via sergio pansini 5uoc di pneumotisiologia,aou delluniversità degli studi della campania luigi vanvitelli,campania,napoli,80131
8690,via sergio pansini 5uoc di pneumotisiologia,aou delluniversità degli studi della campania luigi vanvitelli,campania,napoli,80131
8691,via pansini 5edificio 16 piano iv,azienda ospedaliera universitaria federico ii,napoli,napoli,80131
8692,via s pansini 5 ed1edificio 16 piano iv,azienda ospedaliera universitaria federico ii,napoli,napoli,80131
8693,via s pansini 5 ed1,azienda ospedaliera universitaria federico ii,napoli,napoli,80131
8694,via s pansini 5 ed1edificio 16 piano iv,azienda ospedaliera universitaria federico ii,napoli,napoli,80131
8695,5 via sergio pansini,azienda ospedaliera universitaria federico ii,campania,napoli,80131
8696,via pansini 5dipartimento di medicina clinica e sperimentale,azienda ospedaliera universitaria federico ii,campania,napoli,80131
8697,via pansini 5dipartimento di medicina clinica e sperimentale,azienda ospedaliera universitaria federico ii,campania,napoli,80131
8698,via pansini 5dipartimento di biochimica e biotecnologie mediche,azienda ospedaliera universitaria federico ii,campania,napoli,80131
8699,via pansini 5dipartimento di biochimica e biotecnologie mediche,azienda ospedaliera universitaria federico ii,campania,napoli,80131
8700,via pansini 5,azienda ospedaliera universitaria federico ii,campania,napoli,80131
8701,via pansini 5dipartimento di medicina clinica e sperimentale,azienda ospedaliera universitaria federico ii,campania,napoli,80131
8702,via pansini 5centro di riferimento regionale per le emocoagulopatie  dip medicina clinica e sperimentale,azienda ospedaliera universitaria federico ii,campania,napoli,80131
8703,via pansini 5dipartimento di medicina clinica e sperimentale,azienda ospedaliera universitaria federico ii,campania,napoli,80131
8704,via pansini 5dipartimento di medicina clinica scienze cardiovascolari east immunologiche,azienda ospedaliera universitaria federico ii,campania,napoli,80131
8705,via pansini 5dipartimento di medicina clinica scienze cardiovascolari east immunologiche,azienda ospedaliera universitaria federico ii,campania,napoli,80131
8706,via pansini 5dipartimento di medicina clinica scienze cardiovascolari east immunologiche,azienda ospedaliera universitaria federico ii,campania,napoli,80131
8707,via sergio pansini 5unità di endoscopia e motilità digestiva pediatrica,azienda ospedaliera universitaria federico ii,campania,napoli,80131
8708,via sergio pansini 5dipartimento di scienze mediche traslazionalisezione pediatriauo semplicemalattie metaboliche,azienda ospedaliera universitaria federico ii,campania,napoli,80131
8709,via sergio pansini 5uoc di pneumotisiologia,azienda ospedaliera universitaria federico ii,campania,napoli,80131
8710,via sergio pansini 5uoc di pneumotisiologia,azienda ospedaliera universitaria federico ii,campania,napoli,80131
8711,via sergio pansini 5uo di immunologia clinica ed allergologia,azienda ospedaliera universitaria federico ii,campania,napoli,80131
8712,via sergio pansini 5dipartimento di medicina clinica scienze cardiovascolari east immunologiche,azienda ospedaliera universitaria federico ii,campania,napoli,80131
8713,via pansini 5dipartimento di medicina clinica e sperimentale,azienda ospedaliera universitaria federico ii,napoli,napoli,80131
8714,via pansini 5uo di ematologia e trapianto di cellule staminali emopoieticheedificio 1,azienda ospedaliera universitaria federico ii,napoli,napoli,80131
8715,via pansini 5dipartimento di medicina clinica e sperimentale,azienda ospedaliera universitaria federico ii,napoli,napoli,80131
8716,via pansini 5dipartimento di medicina clinica e chirurgia,azienda ospedaliera universitaria federico ii,napoli,napoli,80131
8717,via s pansini 5uo di ematologia e trapianto di cellule staminali emopoietiche,azienda ospedaliera universitaria federico ii,napoli,napoli,80131
8718,via s pansini 5uo di ematologia e trapianto di cellule staminali emopoieticheedificio 1,azienda ospedaliera universitaria federico ii,napoli,napoli,80131
8719,via s pansini 5uo di ematologia e trapianto di cellule staminali emopoietiche,azienda ospedaliera universitaria federico ii,napoli,napoli,80131
8720,via sergio pansini 5,azienda ospedaliera universitaria federico ii,napoli,napoli,80131
8721,via sergio pansini 5uoc gastroenterologia ed epatologia,casa di cura santa rita,campania,napoli,80131
8722,via sergio pansini 5uoc gastroenterologia ed epatologia,casa di cura santa rita,campania,napoli,80131
8723,via sergio pansini 5uoc gastroenterologia ed epatologia,casa di cura santa rita,campania,napoli,80131
8724,via sergio pansini 5uoc gastroenterologia ed epatologia,casa di cura santa rita,campania,napoli,80131
8725,via sergio pansini 5uoc gastroenterologia ed epatologia,casa di cura santa rita,campania,napoli,80131
8726,via mariano semmolasc ematologia oncologica,istituto nazionale per lo studio e la cura dei tumori fondazione giovanni pascale,campania,napoli,80131
8727,via semmoladipartimento di oncoematolgia e trapianto di cellule staminali,istituto nazionale per lo studio e la cura dei tumori fondazione giovanni pascale,napoli,napoli,80131
8728,oncologia medica bvia mariano semmola,istituto nazionale tumori irccs fondazione pascale,napoli,napoli,80131
8729,oncologia medica toraco polmonarevia mariano semmola,istituto nazionale tumori irccs fondazione pascale,napoli,napoli,80131
8730,oncologia medica toraco polmonarevia mariano semmola,istituto nazionale tumori irccs fondazione pascale,napoli,napoli,80131
8731,oncologia medica toraco polmonarevia mariano semmola,istituto tumori napoli fondazione g pascale,napoli,napoli,80131
8732,via mariano semmola,istituto tumori napoli fondazione g pascale,napoli,napoli,80131
8733,largo madonna delle grazie 1,azienda ospedaliera universitaria università degli studi della campania “luigi vanvitelli”,napoli,napoli,80138
8734,via santa maria di costantinopoli 104,azienda ospedaliera universitaria universita della campania luigi vanvitelli,napoli,napoli,80138
8735,corso umberto 40,università degli studi di napoli federico ii,campania,napoli,80138
8736,via fm briganti 255,ospedale san giovanni bosco,napoli,napoli,80144
8737,via filippo maria briganti 255,ospedale san giovanni bosco,napoli,napoli,80144
8738,uo di oncologia medicacontrada amoretta,azienda ospedaliera san giuseppe moscati,avellino,avellino,83100
8739,via san francesco 1uoc gastroenterologia e endoscopia digestiva,asl salerno nocera inferiore ospedale umberto i,salerno,nocera inferiore,84014
8740,via san francesco 1uoc gastroenterologia e endoscopia digestiva,asl salerno nocera inferiore ospedale umberto i,salerno,nocera inferiore,84014
8741,via san francesco 1uoc gastroenterologia e endoscopia digestiva,asl salerno nocera inferiore ospedale umberto i,salerno,nocera inferiore,84014
8742,via san francesco 1uoc gastroenterologia e endoscopia digestiva,asl salerno nocera inferiore ospedale umberto i,salerno,nocera inferiore,84014
8743,via san francesco 1uoc gastroenterologia e endoscopia digestiva,asl salerno nocera inferiore ospedale umberto i,salerno,nocera inferiore,84014
8744,via s leonardo,azienda ospedaliera universitaria oo rr s giovanni di dio e ruggi daragona,salerno,salerno,84131
8745,via s leonardo,azienda ospedaliera universitaria oo rr s giovanni di dio e ruggi daragona,salerno,salerno,84131
8746,viale morgagni,careggi university hospital,firenze,firenze,85
8747,via provinciale 8uo ematologia e trapianto di cellule staminali,irccs centro di riferimento oncologico della basilicata,potenza,rionero in vulture,85028
8748,via provinciale 8unità operativa di ematologia e trapianto di midollo osseo,irccs centro di riferimento oncologico della basilicata,potenza,rionero in vulture pz,85028
8749,via provinciale 8unità operativa di ematologia e trapianto di midollo osseo,irccs centro di riferimento oncologico della basilicata,potenza,rionero in vulture pz,85028
8750,via felice miglioridipartimento di oncoematologia,ospedale civile dellannunziata,calabria,cosenza,87100
8751,via felice miglioridipartimento di oncoematologia,ospedale civile dellannunziata,calabria,cosenza,87100
8752,viale pio x 10,azienda ospedaliera di catanzaro puglieseciaccio,catanzaro,catanzaro,88100
8753,viale europalocalità germanetouo fisiopatologia digestiva,azienda ospedaliera mater domini di catanzaro,calabria,catanzaro,88100
8754,viale europalocalità germanetouo fisiopatologia digestiva,azienda ospedaliera mater domini di catanzaro,calabria,catanzaro,88100
8755,viale europalocalità germanetouo fisiopatologia digestiva,azienda ospedaliera mater domini di catanzaro,calabria,catanzaro,88100
8756,viale europalocalità germanetouo fisiopatologia digestiva,azienda ospedaliera mater domini di catanzaro,calabria,catanzaro,88100
8757,viale europalocalità germanetouo fisiopatologia digestiva,azienda ospedaliera mater domini di catanzaro,calabria,catanzaro,88100
8758,viale europalocalità germanetouo fisiopatologia digestiva,azienda ospedaliera mater domini di catanzaro,calabria,catanzaro,88100
8759,viale europalocalità germanetouo fisiopatologia digestiva,azienda ospedaliera mater domini di catanzaro,calabria,catanzaro,88100
8760,viale pio xunità operativa di pediatria  ambulatorio di pediatria genetica,azienda ospedaliera pugliese ciaccio,calabria,catanzaro,88100
8761,viale pio xunità operativa ematoncologia pediatrica,azienda ospedaliera pugliese ciaccio,calabria,catanzaro,88100
8762,viale pio xunità operativa di pediatria  ambulatorio di pediatria genetica,azienda ospedaliera pugliese ciaccio,calabria,catanzaro,88100
8763,unit opertiva di ematologiavia melacrino 21,azienda grande ospedale metropolitano bianchi melacrino morelli,reggio calabria,reggio calabria,89100
8764,centro unico regionale trapianti di cellule staminali e terapie cellularivia g melacrino,azienda grande ospedale metropolitano bianchi melacrino morelli,calabria,reggio calabria,89122
8765,via ospedali riuniti vallone petraracentro unico regionale trapianti di cellule staminali e terapie cellulari,grande ospedale metropolitano bianchimelacrinomorelli,calabria,reggio calabria,89124
8766,viale europauoc di ematologiapresidio morelli,grande ospedale metropolitano bianchimelacrinomorelli,calabria,reggio calabria,89133
8767,viale europauoc di ematologia,grande ospedale metropolitano bianchimelacrinomorelli,calabria,reggio calabria,89133
8768,via trabucci 180,ao ospedali riuniti villa sofia  cervello palermo,palermo,palermo,90100
8769,via trabucci 180,ao ospedali riuniti villa sofia  cervello palermo,palermo,palermo,90100
8770,via s citelli 6,azienda ospedaliera universitaria policlinico  vittorio emanuele presidio ferrarotto alessi,catania,catania,90124
8771,piazza delle cliniche 2dept    uo di medicina interna e cardioangiologia,azienda ospedaliera universitaria policlinico paolo giaccone,palermo,palermo,90127
8772,via del vespro 129,azienda ospedaliera universitaria policlinico paolo giaccone,sicilia,palermo,90127
8773,via del vespro 129unità operativa complessa di neurochirurgia,azienda ospedaliera universitaria policlinico paolo giaccone,sicilia,palermo,90127
8774,via del vespro 129,azienda ospedaliera universitaria policlinico paolo giaccone,sicilia,palermo,90127
8775,via del vespro 129,azienda ospedaliera universitaria policlinico paolo giaccone,sicilia,palermo,90127
8776,via del vespro 129,azienda ospedaliera universitaria policlinico paolo giaccone,sicilia,palermo,90127
8777,via del vespro 129,azienda ospedaliera universitaria policlinico paolo giaccone,sicilia,palermo,90127
8778,via del vespro 129,azienda ospedaliera universitaria policlinico paolo giaccone,sicilia,palermo,90127
8779,via del vespro 129,azienda ospedaliero universitaria policlinico paolo giaccone,palermo,palermo,90127
8780,via trabucco 180uo medicina interna,azienda ospedaliera ospedali riuniti villa sofiacervello,sicilia,palermo,90145
8781,uoc ematologia ivia trabucco 180,azienda ospedaliera ospedali riuniti villa sofiacervello,palermo,palermo,90146
8782,via trabucco 180ospedale cervello  unità operativa complessa di patologia clinica,azienda ospedaliera ospedali riuniti villa sofiacervello,palermo,palermo,90146
8783,via trabucco 180,azienda ospedaliera ospedali riuniti villa sofiacervello,palermo,palermo,90146
8784,piazza salerno a cruillasdivisione di pediatria ii  servizio di talassemia,azienda ospedaliera ospedali riuniti villa sofiacervello,sicilia,palermo,90146
8785,viale strasburgo 233uo medicina interna 2,azienda ospedaliera ospedali riuniti villa sofiacervello,sicilia,palermo,90146
8786,viale strasburgo 233uo medicina interna 2,azienda ospedaliera ospedali riuniti villa sofiacervello,sicilia,palermo,90146
8787,viale strasburgo 233uo medicina interna 2,azienda ospedaliera ospedali riuniti villa sofiacervello,sicilia,palermo,90146
8788,viale strasburgo 233uo medicina interna 2,azienda ospedaliera ospedali riuniti villa sofiacervello,sicilia,palermo,90146
8789,viale strasburgo 233uo medicina interna 2,azienda ospedaliera ospedali riuniti villa sofiacervello,sicilia,palermo,90146
8790,viale strasburgo 233uo medicina interna 2,azienda ospedaliera ospedali riuniti villa sofiacervello,sicilia,palermo,90146
8791,viale strasburgo 233uo medicina interna 2,azienda ospedaliera ospedali riuniti villa sofiacervello,sicilia,palermo,90146
8792,via trabucco 180,azienda ospedaliera vincenzo cervello,palermo,palermo,90146
8793,via trabucco 180,azienda ospedaliera vincenzo cervello,palermo,palermo,90146
8794,piazzale ricchi 1,ao brotzu  clinica di neuropsichiatria dellinfanzia e delladolescenza  incipit – pin,cagliari,cagliari,9134
8795,piazzale ricchi 1,ao brotzu  clinica di neuropsichiatria dellinfanzia e delladolescenza  incipit – pin,cagliari,cagliari,9134
8796,via conte ruggero 73,irccs oasi maria ss,troina,enna,94018
8797,via messina 829,azienda ospedaliera ospedale cannizzaro,catania,catania,95100
8798,via messina 829,azienda ospedaliera ospedale cannizzaro,catania,catania,95100
8799,via palermo 636uoc ematologia,azienda ospedaliera di rilievo nazionale e di alta specializzazione garibaldi,sicilia,catania,95122
8800,via s sofia 78,azienda ospedaliero universitaria policlinico vittorio emanuele,sicilia,catania,95122
8801,uoc oncologia medicavia santa sofia 78,azienda ospedaliero  universitaria policlinico  vittorio emanuele,catania,catania,95123
8802,via santa sofia 78dipartimento di cardiologiaambulatorio di ecocardiografia,azienda ospedaliero universitaria policlinico grodolico  san marco,sicilia,catania,95123
8803,via santa sofia 78,azienda ospedaliero universitaria policlinico vittorio emanuele,sicilia,catania,95123
8804,via santa sofia 78,azienda ospedaliero universitaria policlinico vittorio emanuele,sicilia,catania,95123
8805,via santa sofia 78,presidio ospedaliero gaspare rodolico,catania,catania,95123
8806,via g clementi 36,azienda ospedaliera universitaria policlinico  vittorio emanuele presidio ferrarotto alessi,catania,catania,95124
8807,divisone di ematologia pad dvia citelli 6,azienda ospedaliero  universitaria policlinico  vittorio emanuele,catania,catania,95124
8808,via salvatore citelli 6,azienda ospedaliero universitaria policlinico vittorio emanuele,sicilia,catania,95124
8809,divisione di ematologiaunita di trapianto di midollovia santa sofia 78,policlinico universitario di catania,catania,catania,95124
8810,via messina 829chirurgia generale,azienda ospedaliera cannizzaro,sicilia,catania,95126
8811,via messina 829chirurgia generale,azienda ospedaliera cannizzaro,sicilia,catania,95126
8812,via messina 829chirurgia generale,azienda ospedaliera cannizzaro,sicilia,catania,95126
8813,via messina 829chirurgia generale,azienda ospedaliera cannizzaro,sicilia,catania,95126
8814,via messina 829chirurgia generale,azienda ospedaliera cannizzaro,sicilia,catania,95126
8815,via messina 829chirurgia generale,azienda ospedaliera per lemergenza cannizzaro,sicilia,catania,95126
8816,via messina 829chirurgia generale,azienda ospedaliera per lemergenza cannizzaro,sicilia,catania,95126
8817,via consolare valeria1,azienda ospedaliera universitaria policlinico g martino,messina,messina,98122
8818,via consolare valeria1,azienda ospedaliera universitaria policlinico g martino,messina,messina,98122
8819,via consolare valeria 1uoc  farmacia,az ospedaliera universitaria policlinico g martino,sicilia,messina,98124
8820,via consolare valeriauosd malattie intestinali croniche,az ospedaliera universitaria policlinico g martino,sicilia,messina,98125
8821,via consolare valeriauoc neurologia e malattie neuromuscolari,az ospedaliera universitaria policlinico g martino,sicilia,messina,98125
8822,via consolare valeriauosd malattie intestinali croniche,az ospedaliera universitaria policlinico g martino,sicilia,messina,98125
8823,via consolare valeriauosd malattie intestinali croniche,az ospedaliera universitaria policlinico g martino,sicilia,messina,98125
8824,via consolare valeriauosd malattie intestinali croniche,az ospedaliera universitaria policlinico g martino,sicilia,messina,98125
8825,via consolare valeriauosd malattie intestinali croniche,az ospedaliera universitaria policlinico g martino,sicilia,messina,98125
8826,via consolare valeriauosd malattie intestinali croniche,az ospedaliera universitaria policlinico g martino,sicilia,messina,98125
8827,via consolare valeriauosd malattie intestinali croniche,az ospedaliera universitaria policlinico g martino,sicilia,messina,98125
8828,via consolare valeria,azienda ospedaliera universitaria policlinico g martino,messina,messina,98125
8829,via consolare valeria,azienda ospedaliera universitaria policlinico g martino,messina,messina,98125
