SR_NUM,CONCAT_ADDRESS,SITE_NAME,STATE,CITY,POSTAL_CODE
104002,5560 mesasprings driverive,mesa springs,tx,fort worth,76123
104003,6200 overtton ridge blvdblvd,oceans behavioral hospital of fort worth,tx,fort worth,76132
104004,6100 harriis pkwy,texas health harris methodist hospital southwest f,tx,fort worth,76132
104005,5900 altammesa blvd,usmd hospital  at fort worth lp,tx,fort worth,76132
104006,3101 northh tarrant parkwayparkway,medical city alliance,tx,fort worth,76177
104007,3200 northh tarrant parkwayparkway,wise health system,tx,fort worth,76177
104008,4401 boothh calloway roadroad,medical city north hills,tx,north richland hills,76180
104009,3000 n i335,texas health presbyterian hospital denton,tx,denton,76201
104010,2026 westuniversity drivey drive,university behavioral health,tx,denton,76201
104011,2809 southh mayhill roadroad,mayhill hospital,tx,denton,76208
104012,2801 southh mayhill roadroad,the heart hospital baylor denton,tx,denton,76208
104013,3535 southh i35 east,medical city denton,tx,denton,76210
104014,26791 highhway 380,baylor scott and white emergency hospital aubrey,tx,aubrey,76227
104015,609 medicaal center drivedrive,wise regional health system,tx,decatur,76234
104016,1900 hospiital blvd,north texas medical center,tx,gainesville,76240
104017,10864 texaas health trailtrail,texas health harris methodist hospital alliance,tx,fort worth,76244
104018,605 n maplle street,muenster memorial hospital,tx,muenster,76252
104019,100 park rroad,nocona general hospital,tx,nocona,76255
104020,2850  e sttate highway 114ay 114,baylor medical center at trophy club,tx,trophy club,76262
104021,1505 8th sst,red river hospital,tx,wichita falls,76301
104022,1600 11thstreet,united regional health care system,tx,wichita falls,76301
104023,6515 kempblvd,north texas state hospital,tx,wichita falls,76308
104024,5402 kellwest boulevardevard,kell west regional hospital,tx,wichita falls,76310
104025,1207 s baiiley streett,electra memorial hospital,tx,electra,76360
104026,310 w soutth street,clay county memorial hospital,tx,henrietta,76365
104027,901 west hhamilton,hamilton hospital,tx,olney,76374
104028,200 stadiuum drive,seymour hospital,tx,seymour,76380
104029,920 hillcrrest dr,wilbarger general hospital,tx,vernon,76384
104030,411 n belkknap st,texas health harris methodist hospital stephenvill,tx,stephenville,76401
104031,200 southgeneva streetreet,stephens memorial hospital,tx,breckenridge,76424
104032,10201 hwy16,comanche county medical center,tx,comanche,76442
104033,304 s dauggherty,eastland memorial hospital,tx,eastland,76448
104034,1301 montggomery roadd,graham regional medical center,tx,graham,76450
104035,215 chishoolm trail,faith community hospital,tx,jacksboro,76458
104036,802 n mintter avenue,throckmorton county memorial hospital,tx,throckmorton,76483
104037,2401 s  311st st,baylor scott  white  clinic  temple,tx,temple,76508
104038,3500 southh ih35,cedar crest hospital  rtc,tx,belton,76513
104039,1507 w maiin street,coryell memorial healthcare system,tx,gatesville,76528
104040,400 n browwn building 1ng 1,hamilton general hospital,tx,hamilton,76531
104041,2201 s cleear creek roadroad,adventhealth central texas,tx,killeen,76542
104042,36000 darnnall loop,darnall amc ft hood,tx,fort hood,76544
104043,850 w centtral texas expresswaexpressway,seton medical center harker heights,tx,harker heights,76548
104044,608 northkey avenuee,adventhealth rollins brook,tx,lampasas,76550
104045,1700 brazoos,little river healthcare,tx,rockdale,76567
104046,305 mallarrd,baylor scott  white medical center taylor,tx,taylor,76574
104047,101 poseyavenue,goodall witcher hospital,tx,clifton,76634
104048,701 mcclinntic drive,limestone medical center,tx,groesbeck,76642
104049,101 circlee drive,hill regional hospital,tx,hillsboro,76645
104050,322 colemaan street,falls community hospital and clinic,tx,marlin,76661
104051,600 southbonham streetreet,parkview regional hospital,tx,mexia,76667
104052,100 hillcrrest medical blvdal blvd,baylor scott  white medical center hillcrest,tx,waco,76712
104053,6901 mediccal parkwayy,providence health center,tx,waco,76712
104054,1501 burneet dr,brownwood regional medical center,tx,brownwood,76801
104055,608 avenuee b,ballinger memorial hospital,tx,ballinger,76821
104056,2008 nineroad,heart of texas memorial hospital,tx,brady,76825
104057,310 southpecos streeteet,coleman county medical center company,tx,coleman,76834
104058,614 eakerstreet,concho county hospital,tx,eden,76837
104059,349 reid rroad,kimble hospital,tx,junction,76849
104060,1636 hunteers glen roadoad,river crest hosp,tx,san angelo,76901
104061,120 east hharris avenuenue,shannon medical center,tx,san angelo,76903
104062,3501 knickkerbocker roadroad,san angelo community medical center,tx,san angelo,76904
104063,1300 n maiin avenue,reagan memorial hospital,tx,big lake,76932
104064,102 northus highway 277y 277,schleicher county medical center,tx,eldorado,76936
104065,308 hudspeeth,lillian m hudspeth memorial hospital,tx,sonora,76950
104066,1401 st jjoseph parkwaykway,st joseph medical center,tx,houston,77002
104067,1313 hermaann dr,park plaza hospital,tx,houston,77004
104068,1635  nortth loop westst,memorial hermann hospital system,tx,houston,77008
104069,12950 eastt freeway suite 100suite 100,ad hospital east llc,tx,houston,77015
104070,2800 macgrregor way,harris cty psychiatric ctr,tx,houston,77021
104071,921 gessneer,memorial hermann memorial city medical center,tx,houston,77024
104072,7200 cambrridge 11th floorh floor,chi st lukes health baylor college of medicine me,tx,houston,77030
104073,6565 fanniin,houston methodist hospital,tx,houston,77030
104074,6411 fanniin,memorial hermann texas medical center,tx,houston,77030
104075,6977 mainstreet,shriners hospitals for children,tx,houston,77030
104076,6621 fanniin street,texas childrens hosp,tx,houston,77030
104077,7401 southh main streeteet,texas orthopedic hospital,tx,houston,77030
104078,2525 hollyy hall,harris health system,tx,houston,77054
104079,7601 fanniin street,sun behavioral houston,tx,houston,77054
104080,7600 fanniin,womans hospital of texasthe,tx,houston,77054
104081,18300 st jjohn drive,houston methodist st john hospital,tx,nassau bay,77058
104082,9922 louettta rd,first texas hospital,tx,houston,77070
104083,18220 tombball parkwayay,houston methodist willowbrook hospital,tx,houston,77070
104084,20171 chassewood park drivek drive,st lukes hospital at the vintage,tx,houston,77070
104085,6500 hornwwood,west oaks hospital,tx,houston,77074
104086,2801 gessnner road,houston behavioral healthcare hospital llc,tx,houston,77080
104087,5314 dashwwood suite 200e 200,behavioral hospital of bellaire,tx,houston,77081
104088,12141 richhmond ave,hca houston healthcare west,tx,houston,77082
104089,2929 woodlland park drivedrive,healthbridge childrenss hospital of houston,tx,houston,77082
104090,17750 calii drive,cypress creek hospital,tx,houston,77090
104091,710 cypresss creek parkwayarkway,hca houston healthcare northwest,tx,houston,77090
104092,1120 cypreess station drn dr,intracare north hospital,tx,houston,77090
104093,16750 redoak drive,providence hospital of north houston llc,tx,houston,77090
104094,17080 redoak drive,tops surgical specialty hospital,tx,houston,77090
104095,510 w tidwwell,united memorial medical center,tx,houston,77091
104096,18500 katyy freeway,houston methodist west hospital,tx,houston,77094
104097,2006 southh loop 336 west suiwest suite 500,aspire behavioral health of conroe llc,tx,conroe,77304
104098,504 medicaal center blvdblvd,hca houston healthcare conroe,tx,conroe,77304
104099,22999 us hhwy 59,hca houston healthcare kingwood,tx,kingwood,77325
104100,1017 s traavis ave,cleveland emergency hospital,tx,cleveland,77327
104101,1475 fm 19960 bypass road eastroad east,humble surgical hospital llc,tx,humble,77338
104102,18951 memoorial northh,memorial hermann northeast hospital,tx,humble,77338
104103,2001 ladbrrook,kingwood pines hospital,tx,kingwood,77339
104104,300 kingwoood medical drivel drive,memorial hermann surgical hospital kingwood,tx,kingwood,77339
104105,110 memoriial hospital driveal drive,huntsville memorial hospital,tx,huntsville,77340
104106,1717 hwy 559 bypass,memorial medical center livingston,tx,livingston,77351
104107,605 holderrrieth,hca houston healthcare tomball,tx,tomball,77375
104108,24429 tombball parkway suiteay suite 100,memorial hermann first colony hospital,tx,tomball,77375
104109,9201 pineccroft,emil j freireich cancer center,tx,shenandoah,77380
104110,17200 st llukes way,st lukes the woodlands hospital,tx,the woodlands,77384
104111,17400 st llukes way,st lukes lakeside hospital,tx,the woodlands,77384
104112,15860 oldconroe roadad,woodland springs,tx,conroe,77384
104113,17201 inteerstate 45 southsouth,houston methodist the woodlands hospital,tx,the woodlands,77385
104114,6902 s peeek road,westpark springs llc,tx,richmond,77407
104115,104 7th sttreet,matagorda regional medical center,tx,bay city,77414
104116,44 n cummiings st,bellville st joseph health center,tx,bellville,77418
104117,16303 grannt road,lone star behavioral health cypress,tx,cypress,77429
104118,600 southaustin roadad,rice medical center,tx,eagle lake,77434
104119,303 sandycorner rd,el campo memorial hospital,tx,el campo,77437
104120,455 park ggrove lane,oceans behavioral hospital of katy,tx,katy,77450
104121,311 greenavenue,palacios community medical center,tx,palacios,77465
104122,1705 jacksson st,oakbend medical center,tx,richmond,77469
104123,1317 lakepointe parkwayrkway,st lukes sugar land hospital,tx,sugar land,77478
104124,16655 soutthwest freewayeway,houston methodist sugarland hospital,tx,sugar land,77479
104125,17500 w grrand parkway southay south,memorial hermann sugar land hospital,tx,sugar land,77479
104126,16906 soutthwest freewayeway,sugar land surgical hospital llp,tx,sugar land,77479
104127,305 northmckinney,sweeny community hospital,tx,sweeny,77480
104128,23900 katyy freeway,memorial hermann katy hospital,tx,katy,77494
104129,4000 spenccer hwy,hca houston healthcare southeast,tx,pasadena,77504
104130,4301 b vissta,surgery specialty hospitals of america se houston,tx,pasadena,77504
104131,4600 eastsam houston parkwayon parkway south,st lukes patients medical center,tx,pasadena,77505
104132,200 hospittal drive,bayside community hospital,tx,anahuac,77514
104133,1404 w bakker road,altus baytown hospital,tx,baytown,77521
104134,4401 garthh road,houston methodist san jacinto hospital,tx,baytown,77521
104135,815 markett street,shriners hospitals for children,tx,galveston,77550
104136,301 univerrsity boulevardevard,university of texas medical branch,tx,galveston,77555
104137,100 medicaal drive,brazosport regional health system,tx,lake jackson,77566
104138,1150 deverreux dr,devereux texas treatment network,tx,league city,77573
104139,1353 n traavis st,liberty dayton regional medical center,tx,liberty,77575
104140,11100 shaddow creek parkwayparkway,hca houston healthcare pearland,tx,pearland,77584
104141,500 medicaal center blvdblvd,hca houston healthcare clear lake,tx,webster,77598
104142,333 n texaas avenue,houston physicians hospital,tx,webster,77598
104143,2555 jimmyy johnson blvdblvd,the medical center of southeast texas,tx,port arthur,77640
104144,538 broadwway,riceland medical center,tx,winnie,77665
104145,3080 colleege street,baptist beaumont hospital,tx,beaumont,77701
104146,2830 caldeer avenue,christus southeast texas st elizabeth,tx,beaumont,77702
104147,3131 univeersity drive eastve east,physicians centrethe,tx,bryan,77802
104148,2801 francciscan dr,st joseph regional health center,tx,bryan,77802
104149,700 medicaal parkway,scott  white hospital brenham,tx,brenham,77833
104150,1101 woodsson drive,burleson st joseph health center,tx,caldwell,77836
104151,1604 rockprairie roadoad,college station medical center,tx,college station,77842
104152,700 scott white driverive,baylor scott  white medical center college stati,tx,college station,77845
104153,3550 normaand drive,rock prairie behavioral health,tx,college station,77845
104154,100 west ccross streetet,madison st joseph health center,tx,madisonville,77864
104155,210 judsonn st,grimes st joseph health center,tx,navasota,77868
104156,2701 hospiital drive,citizens medical center,tx,victoria,77901
104157,506 e sanantonio stt,detar healthcare system,tx,victoria,77902
104158,2550 n espplanade,cuero regional hospital,tx,cuero,77954
104159,1013 s wellls,jackson healthcare center,tx,edna,77957
104160,1400 northh texana streettreet,lavaca medical center,tx,hallettsville,77964
104161,815 n virgginia streetet,memorial medical center,tx,port lavaca,77979
104162,1200 carlramert driveive,yoakum community hospital,tx,yoakum,77995
104163,1905 hwy 997 east,methodist hospital south,tx,jourdanton,78026
104164,721 thompsson dr,kerrville state hosp,tx,kerrville,78028
104165,551 hill ccountry driveive,peterson regional medical center,tx,kerrville,78028
104166,10700 mcphherson roadd,doctors hospital of laredo,tx,laredo,78041
104167,1700 eastsaunders,laredo medical center,tx,laredo,78044
104168,200 s ih 335,frio regional hospital,tx,pearsall,78061
104169,1500 e houuston hwy,christus spohn hospital beeville,tx,beeville,78102
104170,499 10th sstreet,connally memorial medical center,tx,floresville,78114
104171,3349 s higghway 181,otto kaiser memorial hospital,tx,kenedy,78119
104172,555 creeksside xing,resolute health hospital,tx,new braunfels,78130
104173,1215 e couurt st,guadalupe regional medical center,tx,seguin,78155
104174,111 dallass street,baptist medical center,tx,san antonio,78205
104175,414 navarrro suite 600600,nix health care system,tx,san antonio,78205
104176,333 n santta rosa st,childrens hospital of san antonio,tx,san antonio,78207
104177,6711 s neww braunfels aves ave,san antonio state hospital,tx,san antonio,78223
104178,2303 se miilitary dr p o box 2p o box 23340,texas center for infectious disease,tx,san antonio,78223
104179,7400 barliite blvd,southwest general hospital,tx,san antonio,78224
104180,2827 babcoock road,christus santa rosa medical center,tx,san antonio,78229
104181,7700 floydd curl dr,methodist hospital,tx,san antonio,78229
104182,4502 mediccal dr,university health system,tx,san antonio,78229
104183,16088 sanpedro,baptist emergency hospital,tx,san antonio,78232
104184,3551 rogerr brooke driverive,brooke army medical center  ft sam houston,tx,fort sam houston,78234
104185,9522 huebnner road,foundation surgical hospital of san antonio,tx,san antonio,78240
104186,9150 huebnner rd suite 100te 100,methodist ambulatory surgery hospital nw,tx,san antonio,78240
104187,8550 huebnner road,san antonio behavioral healthcare hospital,tx,san antonio,78240
104188,5330 northh loop 1604 west4 west,legent orthopedic  spine,tx,san antonio,78249
104189,1139 e sonnterra blvd ste 535d ste 535,methodist stone oak hospital,tx,san antonio,78258
104190,18600 nortth hardy oak blvdak blvd,south texas spine and surgical hospital,tx,san antonio,78258
104191,17720 corpporate woods driveds drive,laurel ridge treatment center,tx,san antonio,78259
104192,2500 e maiin street,christus spohn hospital alice,tx,alice,78332
104193,1711 w wheeeler avenueue,care regional medical center,tx,aransas pass,78336
104194,1311 eastgeneral cavazos blvavazos blvd,christus spohn hospital kleberg,tx,kingsville,78363
104195,107 swiftstreet,refugio county memorial hospital,tx,refugio,78377
104196,600 elizabbeth streett,christus spohn hospital corpus christi,tx,corpus christi,78404
104197,3533 s alaameda box 65306530,driscoll childrens hospital,tx,corpus christi,78411
104198,6629 woodrridge road,corpus christi medical centerthe,tx,corpus christi,78414
104199,6130 parkwway drive,south texas surgical hospital,tx,corpus christi,78414
104200,101 e ridgge rd,rio grande regional hospital,tx,mcallen,78503
104201,1040 w jeffferson st,valley baptist medical center brownsville,tx,brownsville,78520
104202,100 a altoon gloor,valley regional medical center,tx,brownsville,78526
104203,2302 corneerstone boulevardulevard,cornerstone regional hospital,tx,edinburg,78539
104204,5501 southh mccoll,doctors hospital at renaissance,tx,edinburg,78539
104205,1102 w treenton road,south texas health system,tx,edinburg,78539
104206,5501 southh expressway 77ay 77,harlingen medical center,tx,harlingen,78550
104207,613 victorria lane,palms behavioral health,tx,harlingen,78550
104208,1401 rangeerville roadad,rio grande state center,tx,harlingen,78550
104209,2101 peasee st,vhs harlingen hospital company llc,tx,harlingen,78550
104210,900 southbryan roadd,mission regional medical center,tx,mission,78572
104211,128  n fmrd 3167,starr county memorial hospital,tx,rio grande city,78582
104212,1401 easteight streeteet,knapp medical center,tx,weslaco,78596
104213,highway 2881 south,seton highland lakes,tx,burnet,78611
104214,900 east wwhitestone blvdblvd,baylor scott  white emergency medical center at c,tx,cedar park,78613
104215,1401 mediccal parkwayy,cedar park regional medical center,tx,cedar park,78613
104216,1020 southh state highway 16ghway 16,hill country memorial hospital inc,tx,fredericksburg,78624
104217,3101 s ausstin avenuee,georgetown behavioral health institute,tx,georgetown,78626
104218,700 southeeast inner looploop,rock springs,tx,georgetown,78626
104219,1110 northh sarah dewitt drivewitt drive,memorial hospital,tx,gonzales,78629
104220,6001 kylepkwy,seton medical center hays,tx,kyle,78640
104221,200 w olliie,baylor scott  white medical center  llano,tx,llano,78643
104222,130 hays sstreet,ascension seton edgar b davis,tx,luling,78648
104223,810 w highhway 71,baylor scott  white medical center  marble falls,tx,marble falls,78654
104224,2600 eastpflugerville  parkille  parkway,baylor scott  white medical center  pflugerville,tx,pflugerville,78660
104225,300 univerrsity blvd,scott  white hospitalround rock,tx,round rock,78664
104226,201 setonparkway,seton medical center williamson,tx,round rock,78664
104227,1301 wondeer world driverive,central texas medical center,tx,san marcos,78666
104228,1106 n ih35,oceans behavioral hospital of san marcos,tx,san marcos,78666
104229,2400 roundd rock ave,round rock medical center,tx,round rock,78681
104230,601 e 15thh street,dell seton  med center at the university of tx,tx,austin,78701
104231,901 west bben white blvdblvd,st davids south austin medical center,tx,austin,78704
104232,1201 w 38tth st,ascension seton medical center austin,tx,austin,78705
104233,1025 east32nd streetet,austin lakes hospital,tx,austin,78705
104234,919 e 32ndd st,st davids medical center,tx,austin,78705
104235,4900 muelller blvd,dell childrens medical center of central texas,tx,austin,78723
104236,6818 austiin ctr blvd suite 10d suite 100,northwest hills surgical hospital,tx,austin,78731
104237,3501 millss ave,seton shoal creek hospital,tx,austin,78731
104238,7900 fm 18826,seton southwest hospital,tx,austin,78737
104239,1407 weststassney lanelane,austin oaks hospital,tx,austin,78745
104240,1106  westt dittmar rdrd,texas star recovery,tx,austin,78745
104241,3003 bee ccaves road,arise austin medical center,tx,austin,78746
104242,5656 bee ccaves road suite m suite m302,the hospital at westlake medical center,tx,austin,78746
104243,4110 guadaalupe,austin state hospital,tx,austin,78751
104244,8402 crosss park driveve,cross creek hospital,tx,austin,78754
104245,12221 mopaac expressway northway north,north austin medical center,tx,austin,78758
104246,11113 reseearch boulevardevard,ascension seton northwest,tx,austin,78759
104247,1025 garneer field roadoad,uvalde memorial hospital,tx,uvalde,78801
104248,704 hospittal drive,dimmit regional hospital,tx,carrizo springs,78834
104249,801 bedelll ave,val verde regional medical center,tx,del rio,78840
104250,3333 n fosster maldonado blvdnado blvd,fort duncan medical center,tx,eagle pass,78852
104251,3100 avenuue e,medina regional hospital,tx,hondo,78861
104252,110 shultdr,columbus community hospital,tx,columbus,78934
104253,one st marrks place,st marks medical center,tx,la grange,78945
104254,1201 hillrd,seton smithville regional hospital,tx,smithville,78957
104255,100 medicaal drive,golden plains community hospital,tx,borger,79007
104256,1020 s 4thh st,hemphill county hospital,tx,canadian,79014
104257,1411 denveer avenue,coon memorial hospital,tx,dalhart,79022
104258,310 west hhalsell streetreet,plains memorial hospital,tx,dimmitt,79027
104259,224 e secoond street,memorial hospital,tx,dumas,79029
104260,1307 cleveeland streetet,parmer county community hospital,tx,friona,79035
104261,801 east tthird,hereford regional medical center,tx,hereford,79045
104262,1 medicalplaza,pampa regional medical center,tx,pampa,79065
104263,3101 garreett drive,ochiltree general hospital,tx,perryton,79070
104264,2601 dimmiitt road suite 400suite 400,allegiance behavioral health center of plainview,tx,plainview,79072
104265,2601 dimmiitt rd,covenant hospital plainview,tx,plainview,79072
104266,1000 southh main streeteet,shamrock general hospital,tx,shamrock,79079
104267,707 rolandd st,hansford county hospital,tx,spearman,79081
104268,539 southeeast 2nd,swisher memorial hospital,tx,tulia,79088
104269,1013 15thst,collingsworth general hospital,tx,wellington,79095
104270,901 s sweeetwater,parkview hospital,tx,wheeler,79096
104271,1600 wallaace blvd,baptist st anthonys hospital,tx,amarillo,79106
104272,1501 s  cooulter st,northwest texas hospital,tx,amarillo,79106
104273,6819 plumcreek,quail creek surgical hospital,tx,amarillo,79124
104274,hwy 83 norrth,childress regional medical center,tx,childress,79201
104275,303 avenuee i,chillicothe hospital district,tx,chillicothe,79225
104276,320 northmain,w j mangold memorial hospital,tx,lockney,79241
104277,402 mercerr st,hardeman county memorial hospital,tx,quanah,79252
104278,705 east ffelt streett,brownfield regional medical center,tx,brownfield,79316
104279,710 west mmain streett,crosbyton clinic hospital,tx,crosbyton,79322
104280,412 mustanng avenue,yoakum county hospital,tx,denver city,79323
104281,2200 n bryyan ave,medical arts hospital,tx,lamesa,79331
104282,1900 colleege ave,covenant hospital levelland,tx,levelland,79336
104283,1500 s sunnset,lamb healthcare center,tx,littlefield,79339
104284,205 e grannt street,cochran memorial hospital,tx,morton,79346
104285,708 s 1stst,muleshoe area medical center,tx,muleshoe,79347
104286,209 northwwest 8th streettreet,memorial hospital,tx,seminole,79360
104287,2600 lockwwood streett,lynn county hospital district,tx,tahoka,79373
104288,1950 aspenn avenue,sunrise canyon hospital,tx,lubbock,79408
104289,4015 22ndplace,covenant childrens hospital,tx,lubbock,79410
104290,3615 19thstreet,covenant medical center,tx,lubbock,79410
104291,2412 50thst,grace medical center,tx,lubbock,79412
104292,602 indianna avenue,university medical center,tx,lubbock,79415
104293,4810 northh loop 289,lubbock heart hospital lp,tx,lubbock,79416
104294,101 avenuee j,anson general hospital,tx,anson,79501
104295,821 northbroadway,stonewall memorial hospital,tx,aspermont,79502
104296,997 west ii20,mitchell county hospital district,tx,colorado city,79512
104297,632 n w seecond streetet,hamlin memorial hospital,tx,hamlin,79520
104298,1 north avvenue n  po box 1117o box 1117,haskell memorial hospital,tx,haskell,79521
104299,701 southeeast  5th streetstreet,knox county hospital,tx,knox city,79529
104300,774 statehighway 70 n0 n,fisher county hospital district,tx,rotan,79546
104301,1700 cogdeell blvd,cogdell memorial hospital,tx,snyder,79549
104302,200 e arizzona,rolling plains memorial hospital,tx,sweetwater,79556
104303,7821 easthighway 15353,north runnels hospital,tx,winters,79567
104304,1900 pine,hendrick medical center,tx,abilene,79601
104305,6250 hwy 88384,abilene regional medical center,tx,abilene,79606
104306,6401 direcctors parkwayway,oceans behavioral hospital of abilene,tx,abilene,79606
104307,400 rosaliind redfern grover pn grover parkway,midland memorial hospital,tx,midland,79701
104308,3300 s fm1788,oceans behavioral  hospital of permian basin,tx,midland,79706
104309,720 hospittal drive,permian regional medical center andrews county ho,tx,andrews,79714
104310,1601 w 11tth place,scenic mountain medical center a steward family h,tx,big spring,79720
104311,1901 northh highway 8787,big spring state hospital,tx,big spring,79721
104312,1310 s alfford st,crane county hospital district,tx,crane,79731
104313,387 west ii 10,pecos county memorial hospital,tx,fort stockton,79735
104314,600 highwaay 349 northth,iraan general hospital,tx,iraan,79744
104315,821 jeffeee drive,winkler county memorial hospital,tx,kermit,79745
104316,2500 hwy 3305 south,mccamey hospital,tx,mccamey,79752
104317,406 southgary st,ward memorial hospital,tx,monahans,79756
104318,500 w 4thstreet,medical center hospital,tx,odessa,79761
104319,520 e 6thstreet,odessa regional medical center,tx,odessa,79761
104320,2323 texass street,reeves county hospital district,tx,pecos,79772
104321,1611 spur576,rankin hospital medical clinic,tx,rankin,79778
104322,600 e inteerstate 20     po bopo box 640,martin county hospital district,tx,stanton,79782
104323,2600 highwway 118 northrth,big bend regional medical center,tx,alpine,79830
104324,eisenhowerr road and fm 2185fm 2185,culberson hospital,tx,van horn,79855
104325,1900 denveer ave,el paso behavioral health system,tx,el paso,79902
104326,1221 n cottton st 3rd floord floor,el paso ltac hosptial,tx,el paso,79902
104327,1801 northh oregon streettreet,las palmas medical center,tx,el paso,79902
104328,1625 mediccal center drdr,sierra medical center,tx,el paso,79902
104329,2001 n oreegon st,the hospitals of providence memorial campus,tx,el paso,79902
104330,4845 alameeda avenue,el paso childrens hospital,tx,el paso,79905
104331,4615 alameeda avenue,el paso psychiatric center,tx,el paso,79905
104332,4815 alameeda ave,university medical center of el paso,tx,el paso,79905
104333,2000 transsmountain rdrd,the hospitals of providence transmountain campus,tx,el paso,79911
104334,5005 n piiedras st,william beaumont amg ft bliss,tx,el paso,79920
104335,13600 horiizon street suite 1t suite 100,the hospitals of providence horizon city campus,tx,horizon city,79928
104336,1416 georgge dieter,foundation surgical hospital of el paso,tx,el paso,79936
104337,3280 joe bbattle blvdd,the hospitals of providence east campus,tx,el paso,79938
104338,1501 s pottomac st,medical center of aurora the,co,aurora,80012
104339,11820 desttination driverive,uchealth broomfield hospital,co,broomfield,80021
104340,14300 orchhard pkwy,st anthony north health campus,co,westminster,80023
104341,200 exemplla circle,good samaritan medical center,co,lafayette,80026
104342,2255 s 88tth st,centennial peaks hospital,co,louisville,80027
104343,100 healthh park dr,centura healthavista adventist hospital,co,louisville,80027
104344,8300 w 38tth ave,lutheran medical center,co,wheat ridge,80033
104345,13123 e 166th ave,childrens hospital colorado,co,aurora,80045
104346,12605 e 166th ave,university of colorado hospital authority,co,aurora,80045
104347,2350 meadoows blvd,castle rock adventist hospital,co,castle rock,80109
104348,8835 ameriican way,denver springs,co,englewood,80112
104349,501 e hamppden ave,swedish medical center,co,englewood,80113
104350,7700 s brooadway,centura healthlittleton adventist hospital,co,littleton,80122
104351,10101 ridggegate parkwaykway,sky ridge medical center,co,lone tree,80124
104352,8565 s popplar way,highlands behavioral health system,co,littleton,80130
104353,9395 crownn crest blvdvd,parker adventist hospital,co,parker,80138
104354,777 bannocck st,denver health medical center,co,denver,80204
104355,1400 jacksson st,national jewish health,co,denver,80206
104356,2525 s dowwning st,centura healthporter adventist hospital,co,denver,80210
104357,1719 e 19tth ave,presbyterian st lukes medical center,co,denver,80218
104358,1375 e 19tth ave,saint joseph hospital,co,denver,80218
104359,4567 e 9thh ave,rose medical center,co,denver,80220
104360,11600 westt 2nd plc,centura healthst anthony hospital,co,lakewood,80228
104361,11650 westt 2nd placee,orthocolorado hospital at st anthony med campus,co,lakewood,80228
104362,9191 grantt st,north suburban medical center,co,thornton,80229
104363,3520 w oxfford ave,colorado mental health institute at ft logan,co,denver,80236
104364,4747 arapaahoe avenuee,foothills hospital,co,boulder,80303
104365,340 peak oone drive,st anthony summit medical center,co,frisco,80443
104366,214 4th stt,middle park medical center,co,kremmling,80459
104367,822 w 4thst,st vincent general hospital district,co,leadville,80461
104368,1024 centrral park drr,uchealth yampa valley medical center,co,steamboat springs,80487
104369,1950 mounttain view aveave,longmont united hospital,co,longmont,80501
104370,1750 eastken pratt boulevardboulevard,longs peak hospital,co,longmont,80504
104371,555 prospeect ave,estes park medical center,co,estes park,80517
104372,1024 s lemmay ave,poudre valley hospital,co,fort collins,80524
104373,4700 ladymoon drivee,banner fort collins medical center,co,fort collins,80528
104374,4770 larimmer pkwy,clear view behavioral health,co,johnstown,80534
104375,2000 boisee ave,mckee medical center,co,loveland,80538
104376,2500 rockyy mountain avenueavenue,medical center of the rockies,co,loveland,80538
104377,1600 prairrie center pkwypkwy,platte valley medical center,co,brighton,80601
104378,1801  16tth st,north colorado medical center,co,greeley,80631
104379,1000 lincooln st,colorado plains medical center,co,fort morgan,80701
104380,2400 westedison streetreet,east morgan county hospital,co,brush,80723
104381,235 w flettcher st,haxtun hospital district,co,haxtun,80731
104382,1001 e johhnson st,melissa memorial hospital,co,holyoke,80734
104383,900 cedarst,sedgwick county memorial hospital,co,julesburg,80737
104384,615 fairhuurst st,sterling regional medcenter,co,sterling,80751
104385,1017 west7th st,wray community district hospital,co,wray,80758
104386,1000 w 8thh ave,yuma district hospital,co,yuma,80759
104387,286 16th sst,kit carson county memorial hospital,co,burlington,80807
104388,602 n 6thw st,keefe memorial hospital,co,cheyenne wells,80810
104389,111 6th stt,lincoln community hospital,co,hugo,80821
104390,16420 westt highway 2424,uchealth pikes peak regional hospital,co,woodland park,80863
104391,2135 southhgate rd,cedar springs behavioral health system,co,colorado springs,80906
104392,2222 northh nevada aveve,centura healthpenrosest francis health services,co,colorado springs,80907
104393,1400 e bouulder st,university colo health memorial hospital central,co,colorado springs,80909
104394,fort carsoon meddac 1650 cochr1650 cochrane circle fort carson,evans ach ft carson,co,fort carson,80913
104395,5623 pulpiit peak viewew,uchealth grandview hospital,co,colorado springs,80918
104396,7353 sisteers grove,peak view behavioral health,co,colorado springs,80923
104397,1600 w 24tth st,colorado mental health institute at pueblopsych,co,pueblo,81003
104398,400 w 16thh st,parkview medical center inc,co,pueblo,81003
104399,1008 minneequa ave,centura healthst mary corwin medical center,co,pueblo,81004
104400,1208 lutheer street,weisbrod memorial county hospital,co,eads,81036
104401,1100 carsoon avenue,arkansas valley regional medical center,co,la junta,81050
104402,401 kendalll dr,prowers medical center,co,lamar,81052
104403,373 e tentth ave,southeast colorado hospital,co,springfield,81073
104404,410 benediicta ave,mt san rafael hospital,co,trinidad,81082
104405,23500 us hhwy 160,spanish peaks regional health center,co,walsenburg,81089
104406,106 blancaa ave,san luis valley health,co,alamosa,81101
104407,310 countyy rd 14,rio grande hospital,co,del norte,81132
104408,19021 us hhighway 2855,san luis valley health conejos county hospital,co,la jara,81140
104409,95 south ppagosa boulevardlevard,pagosa springs medical center,co,pagosa springs,81147
104410,1000 rushdr,heart of the rockies regional medical center,co,salida,81201
104411,1338 phayavenue,centura healthst thomas more hospital,co,canon city,81212
104412,711 northtaylor streetreet,gunnison valley hospital,co,gunnison,81230
104413,575 riverggate ln,animas surgical hospital llc,co,durango,81301
104414,1010 threee springs blvdblvd,mercy regional medical center,co,durango,81301
104415,1311 n milldred rd,southwest memorial hospital,co,cortez,81321
104416,800 s 3rdst,montrose memorial hospital,co,montrose,81401
104417,1501 e 3rdd st,delta county memorial hospital,co,delta,81416
104418,515 28 344 rd,west springs hospital,co,grand junction,81501
104419,2635 n 7thh st,st marys medical center,co,grand junction,81502
104420,2351 g rroad,community hospital,co,grand junction,81505
104421,300 w ottlley ave,colorado canyons hospital and medical center,co,fruita,81521
104422,1906 blakee ave,valley view hospital association,co,glenwood springs,81601
104423,401 castlee creek rd,aspen valley hospital,co,aspen,81611
104424,750 hospittal loop,memorial hospital the,co,craig,81625
104425,100 pioneeers medical center dl center dr,pioneers medical center,co,meeker,81641
104426,225 eaglecrest st,rangely district hospital,co,rangely,81648
104427,501 airporrt rd,grand river medical center,co,rifle,81650
104428,181 w meaddow dr,vail health hospital,co,vail,81657
104429,214 east 223rd streett,cheyenne regional medical center,wy,cheyenne,82001
104430,255 n 30thh,ivinson memorial hospital,wy,laramie,82072
104431,201 14th sstreet,platte county memorial hospital,wy,wheatland,82201
104432,921 southballancee avenueavenue,niobrara health  life center,wy,lusk,82225
104433,2000 campbbell drive,community hospital,wy,torrington,82240
104434,2221 westelm streett,memorial hospital of carbon county,wy,rawlins,82301
104435,400 south15th streetet,washakie medical center,wy,worland,82401
104436,388 us higghway 20 southouth,south big horn county critical access hospital,wy,basin,82410
104437,707 sheriddan avenue,cody regional health,wy,cody,82414
104438,1115 lane12,north big horn hospital district,wy,lovell,82431
104439,777 avenuee h,powell valley hospital,wy,powell,82435
104440,150 east aarapahoe,hot springs county memorial hospital,wy,thermopolis,82443
104441,2100 w sunnset dr,sagewest health care,wy,riverton,82501
104442,1233 east2nd st,wyoming medical center,wy,casper,82601
104443,6350 e 2ndd street,summit medical center,wy,casper,82609
104444,2521 east15th streetet,wyoming behavioral institute,wy,casper,82609
104445,111 south5th streett,memorial hospital of converse county,wy,douglas,82633
104446,1124 washiington boulevardlevard,weston county health services,wy,newcastle,82701
104447,501 southburma avenuenue,campbell county memorial hospital,wy,gillette,82716
104448,713 oak sttreet,crook county hospital,wy,sundance,82729
104449,1401 w 5thh st,sheridan memorial hospital,wy,sheridan,82801
104450,497 west llott,johnson county healthcare center,wy,buffalo,82834
104451,4401 colleege drive,aspen mountain medical center,wy,rock springs,82901
104452,1200 colleege drive,memorial hospital sweetwater county,wy,rock springs,82901
104453,190 arrowhhead dr,evanston regional hospital,wy,evanston,82930
104454,831 hwy 1550 south,wyoming state hospital,wy,evanston,82931
104455,625 east bbroadway,st johns medical center,wy,jackson,83001
104456,711 onyx sstreet,south lincoln medical center  cah,wy,kemmerer,83101
104457,901 adamsstreet,star valley medical center,wy,afton,83110
104458,777 hospittal way,portneuf medical center,id,pocatello,83201
104459,510 roosevvelt streett,power county hospital district,id,american falls,83211
104460,551 highlaand drive,lost rivers medical center,id,arco,83213
104461,98 poplarstreet,bingham memorial hospital,id,blackfoot,83221
104462,350 northmeridian streetstreet,grove creek medical center,id,blackfoot,83221
104463,700 east aalice streetet,state hospital south,id,blackfoot,83221
104464,150 north200 west,nell j redfield memorial hospital,id,malad,83252
104465,164 southfifth streeteet,bear lake memorial hospital,id,montpelier,83254
104466,44 north ffirst east,franklin county medical center,id,preston,83263
104467,300 south3rd west,caribou memorial hospital,id,soda springs,83276
104468,801 pole lline road westwest,st lukes magic valley rmc,id,twin falls,83301
104469,1501 hilannd avenue,cassia regional hospital,id,burley,83318
104470,267 northcanyon dr,north canyon medical center,id,gooding,83330
104471,709 northlincoln avenuevenue,st lukes jerome,id,jerome,83338
104472,100 hospittal drive,st lukes wood river medical center,id,ketchum,83340
104473,1224 8th sstreet,minidoka memorial hospital,id,rupert,83350
104474,3100 channning way,eastern idaho regional medical center,id,idaho falls,83404
104475,2325 coronnado streett,mountain view hospital,id,idaho falls,83404
104476,120 east hhoward ave,teton valley hospital,id,driggs,83422
104477,450 east mmain streett,madison memorial hospital,id,rexburg,83440
104478,203 southdaisy streeteet,steele memorial medical center,id,salmon,83467
104479,415 sixthstreet,st joseph regional medical center,id,lewiston,83501
104480,701 lewistton st,st marys hospital,id,cottonwood,83522
104481,607 w mainn street,syringa general hospital,id,grangeville,83530
104482,301 cedarstreet,clearwater valley hospital  clinics,id,orofino,83544
104483,1717 arlinngton streetet,west valley medical center,id,caldwell,83605
104484,402 lake ccascade parkwayrkway,cascade medical center,id,cascade,83611
104485,1202 eastlocust streetreet,valor health,id,emmett,83617
104486,1000 statee street,st lukes mccall,id,burgdorf,83638
104487,895 north6th east,st lukes elmore medical center,id,mountain home,83647
104488,645 east 55th street,weiser memorial hospital,id,weiser,83672
104489,4300 e flaamingo ave,saint alphonsus medical center  nampa,id,nampa,83687
104490,9850 w stlukes drive ste 250ve ste 250,st lukes nampa medical center,id,nampa,83687
104491,303 northallumbaugh streeth street,intermountain hospital,id,boise,83704
104492,8050 westnorthview streetstreet,lifeways hospital,id,boise,83704
104493,8800 westemerald streettreet,treasure valley hospital,id,boise,83704
104494,1055 northh curtis roadoad,saint alphonsus regional medical center,id,boise,83706
104495,190 east bbannock streetreet,st lukes regional medical center,id,boise,83712
104496,6640 kanikksu street,boundary community hospital,id,bonners ferry,83805
104497,2003 kooteenai health wayh way,kootenai health,id,coeur dalene,83814
104498,25 jacobsgulch roadd,shoshone medical center,id,kellogg,83837
104499,700 southmain streetet,gritman medical center,id,moscow,83843
104500,1593 eastpolston avenuevenue,northwest specialty hospital,id,post falls,83854
104501,229 south7th streett,benewah community hospital,id,st maries,83861
104502,520 norththird avenuenue,bonner general hospital,id,sandpoint,83864
104503,170 north1100 east,american fork hospital,ut,american fork,84003
104504,630 east mmedical driveive,lakeview hospital,ut,bountiful,84010
104505,11925 soutth state streettreet,lone peak hospital,ut,draper,84020
104506,1485 southh highway 4040,heber valley hospital,ut,heber city,84032
104507,1600 westantelope drivedrive,davis hospital and medical center,ut,layton,84041
104508,201 west llayton parkwaykway,layton hospital,ut,layton,84041
104509,7309 southh 180 west,highland ridge hospital,ut,midvale,84047
104510,331 north400 west,orem community hospital,ut,orem,84057
104511,750 west 8800 north,timpanogos regional hospital,ut,orem,84057
104512,900 roundvalley driveive,park city hospital,ut,park city,84060
104513,3741 west12600 southth,riverton hospital,ut,riverton,84065
104514,250 west 3300 north,uintah basin medical center,ut,roosevelt,84066
104515,2055 northh main streeteet,mountain west medical center,ut,tooele,84074
104516,150 west 1100 north,ashley regional medical center,ut,vernal,84078
104517,3580 west9000 southh,jordan valley medical center,ut,west jordan,84088
104518,9660 southh 1300 eastt,alta view hospital,ut,sandy,84094
104519,1350 east750 north,provo canyon behavioral hospital,ut,orem,84097
104520,1050 eastsouth templeple,salt lake regional medical center,ut,salt lake city,84102
104521,1275 eastfairfax roadoad,shriners hospitals for children  salt lake city,ut,salt lake city,84103
104522,3802 southh 700 east,salt lake behavioral health,ut,salt lake city,84106
104523,5121 southh cottonwood streetod street,intermountain medical center,ut,murray,84107
104524,5848 southh 300 east,the orthopedic specialty hospital,ut,murray,84107
104525,100 northmario capecchi drivecchi drive,primary childrens hospital,ut,salt lake city,84113
104526,451 east bbishop federal laneeral lane,marian center,ut,salt lake city,84115
104527,1200 east3900 southh,st marks hospital,ut,salt lake city,84124
104528,50 north mmedical driveive,university of utah hospitals and clinics,ut,salt lake city,84132
104529,8th avenuee and c streetreet,lds hospital,ut,salt lake city,84143
104530,950 southmedical driverive,brigham city community hospital,ut,brigham city,84302
104531,905 north1000 west,bear river valley hospital,ut,tremonton,84337
104532,2380 northh 400 east,cache valley  hospital,ut,north logan,84341
104533,500 east 11400 north,logan regional hospital,ut,logan,84341
104534,4401 harriison boulevardvard,mckay dee hospital,ut,ogden,84403
104535,5475 southh 500 east,ogden regional medical center,ut,ogden,84405
104536,300 northhospital drivedrive,castleview hospital,ut,price,84501
104537,802 south200 west,blue mountain hospital,ut,blanding,84511
104538,450 west wwilliams wayay,moab regional hospital,ut,moab,84532
104539,380 west 1100 north,san juan hospital,ut,monticello,84535
104540,1034 northh 500 west,utah valley hospital,ut,provo,84604
104541,1300 eastcenter streetreet,utah state hospital,ut,provo,84605
104542,126 southwhite sage avenuee avenue,delta community hospital,ut,delta,84624
104543,674 southhighway 999,fillmore community hospital,ut,fillmore,84631
104544,64 east 1000 north,gunnison valley hospital,ut,gunnison,84634
104545,1100 southh medical drivedrive,sanpete valley hospital  cah,ut,mount pleasant,84647
104546,48 west 15500 north,central valley medical center  cah,ut,nephi,84648
104547,1000 east100 north,mountain view hospital,ut,payson,84651
104548,1000 northh main streeteet,sevier valley hospital,ut,richfield,84701
104549,1109 northh 100 west,beaver valley hospital,ut,beaver,84713
104550,1303 northh main streeteet,cedar city hospital,ut,cedar city,84721
104551,355 northmain streetet,kane county hospital,ut,kanab,84741
104552,850 northmain streetet,milford valley memorial hospital,ut,milford,84751
104553,200 north400 east,garfield memorial hospital,ut,panguitch,84759
104554,1380 eastmedical center driventer drive,dixie regional medical center,ut,st george,84790
104555,1111 eastmcdowell roadroad,banner  university medical center phoenix,az,phoenix,85006
104556,1800 eastvan buren streetstreet,st lukes medical center,az,phoenix,85006
104557,1800 eastvan buren,st lukes behavioral hospital lp,az,phoenix,85006
104558,1201 southh 7th avenue suiteue suite 200,haven behavioral hospital of phoenix,az,phoenix,85007
104559,2500 eastvan buren streetstreet,arizona state hospital,az,phoenix,85008
104560,750 north40th streetet,oasis hospital,az,phoenix,85008
104561,2601 eastroosevelt streetstreet,valleywise health medical center,az,phoenix,85008
104562,350 west tthomas roadd,st josephs hospital and medical center,az,phoenix,85013
104563,2000 westbethany home roadome road,abrazo central campus,az,phoenix,85015
104564,6501 northh 19th avenuenue,core institute specialty hospital the,az,phoenix,85015
104565,1919 eastthomas roadad,phoenix childrens hospital,az,phoenix,85016
104566,4212 northh 16th streeteet,phoenix indian medical center,az,phoenix,85016
104567,3550 eastpinchot avenuevenue,valley hospital,az,phoenix,85018
104568,250 east ddunlap avenuenue,john c lincoln north mountain hospital,az,phoenix,85020
104569,19829 nortth 27th avenueenue,honorhealth deer valley medical center,az,phoenix,85027
104570,2545 westquail avenuenue,quail run behavioral health,az,phoenix,85027
104571,3929 eastbell road,abrazo scottsdale campus,az,phoenix,85032
104572,9201 westthomas roadad,banner estrella medical center,az,phoenix,85037
104573,5777 eastmayo boulevardevard,mayo clinic hospital,az,phoenix,85054
104574,2050 westsouthern avenueavenue,banner goldfield medical center,az,apache junction,85120
104575,1800 eastflorence boulevardboulevard,banner casa grande medical center,az,casa grande,85122
104576,37000 nortth gantzel roadroad,banner ironwood medical center,az,queen creek,85140
104577,483 west sseed farm roadroad,huhu kam memorial hospital,az,sacaton,85147
104578,1400 southh  dobson roadroad,banner desert medical center,az,mesa,85202
104579,4620 eastbaseline roadroad,arizona spine and joint hospital,az,mesa,85206
104580,6644 eastbaywood avenuevenue,banner baywood medical center,az,mesa,85206
104581,6750 eastbaywood avenuevenue,banner heart hospital,az,mesa,85206
104582,1301 southh crismon roadroad,mountain vista medical center lp,az,mesa,85209
104583,610 west jjerome avenuenue,hacienda childrens hospital inc,az,mesa,85210
104584,9130 eastelliot roadad,dignity health arizona general hospital,az,mesa,85212
104585,2905 westwarner road suitead suite 1,arizona specialty hospital,az,chandler,85224
104586,1955 westfrye road,chandler regional medical center,az,chandler,85224
104587,2190 northh grace boulevardulevard,oasis behavioral health hospital,az,chandler,85225
104588,1900 northh higley roadoad,banner gateway medical center,az,gilbert,85234
104589,7575 eastearll driveve,banner behavioral health hospital,az,scottsdale,85251
104590,7400 eastosborn roadad,scottsdale osborn medical center,az,scottsdale,85251
104591,7400 eastthompson peak parkwpeak parkway,scottsdale thompson peak medical center,az,scottsdale,85255
104592,9003 eastshea boulevardevard,scottsdale shea medical center,az,scottsdale,85260
104593,6350 southh maple avenueenue,aurora behavioral healthcaretempe,az,tempe,85283
104594,3555 southh val vista drivea drive,mercy gilbert medical center,az,gilbert,85297
104595,6015 westpeoria  avenuevenue,aurora behavioral health system,az,glendale,85302
104596,5555 westthunderbird roadrd road,banner thunderbird medical center,az,glendale,85306
104597,18701 nortth 67th avenueenue,abrazo arrowhead campus,az,glendale,85308
104598,14200 westt celebrate life waye life way,western regional medical center,az,goodyear,85338
104599,7171 southh 51st avenuenue,dignity health  arizona general hospital,az,laveen,85339
104600,1200 westmohave roadad,la paz regional hospital,az,parker,85344
104601,12033 agenncy road,parker indian health center,az,parker,85344
104602,10401 westt thunderbird boulevird boulevard,banner boswell medical center,az,sun city,85351
104603,2400 southh avenue a,yuma regional medical center,az,yuma,85364
104604,14502 westt meeker boulevardoulevard,banner del e webb medical center,az,sun city west,85375
104605,520 rose llane,wickenburg community hospital,az,wickenburg,85390
104606,10550 westt mcdowell roadroad,copper springs hospital llc,az,avondale,85392
104607,13677 westt mcdowell roadroad,abrazo west campus,az,goodyear,85395
104608,5880 southh hospital drivedrive,cobre valley regional medical center,az,globe,85501
104609,807 southponderosa drivedrive,banner payson medical center,az,payson,85541
104610,103 mediciine way roadad,san carlos apache healthcare,az,peridot,85542
104611,1600 southh 20th avenuenue,mt graham regional medical center,az,safford,85546
104612,450 southocotillo avenueavenue,benson hospital,az,benson,85602
104613,101 cole aavenue,copper queen community hospital,az,bisbee,85603
104614,4455 southh i19 frontage roadntage road,santa cruz valley regional hospital,az,green valley,85614
104615,1171 westtarget range roadnge road,holy cross hospital,az,nogales,85621
104616,highway 866 at topawa roadwa road,sells hospital,az,sells,85634
104617,5700 easthighway 900,canyon vista medical center,az,sierra vista,85635
104618,901 west rrex allen drivedrive,northern cochise community hospital inc,az,willcox,85643
104619,6050 northh corona roadoad,sonora behavioral health hospital,az,tucson,85704
104620,350 northwilmot roadad,st josephs hospital,az,tucson,85711
104621,1400 northh wilmot roadoad,cornerstone behavioral health el dorado,az,tucson,85712
104622,2695 northh craycroft roadt road,palo verde behavioral health,az,tucson,85712
104623,5301 eastgrant roadd,tucson medical center,az,tucson,85712
104624,2800 eastajo way,banneruniversity medical center south campus,az,tucson,85713
104625,1625 northh campbell avenueavenue,banner  university medical center tucson campus,az,tucson,85724
104626,6200 northh la cholla boulevara boulevard,northwest medical center,az,tucson,85741
104627,1601 westst marys roadroad,st marys hospital,az,tucson,85745
104628,1551 easttangerine roadroad,oro valley hospital,az,oro valley,85755
104629,2200 eastshow low lake roadlake road,summit healthcare regional medical center,az,show low,85901
104630,1920 westcommerce drivedrive,changepoint psychiatric hospital,az,lakeside,85929
104631,118 southmountain avenueavenue,white mountain regional medical center,az,springerville,85938
104632,200 west hhospital drive  porive  po box 860,whiteriver phs indian hospital,az,whiteriver,85941
104633,1200 northh beaver streettreet,flagstaff medical center,az,flagstaff,86001
104634,2187 northh vickey streettreet,guidance center the,az,flagstaff,86004
104635,501 northnavajo driveive,page hospital,az,page,86040
104636,highway 2664 milepost 388st 388,hopi health care center,az,polacca,86042
104637,po box 6000,tuba city regional health care corporation,az,tuba city,86045
104638,1501 northh williamson avenueon avenue,little colorado medical center,az,winslow,86047
104639,1003 willoow creek roadoad,yavapai regional medical center,az,prescott,86301
104640,3347 northh windsong drivedrive,windhaven psychiatric hospital,az,prescott valley,86314
104641,269 southcandy lanee,verde valley medical center,az,cottonwood,86326
104642,101 civiccenter lanene,havasu regional medical center,az,lake havasu city,86403
104643,3269 stockkton hill roadroad,kingman regional medical center,az,kingman,86409
104644,5330 southh highway 9595,valley view medical center,az,fort mohave,86426
104645,2735 silveer creek roadoad,western arizona regional medical center,az,bullhead city,86442
104646,us hwy 1911 hospital roadl road,chinle comprehensive health care facility,az,chinle,86503
104647,po box 6499,fort defiance indian hospital,az,fort defiance,86504
104648,state routte 264 south 191th 191,sage memorial hospital,az,ganado,86505
104649,1016 e rooosevelt avenueenue,cibola general hospital,nm,grants,87020
104650,exit 102off i40 12 mile s12 mile south,dhhs usphs indian health services,nm,san fidel,87049
104651,601 dr marrtin luther king jrr king jr ave ne,lovelace medical center,nm,albuquerque,87102
104652,1100 centrral avenue sese,presbyterian hospital,nm,albuquerque,87106
104653,2211 lomass boulevard ned ne,unm hospital,nm,albuquerque,87106
104654,1525 n rennaissance blvd neblvd ne,central desert behavioral health center,nm,albuquerque,87107
104655,5400 gibsoon boulevard se 4thrd se 4th floor box 8,haven behavioral hospital of albuquerque,nm,albuquerque,87108
104656,4701 montggomery boulevard nelevard ne,lovelace womens hospital,nm,albuquerque,87109
104657,10501 golff course road nwoad nw,lovelace westside hospital,nm,albuquerque,87114
104658,3001 broaddmoor blvd nene,unm sandoval regional medical center,nm,rio rancho,87144
104659,516 e nizhhoni blvd,gallup indian medical center,nm,gallup,87301
104660,1901 red rrock drive,rehoboth mckinley christian health care services,nm,gallup,87301
104661,junction oof hwy 371,crownpoint healthcare facility,nm,crownpoint,87313
104662,route 301north b streettreet,zuni comprehensive community health center,nm,zuni,87327
104663,801 west mmaple streetet,san juan regional medical center,nm,farmington,87401
104664,us hwy 4911 north,northern navajo medical center,nm,shiprock,87420
104665,1700 cerriillos road,santa fe phs indian hospital,nm,santa fe,87501
104666,455 st micchaels driveive,christus st vincent regional medical center,nm,santa fe,87505
104667,4801 becknner road,presbyterian santa fe medical center,nm,santa fe,87507
104668,1010 sprucce street,presbyterian espanola hospital,nm,espanola,87532
104669,3917 westroad,los alamos medical center,nm,los alamos,87544
104670,1397 weimeer road,holy cross hospital a div of taos health systems,nm,taos,87571
104671,104 legionn drive,alta vista regional hospital,nm,las vegas,87701
104672,203 hospittal drive,miners colfax medical center,nm,raton,87740
104673,1202 highwway 60 westt,socorro general hospital,nm,socorro,87801
104674,800 east 99th avenue,sierra vista hospital,nm,t or c,87901
104675,5065 mcnuttt road bldgs b cldgs b c  d,peak behavioral health services llc,nm,santa teresa,88008
104676,2450 southh telshor blvdblvd,memorial medical center,nm,las cruces,88011
104677,4311 eastlohman avenueenue,mountain view regional medical center,nm,las cruces,88011
104678,3751 del rrey boulevardard,bhc mesilla valley hospital llc,nm,las cruces,88012
104679,900 w ash,mimbres memorial hospital,nm,deming,88031
104680,1313 e 32nnd st,gila regional medical center,nm,silver city,88061
104681,2100 n marrtin luther king jrr king jr blvd,plains regional medical center,nm,clovis,88101
104682,42121 us hhighway 70,roosevelt general hospital,nm,portales,88130
104683,405 w counntry club roadroad,eastern new mexico medical center,nm,roswell,88201
104684,117 east 119th streett,lovelace regional hospital  roswell,nm,roswell,88201
104685,702 n 13thh street,artesia general hospital,nm,artesia,88210
104686,2430 westpierce streetreet,carlsbad medical center,nm,carlsbad,88220
104687,5419 n lovvington highwayghway,lea regional medical center,nm,hobbs,88240
104688,1600 northh main ave,norlea hospital district,nm,lovington,88260
104689,2669 northh scenic driverive,gerald champion regional medical center,nm,alamogordo,88310
104690,p o box 2110,mescalero phs indian hospital,nm,mescalero,88340
104691,211 sudderrth drive,lincoln county medical center,nm,ruidoso,88345
104692,301 east mmiel de luna avenuena avenue,dr dan c trigg memorial hospital,nm,tucumcari,88401
104693,300 wilsonn street,union county general hospital,nm,clayton,88415
104694,117 caminoo de vida suite 100suite 100,guadalupe county hospital,nm,santa rosa,88435
104695,901 adamsblvd,boulder city hospital,nv,boulder city,89005
104696,700 n spriing st box 1010cax 1010cadm bldg,grover c dils medical center,nv,caliente,89008
104697,1050 westgalleria drivedrive,henderson hospital,nv,henderson,89011
104698,102 e lakee mead dr,saint rose dominican hospitals  rose de lima,nv,henderson,89015
104699,1299 berthha howe avenueenue,mesa view regional hospital,nv,mesquite,89027
104700,1409 eastlake mead blvdblvd,north vista hospital,nv,north las vegas,89030
104701,1550 w craaig ranch,dignity health st rose dominican n l v  campus,nv,north las vegas,89031
104702,360 southlola lane,desert view hospital,nv,pahrump,89048
104703,3001 st roose parkwayy,saint rose dominican hospitals  siena campus,nv,henderson,89052
104704,3021 w horrizon ridge pkwye pkwy,seven hills behavioral institute,nv,henderson,89052
104705,1800 w chaarleston blvdlvd,university medical center,nv,las vegas,89102
104706,5900 westrochelle avenueavenue,montevista hospital,nv,las vegas,89103
104707,620 shadoww lane,valley hospital medical center,nv,las vegas,89106
104708,3247 s marryland parkwaykway,desert parkway behavioral healthcare hospital llc,nv,las vegas,89109
104709,3186 s marryland pkwyy,sunrise hospital and medical center,nv,las vegas,89109
104710,8280 w warrm springs roadroad,saint rose dominican hospitals  san martin campus,nv,las vegas,89113
104711,7000 westspring mountain roauntain road,spring mountain treatment center,nv,las vegas,89117
104712,5400 southh rainbow blvdblvd,spring valley hospital medical center,nv,las vegas,89118
104713,2075 eastflamingo roadroad,desert springs hospital,nv,las vegas,89119
104714,2170 eastharmon avenueenue,harmon hospital,nv,las vegas,89119
104715,3100 n tennaya way,mountainview hospital,nv,las vegas,89128
104716,657 town ccenter driveve,summerlin hospital medical center,nv,las vegas,89144
104717,6161 w chaarleston blvdlvd,southern nevada adult mental health services,nv,las vegas,89146
104718,5460 westsahara,spring mountain sahara,nv,las vegas,89146
104719,8656 westpatrick laneane,orthopedic specialty hospital of nevada,nv,las vegas,89148
104720,9300 westsunset rd,southern hills hospital and medical center,nv,las vegas,89148
104721,6900 n durrango dr,centennial hills hospital medical center,nv,las vegas,89149
104722,99 mdg 47000 las vegas blvdas blvd,99th medical group nellis afb,nv,nellis afb,89191
104723,1500 avenuue h,william bee ririe hospital,nv,ely,89301
104724,801 east wwilliams avenuevenue,banner churchill community hospital,nv,fallon,89406
104725,1107 highwway 395,carson valley medical center,nv,gardnerville,89410
104726,200 southa st,mount grant general hospital,nv,hawthorne,89415
104727,855 6th sttreetpo box 661ox 661,pershing general hospital,nv,lovelock,89419
104728,480 gallettti way,dinitownsend hospital at nnmh,nv,sparks,89431
104729,2375 e praater way,northern nevada medical center,nv,sparks,89434
104730,118 east hhaskell streetreet,humboldt general hospital,nv,winnemucca,89445
104731,213 s whittacrepo box 940ox 940,south lyon medical center,nv,yerington,89447
104732,880 alderstreet,incline village health center,nv,incline village,89451
104733,1155 millstreet,renown regional medical center,nv,reno,89502
104734,235 w 6thst,saint marys regional medical center,nv,reno,89503
104735,1240 e ninnth st,bhc west hills hospital,nv,reno,89512
104736,10101 doubble r blvd,renown south meadows medical center,nv,reno,89521
104737,1600 mediccal parkwayy,carson tahoe regional medical center,nv,carson city,89703
104738,2001 erreccart blvd,northeastern nevada regional hospital,nv,elko,89801
104739,535 southhumboldt streetstreet,battle mountain general hospital,nv,batte mtn,89820
104740,1401 southh grand avenueenue,california hospital medical center la,ca,los angeles,90015
104741,1225 wilshhire boulevardvard,good samaritan hospital,ca,los angeles,90017
104742,3160 genevva street,shriners hospitals for children,ca,los angeles,90020
104743,4060 whitttier blvd,east los angeles doctors hospital,ca,los angeles,90023
104744,4081 e olyympic blvd,los angeles community hospital,ca,los angeles,90023
104745,1891 effiee st,gateways hosp  mental health ctr,ca,los angeles,90026
104746,1711 westtemple streetreet,l a downtown medical center,ca,los angeles,90026
104747,4650 sunseet blvd ms 108s 108,childrens hosp of los angeles,ca,los angeles,90027
104748,1300 n verrmont ave,hollywood presbyterian medical center,ca,los angeles,90027
104749,4867 sunseet blvd,kaiser foundation hospital  los angeles,ca,los angeles,90027
104750,6245 de loongpre ave,southern california hospital at hollywood,ca,hollywood,90028
104751,1500 san ppablo streetet,keck hospital of usc,ca,los angeles,90033
104752,1200 n staate st room c2k100om c2k100,lacusc medical center,ca,los angeles,90033
104753,1720 e cessar avenue,white memorial medical center,ca,los angeles,90033
104754,6041 cadilllac ave,kaiser foundation hospital  west la,ca,los angeles,90034
104755,6000 san vvicente blvdvd,miraclemile medical center,ca,los angeles,90036
104756,5900 westolympic boulevardoulevard,olympia medical center,ca,los angeles,90036
104757,8700 beverrly blvd,cedarssinai medical center,ca,los angeles,90048
104758,2131 w 3rdd st,saint vincent medical center,ca,los angeles,90057
104759,1680 east120th streeteet,martin luther king jr community hospital,ca,los angeles,90059
104760,150 medicaal plazarm4230cm4230c,resnick neuropsychiatric hospital at ucla,ca,los angeles,90095
104761,757 westwoood plaza,ronald reagan u c l a medical center,ca,los angeles,90095
104762,11500 broookshire avenueenue,pih hospital  downey,ca,downey,90241
104763,9333 imperrial highwayay,kaiser foundation hospital  downey,ca,downey,90242
104764,7601 eastimperial highwayhighway,lacrancho los amigos national rehabilitation  ctr,ca,downey,90242
104765,1145 w reddondo beach blvdh blvd,memorial hospital of gardena,ca,gardena,90247
104766,2623 e slaauson ave,community hospital of huntington park,ca,huntington park,90255
104767,3630 eastimperial highwayhighway,saint francis medical center,ca,lynwood,90262
104768,4650 lincooln blvd,cedarsinai marina del rey hospital,ca,marina del rey,90291
104769,555 east hhardy streetet,centinela hospital medical center,ca,inglewood,90301
104770,2121 santaa monica blvdlvd,providence saint johns health center,ca,santa monica,90404
104771,1250 16thstreet,santa monica  ucla med ctr  orthopaedic hospital,ca,santa monica,90404
104772,1000 w carrson st,lacharborucla med center,ca,torrance,90502
104773,4101 torraance blvd,providence little company of mary med ctr torrance,ca,torrance,90503
104774,23700 camiino del soll,del amo hospital,ca,torrance,90505
104775,3330 lomitta blvd,torrance memorial medical center,ca,torrance,90509
104776,12401 washhington blvdvd,pih health hospitalwhittier,ca,whittier,90602
104777,9080 colimma rd,whittier hospital medical center,ca,whittier,90605
104778,7901 walkeer street,la palma intercommunity hospital,ca,la palma,90623
104779,309 w beveerly blvd,beverly hospital,ca,montebello,90640
104780,13100 studderbaker roadoad,coast plaza hospital,ca,norwalk,90650
104781,11401 s noorwalk blvdd,dept of state hospitals  metropolitan  psy,ca,norwalk,90650
104782,10802 colllege pl,college hospital,ca,cerritos,90703
104783,100 fallscanyon roadad,catalina island medical center,ca,avalon,90704
104784,25825 soutth vermont avenueavenue,kaiser foundation hospital  south bay,ca,harbor city,90710
104785,3700 e souuth st,lakewood regional medical center,ca,lakewood,90712
104786,3751 katellla avenue,los alamitos medical center,ca,los alamitos,90720
104787,1300 w 7thh st,providence little co of mary med ctr san pedro,ca,san pedro,90732
104788,2776 paciffic avenue,college medical center,ca,long beach,90806
104789,2801 atlanntic ave,long beach memorial medical center,ca,long beach,90806
104790,2801 atlanntic avenuee,memorial care miller childrens   womens hosp lb,ca,long beach,90806
104791,2600 redonndo avenue suite 50 suite 500,ocean view psychiatric health facility,ca,long beach,90806
104792,1050 lindeen ave,st mary medical center,ca,long beach,90813
104793,300 w hunttington dr,methodist hospital of southern ca,ca,arcadia,91006
104794,2900 e dell mar blvd,aurora las encinas hospital,ca,pasadena,91107
104795,100 w  callifornia blvdlvd,huntington memorial hospital,ca,pasadena,91109
104796,1420 s cenntral ave,glendale mem hospital  hlth center,ca,glendale,91204
104797,1509 e willson terracece,glendale adventist medical center,ca,glendale,91206
104798,1812 verduugo blvd,usc verdugo hills hospital,ca,glendale,91209
104799,7300 mediccal center drdr,west hills hospital  medical center,ca,west hills,91307
104800,18300 rosccoe blvd,northridge hospital medical center,ca,northridge,91325
104801,7150 tampaa avenue,joyce eisenberg keefer medical center,ca,reseda,91335
104802,14445 olivve view driveive,lacolive viewucla medical center,ca,sylmar,91342
104803,15031 rinaaldi st,providence holy cross medical center,ca,mission hills,91346
104804,9449 san ffernando rdd,pacifica hospital of the valley,ca,sun valley,91352
104805,23845  mcbbean pkwy,henry mayo newhall  hospital,ca,valencia,91355
104806,18321 clarrk street,providence tarzana medical center,ca,tarzana,91356
104807,18646 oxnaard street,tarzana treatment center,ca,tarzana,91356
104808,215 w jansss rd,los robles hospital  medical center,ca,thousand oaks,91360
104809,5601 de sooto avenue,kaiser foundation hospital  woodland hills,ca,woodland hills,91367
104810,13652 canttara st,kaiser foundation hospital  panorama city,ca,panorama city,91402
104811,14850 rosccoe blvd,mission community hospital,ca,panorama city,91402
104812,4929 van nnuys blvd,sherman oaks hospital,ca,sherman oaks,91403
104813,15107 vanoowen st,valley presbyterian hospital,ca,van nuys,91406
104814,16237 venttura blvd,encino hospital medical center,ca,encino,91436
104815,501 southbuena vista streetta street,providence saint joseph medical ctr,ca,burbank,91505
104816,1011 baldwwin park blvdlvd,kaiser foundation hospital  baldwin park,ca,baldwin park,91706
104817,5353 g strreet,canyon ridge hospital,ca,chino,91710
104818,5451 walnuut ave,chino valley medical center,ca,chino,91710
104819,210 w  sann bernardino roadno road,emanate health intercommunity hospital,ca,covina,91723
104820,1161 e covvina blvd,aurora charter oak,ca,covina,91724
104821,1701 santaa anita avee,greater el monte community hospital,ca,south el monte,91733
104822,250 s grannd ave,emanate health foothill presbyterian hospital,ca,glendora,91740
104823,150 west rroute 66,glendora community hospital,ca,glendora,91740
104824,525 n garffield ave,garfield medical center,ca,monterey park,91754
104825,900 s atlaantic blvd,monterey park hospital,ca,monterey park,91754
104826,5000 san bbernardino stst,montclair hospital medical center,ca,montclair,91763
104827,255 e boniita ave,casa colina hospital,ca,pomona,91767
104828,1798 n garrey ave,pomona valley hospital medical center,ca,pomona,91767
104829,4619 n rossemead blvdd,bhc alhambra hosp,ca,rosemead,91770
104830,1350 w covvina blvd,san dimas community hospital,ca,san dimas,91773
104831,438 w lastunas driveve,san gabriel valley medical center,ca,san gabriel,91776
104832,999 san beernardino roadroad,san antonio regional hospital,ca,upland,91786
104833,725 s orannge ave,west covina medical center inc,ca,west covina,91790
104834,100 s raymmond ave,alhambra hospital medical center,ca,alhambra,91801
104835,751 medicaal center courtcourt,sharp chula vista medical center,ca,chula vista,91911
104836,7050 parkwway drive,alvarado parkway institute behavioral health syste,ca,la mesa,91942
104837,5555 grosssmont center drive ber drive box 58,grossmont hospital,ca,la mesa,91942
104838,2400 east4th st,paradise valley hospital,ca,national city,91950
104839,354 santafe drive,scripps memorial hospital  encinitas,ca,encinitas,92024
104840,555 east vvalley parkwaykway,palomar health downtown campus,ca,escondido,92025
104841,10666 nortth torrey pines roadpines road,scripps green hospital,ca,la jolla,92037
104842,9888 genessee avenue,scripps memorial hospital la jolla,ca,la jolla,92037
104843,200 mercycircle camp pendletmp pendleton,nh camp pendleton,ca,camp pendleton,92055
104844,4002 vistaa way,tricity medical center,ca,oceanside,92056
104845,15615 pomeerado road,pomerado hospital,ca,poway,92064
104846,4077 5th aave,scripps mercy hospital,ca,san diego,92103
104847,200 west aarbor drivee,uc san diego health hillcrest  hillcrest med ctr,ca,san diego,92103
104848,250 prospeect place,sharp coronado hospital and hlthcr ctr,ca,coronado,92118
104849,6655 alvarrado road,alvarado hospital medical center,ca,san diego,92120
104850,4647 zionave,kaiser foundation hospital  zion,ca,san diego,92120
104851,3020 childdrens way,rady childrens hospital  san diego,ca,san diego,92123
104852,7901 frostt st,sharp memorial hospital,ca,san diego,92123
104853,7850 vistaa hill avenuenue,sharp mesa vista hospital,ca,san diego,92123
104854,11878 avennue of industryustry,aurora san diego,ca,san diego,92128
104855,34800 bobwilson driveive,nmc san diego,ca,san diego,92134
104856,47111 monrroe street,john f kennedy memorial hospital,ca,indio,92201
104857,600 northhighland springs avsprings avenue,san gorgonio memorial hospital,ca,banning,92220
104858,250 northfirst streeteet,palo verde hospital,ca,blythe,92225
104859,207 west llegion roadd,pioneers memorial healthcare district,ca,brawley,92227
104860,1415 rossavenue,el centro regional medical center,ca,el centro,92243
104861,6601 whitee feather roadroad,hidesert medical center,ca,joshua tree,92252
104862,1150 northh indian canyon drivanyon drive,desert regional medical center,ca,palm springs,92262
104863,39000 bobb hope driveve,eisenhower medical center,ca,rancho mirage,92270
104864,1145 sturggis road,nh twenty nine palms,ca,twentynine palms,92278
104865,18300 highhway 18,st mary medical center,ca,apple valley,92307
104866,166 4th sttreet,weed ach ft irwin,ca,fort irwin,92310
104867,820 e mounntain view streetstreet,barstow community hospital,ca,barstow,92311
104868,41870 garsstin dr,bear valley community hospital,ca,big bear lake,92315
104869,400 northpepper avenueenue,arrowhead regional medical center,ca,colton,92324
104870,9961 sierrra ave,kaiser foundation hospital fontana,ca,fontana,92335
104871,29101 hosppital road,mountains community hospital,ca,lake arrowhead,92352
104872,11234 andeerson street suite aet suite a,loma linda university childrens hospital,ca,loma linda,92354
104873,11234 andeerson st,loma linda university medical center,ca,loma linda,92354
104874,1401 baileey ave,colorado river medical center,ca,needles,92363
104875,1710 bartoon road,loma linda university behavioral med ctr,ca,redlands,92373
104876,350 terraccina blvd,redlands community hospital,ca,redlands,92373
104877,15248 11thh st,victor valley global medical center,ca,victorville,92392
104878,16850 bearr valley rdd,desert valley hospital,ca,victorville,92395
104879,2101 n watterman ave,st bernardine medical center,ca,san bernardino,92404
104880,1805 mediccal center drivedrive,community hospital of san bernardino,ca,san bernardino,92411
104881,4445 magnoolia avenuee,riverside community hospital,ca,riverside,92501
104882,3865 jacksson street,doctors hospital of riverside,ca,riverside,92503
104883,10800 magnnolia avenueue,kaiser foundation hospital riverside,ca,riverside,92505
104884,5900 brockkton ave,pacific grove hospital,ca,riverside,92506
104885,1117 eastdevonshiree,hemet valley medical center,ca,hemet,92543
104886,27300 iriss avenue,kaiser foundation hospitalmoreno valley,ca,moreno valley,92555
104887,26520 cacttus avenue,riverside university health systemmedical center,ca,moreno valley,92555
104888,25500 mediical center driver drive,southwest healthcare system,ca,murrieta,92562
104889,28062 baxtter road,loma linda university medical centermurrieta,ca,murrieta,92563
104890,28400 mccaall b0ulevardard,menifee global medical center,ca,sun city,92585
104891,31700 temeecula pkwy,temecula valley hospital,ca,temecula,92592
104892,16250 sandd canyon avenuevenue,hoag orthopedic institute,ca,irvine,92618
104893,2501 harboor boulevardrd,fairview developmental center,ca,costa mesa,92626
104894,301 victorria street,college hospital costa mesa,ca,costa mesa,92627
104895,17772 beacch blvd,huntington beach hospital,ca,huntington beach,92647
104896,24451 heallth center drivedrive,memorialcare saddleback medical center,ca,laguna hills,92653
104897,one hoag ddrive,hoag memorial hospital presbyterian,ca,newport beach,92663
104898,1501 e 16tth st,newport bay hospital,ca,newport beach,92663
104899,27700 mediical center rd 5thr rd 5th floor,childrens hospital at mission,ca,mission viejo,92691
104900,27700 mediical center rdr rd,mission hospital regional med center,ca,mission viejo,92691
104901,2701 s briistol st,south coast global medical center,ca,santa ana,92704
104902,1001 northh tustin avenuevenue,orange county global medical center,ca,santa ana,92705
104903,17100 eucllid street,fountain valley regional hospital  medical center,ca,fountain valley,92708
104904,9920 talbeert avenue,memorialcare orange coast medical center,ca,fountain valley,92708
104905,14662 newpport ave,foothill regional medical center,ca,tustin,92780
104906,1111 w lapalma avenuenue,ahmc anaheim regional medical center,ca,anaheim,92801
104907,3033 w oraange avenuee,west anaheim medical center,ca,anaheim,92804
104908,1025 s anaaheim blvd,anaheim global medical center,ca,anaheim,92805
104909,3440 e lapalma ave,kaiser foundation hospital  orange county  anahe,ca,anaheim,92806
104910,101 e valeencia mesa drivedrive,st jude medical center,ca,fullerton,92835
104911,12601 gardden grove blvdblvd,garden grove hospital  medical center,ca,garden grove,92843
104912,393 s tusttin street,healthbridge childrens hospital  orange,ca,orange,92866
104913,1201 w laveta ave,childrens hospital of orange county,ca,orange,92868
104914,1100 weststewart drr,st joseph hospital,ca,orange,92868
104915,101 city ddrive southh,university of california irvine med center,ca,orange,92868
104916,2601 e chaapman ave,chapman global medical center,ca,orange,92869
104917,1301 n rosse drive,placentia linda hospital,ca,placentia,92870
104918,800 southmain streetet,corona regional medical center,ca,corona,92882
104919,801 senecaa st,aurora vista del mar hospital,ca,ventura,93001
104920,147 n brennt st,community memorial hospital san buenaventura,ca,ventura,93003
104921,300 hillmoont avenue,ventura county medical center,ca,ventura,93003
104922,2309 antonnio ave,st johns pleasant valley hospital,ca,camarillo,93010
104923,1306 mariccopa hwy,ojai valley community hospital,ca,ojai,93023
104924,1600 n rosse ave,st johns regional medical center,ca,oxnard,93030
104925,2975 n syccamore dr,adventist health simi valley,ca,simi valley,93065
104926,400 west ppueblo,santa barbara cottage hospital,ca,santa barbara,93102
104927,315 caminoo del remediodio,santa barbara county psychiatric health facility,ca,santa barbara,93110
104928,351 s pattterson ave,goleta valley cottage hospital,ca,santa barbara,93111
104929,1191 phelpps avenue,coalinga regional medical center,ca,coalinga,93210
104930,1401 garcees highway,delano regional medical center,ca,delano,93215
104931,115 mall ddrive,adventist health hanford,ca,hanford,93230
104932,6412 laureel ave,kern valley healthcare district,ca,lake isabella,93240
104933,26501 avennue 140,porterville developmental center,ca,porterville,93257
104934,465 w putnnam ave,sierra view medical center,ca,porterville,93257
104935,869 northcherry streetreet,adventist health tulare,ca,tulare,93274
104936,400 w mineeral king aveave,kaweah delta medical center,ca,visalia,93291
104937,2615 chestter avenue,adventist health bakersfield,ca,bakersfield,93301
104938,420 34th sst,bakersfield memorial hospital,ca,bakersfield,93301
104939,2215 truxttun avenue,mercy hospital,ca,bakersfield,93301
104940,1700 mountt vernon avenuevenue,kern medical center,ca,bakersfield,93306
104941,3001 silleect avenue,bakersfield heart hospital,ca,bakersfield,93308
104942,901 olivedrive,good samaritan hospital,ca,bakersfield,93308
104943,5201 whitee lane,bakersfield behavioral healthcare hospital llc,ca,bakersfield,93309
104944,1911 johnsson ave,french hospital medical center,ca,san luis obispo,93401
104945,1010 murraay st,sierra vista regional medical center,ca,san luis obispo,93405
104946,1515 e oceean avenue,lompoc valley medical center,ca,lompoc,93436
104947,1400 e chuurch st,marian regional medical center,ca,santa maria,93454
104948,2050 viborrg rd,santa ynez valley cottage hospital,ca,solvang,93463
104949,1100 las ttablas rd,twin cities community hospital,ca,templeton,93465
104950,150 pioneeer lane,northern inyo hospital,ca,bishop,93514
104951,1600 w avee j,antelope valley hospital,ca,lancaster,93534
104952,501 east llocust streeteet,southern inyo hospital,ca,lone pine,93545
104953,85 sierrapark road po box 66po box 660,mammoth hospital,ca,mammoth lakes,93546
104954,38600 mediical center driver drive,palmdale regional medical center,ca,palmdale,93552
104955,1081 northh china lake blvdke blvd,ridgecrest regional hospital,ca,ridgecrest,93555
104956,1100 magelllan,adventist health tehachapi valley,ca,tehachapi,93561
104957,2755 hernddon ave,clovis community medical center,ca,clovis,93611
104958,520 west ii st,memorial hospital los banos,ca,los banos,93635
104959,9300 valleey childrens placens place,valley childrens hospital,ca,madera,93636
104960,1250 e almmond ave,madera community hospital,ca,madera,93637
104961,372 w cyprress ave,adventist health reedley,ca,reedley,93654
104962,6125 northh fresno stt,fresno surgical hospital,ca,fresno,93710
104963,1303 e herrndon ave,saint agnes medical center,ca,fresno,93710
104964,7300 northh fresno stt,kaiser foundation hospital  fresno,ca,fresno,93720
104965,2823 fresnno street,community regional medical center,ca,fresno,93721
104966,450 east rromie lane,salinas valley memorial hospital,ca,salinas,93901
104967,1441 consttitution boulevardoulevard,natividad medical center,ca,salinas,93906
104968,300 canalstreet,george l mee memorial hospital,ca,king city,93930
104969,23625 w rholman highwayghway,community hospital of the monterey peninsula,ca,monterey,93940
104970,1501 troussdale drivee,millspeninsula medical center,ca,burlingame,94010
104971,1900 sulliivan avenuee,seton medical center,ca,daly city,94015
104972,570 willoww road,menlo park surgical hospital,ca,menlo park,94025
104973,2500 grantt road,el camino hospital,ca,mountain view,94040
104974,170 alamedda de las pulgaspulgas,sequoia hospital,ca,redwood city,94062
104975,1100 veterrans boulevardvard,kaiser foundation hospital  redwood city,ca,redwood city,94063
104976,1200 el caamino real,kaiser foundation hospital  south san francisco,ca,south san francisco,94080
104977,1101 van nness avenuee,california pacific medical center van ness campus,ca,san francisco,94109
104978,900 hyde sst,saint francis memorial hospital,ca,san francisco,94109
104979,3555 cesarr chavez streettreet,california pacific medical center  mission bernal,ca,san francisco,94110
104980,1001 potreero avenue,zuckerberg san francisco general hosp  trauma ctr,ca,san francisco,94110
104981,302  silveer avenue,jewish home  rehab center,ca,san francisco,94112
104982,2425 gearyy blvd,kaiser foundation hospital  san francisco,ca,san francisco,94115
104983,375 lagunaa honda blvdvd,laguna honda hospital  rehabilitation center,ca,san francisco,94116
104984,601 dubocee avenue,california pacific medical ctrdavies campus hosp,ca,san francisco,94117
104985,450 stanyaan st,st marys medical center,ca,san francisco,94117
104986,845 jacksoon st,chinese hospital,ca,san francisco,94133
104987,401 parnasssus avenuee,langley porter psychiatric institute,ca,san francisco,94143
104988,505 parnasssus ave box 0296box 0296,ucsf medical center,ca,san francisco,94143
104989,725 welchroad,lucile salter packard childrens hsp at stanford,ca,palo alto,94304
104990,300 pasteuur drive,stanford health care,ca,stanford,94305
104991,222 w 39thh ave,san mateo medical center,ca,san mateo,94403
104992,2070 clintton avenue,alameda hospital,ca,alameda,94501
104993,3901 lonetree way,sutter delta medical center,ca,antioch,94509
104994,2540 eastst,john muir medical center  concord campus,ca,concord,94520
104995,2740 grantt street,john muir behavioral health center,ca,concord,94524
104996,4501 sandcreek roadd,kaiser foundation hospital  antioch,ca,antioch,94531
104997,103 bodincircle fairfieldirfield,60th medical group travis afb,ca,fairfield,94533
104998,1200 b  gaale wilson blvdblvd,northbay medical center,ca,fairfield,94533
104999,39001 sunddale drive,fremont hospital,ca,fremont,94538
105000,39400 paseeo padre pkwykwy,kaiser foundation hospital  fremont,ca,fremont,94538
105001,2000 mowryy ave,washington hospital,ca,fremont,94538
105002,27200 calaaroga ave,st rose hospital,ca,hayward,94545
105003,20103 lakee chabot roadoad,eden medical center,ca,castro valley,94546
105004,2500 alhammbra avenuee,contra costa regional medical center,ca,martinez,94553
105005,2100 napavallejo highwayighway,dept of state hospitals  napa,ca,napa,94558
105006,1000 tranccas st,queen of the valley medical center,ca,napa,94558
105007,10 woodlannd road,adventist health st helena,ca,saint helena,94574
105008,2500 merceed street,kaiser foundation hospital  san leandro,ca,san leandro,94577
105009,13855 e 144th street,san leandro hospital,ca,san leandro,94578
105010,2050 fairmmont drive,willow rock center,ca,san leandro,94578
105011,6001 norriis canyon roadroad,san ramon regional medical center,ca,san ramon,94583
105012,5555 westlas positas boulevaas boulevard,stanford health care  valleycare,ca,pleasanton,94588
105013,975 serenoo dr,kaiser foundation hospital and rehab center,ca,vallejo,94589
105014,300 hospittal dr,sutter solano medical center,ca,vallejo,94589
105015,525 oregonn st,adventist health vallejo,ca,vallejo,94590
105016,1425 s maiin street,kaiser foundation hospital  walnut creek,ca,walnut creek,94596
105017,1601 ygnaccio valley rdrd,john muir medical center  walnut creek campus,ca,walnut creek,94598
105018,2633 e 27tth street buildingbuilding b,telecare heritage psychiatric health facility,ca,oakland,94601
105019,1411 east31st streetet,highland hospital,ca,oakland,94602
105020,350 hawthoorne avenuee,alta bates summit medical center,ca,oakland,94609
105021,747 52nd sstreet,childrens hospital  research center oakland,ca,oakland,94609
105022,275 west mmacarthur boulevardboulevard,kaiser foundation hospital  oaklandrichmond,ca,oakland,94611
105023,2450 ashbyy avenue,alta bates summit medical center  alta bates camp,ca,berkeley,94705
105024,99 monteciillo rd,kaiser foundation hospital,ca,san rafael,94903
105025,250 bon aiir road po box 8010o box 8010,marinhealth medical center,ca,greenbrae,94904
105026,180 rowlannd way,novato community hospital,ca,novato,94945
105027,400 n mcdoowell blvd,petaluma valley hospital,ca,petaluma,94954
105028,9400 no naame uno,st louise regional hospital,ca,gilroy,95020
105029,911 sunsett drive,hazel hawkins memorial hospital,ca,hollister,95023
105030,700 lawrennce expresswaysway,kaiser foundation hospitalsanta clara,ca,santa clara,95051
105031,3840 homesstead road,kaiser permanente psychiatric health facilitysant,ca,santa clara,95051
105032,2250 soqueel avenue suite 150suite 150,santa cruz county psychiatric health facility,ca,santa cruz,95062
105033,1555 soqueel drive,dominican hospital,ca,santa cruz,95065
105034,2900 chantticleer avenueenue,sutter maternity  surgery center of santa cruz,ca,santa cruz,95065
105035,75 nielsonn street,watsonville community hospital,ca,watsonville,95076
105036,225 n jackkson avenuee,regional medical center of san jose,ca,san jose,95116
105037,250 hospittal parkwayy,kaiser foundation hospitalsan jose,ca,san jose,95119
105038,2425 samarritan drivee,good samaritan hospital,ca,san jose,95124
105039,2105 foresst avenue,oconnor hospital,ca,san jose,95128
105040,751 southbascom avenueenue,santa clara valley medical center,ca,san jose,95128
105041,455 silicoon valley boulevardboulevard,san jose behavioral health,ca,san jose,95138
105042,525 west aacacia streeteet,dameron hospital,ca,stockton,95203
105043,2510 n  caalifornia stst,st josephs behavioral health center,ca,stockton,95204
105044,1800 n callifornia stt,st josephs medical center of stockton,ca,stockton,95204
105045,500 w hosppital road,san joaquin general hospital,ca,french camp,95231
105046,975 s fairrmont avenueue,adventist health lodi memorial,ca,lodi,95240
105047,768 mountaain ranch rdrd,mark twain medical center,ca,san andreas,95249
105048,1205 e norrth street,doctors hospital of manteca,ca,manteca,95336
105049,1777 westyosemite aveave,kaiser foundation hospital manteca,ca,manteca,95337
105050,5189 hospiital road,john c fremont healthcare district,ca,mariposa,95338
105051,333 mercyavenue,mercy medical center,ca,merced,95340
105052,1441 floriida avenue,doctors medical center,ca,modesto,95350
105053,1700 coffeee rd,memorial medical center,ca,modesto,95355
105054,1421 oakdaale road,stanislaus surgical hospital,ca,modesto,95355
105055,350 s oakave,oak valley hospital district,ca,oakdale,95361
105056,1000 greennley road,adventist health sonora,ca,sonora,95370
105057,1420 northh tracy blvdvd,sutter tracy community hospital,ca,tracy,95376
105058,825 delbonn ave,emanuel medical center,ca,turlock,95382
105059,1287 fultoon road,aurora behavioral healthcaresanta rosa llc,ca,santa rosa,95401
105060,401 bicenttennial wayy,kaiser foundation hospitalsanta rosa,ca,santa rosa,95403
105061,30 mark weest springs roads road,sutter santa rosa regional hospital,ca,santa rosa,95403
105062,1165 montggomery dr,santa rosa memorial hospital,ca,santa rosa,95405
105063,15630 18thh ave  hwy 53y 53,adventist health clearlake,ca,clearlake,95422
105064,15000 arnoold drive     p o b  p o box 1493,sonoma developmental center,ca,eldridge,95431
105065,700 riverdr,mendocino coast district hospital,ca,fort bragg,95437
105066,1375 univeersity avenuenue,healdsburg district hospital,ca,healdsburg,95448
105067,5176 hillroad east,sutter lakeside hospital,ca,lakeport,95453
105068,501 petaluuma avenue,sonoma specialty hospital,ca,sebastopol,95472
105069,347 andrieeux st,sonoma valley hospital,ca,sonoma,95476
105070,275 hospittal drive,adventist health ukiah valley,ca,ukiah,95482
105071,1 marceladr,adventist health howard memorial,ca,willits,95490
105072,720 wood sst,sempervirens,ca,eureka,95501
105073,2700 dolbeeer st,st joseph hospital,ca,eureka,95501
105074,3800 janess rd,mad river community hospital,ca,arcata,95521
105075,800 e washhington blvdvd,sutter coast hospital,ca,crescent city,95531
105076,3300 renneer drive,redwood memorial hospital,ca,fortuna,95540
105077,733 cedarst,jerold phelps community hospital,ca,garberville,95542
105078,11815 educcation streeteet,sutter auburn faith hospital,ca,auburn,95603
105079,6501 coylee ave,mercy san juan medical center,ca,carmichael,95608
105080,2000 sutteer place,sutter davis hospital,ca,davis,95616
105081,1650 creekkside drivee,mercy hospital of folsom,ca,folsom,95630
105082,200 missioon blvd,sutter amador hospital,ca,jackson,95642
105083,1600 eurekka road,kaiser foundation hospital  roseville,ca,roseville,95661
105084,one medicaal plaza,sutter roseville medical center,ca,roseville,95661
105085,1100 marshhall way,marshall medical center,ca,placerville,95667
105086,1 qualitydrive,kaiser foundation hospital  vacaville,ca,vacaville,95688
105087,1325 cottoonwood streeteet,woodland memorial hospital,ca,woodland,95695
105088,2825 capittol avenue,sutter medical center sacramento,ca,sacramento,95816
105089,2425 stockkton boulevardvard,shriners hospitals for children northern calif,ca,sacramento,95817
105090,2315 stockkton boulevardvard,university of california davis medical center,ca,sacramento,95817
105091,4001 j st,mercy general hospital,ca,sacramento,95819
105092,6600 bruceeville roadd,kaiser foundation hosp so sacramento,ca,sacramento,95823
105093,7500 hospiital drive,methodist hospital of sacramento,ca,sacramento,95823
105094,8001 bruceeville roadd,sierra vista hospital inc,ca,sacramento,95823
105095,2025 morsee avenue,kaiser foundation hospital  sacramento,ca,sacramento,95825
105096,7700 folsoom blvd,sutter center for psychiatry,ca,sacramento,95826
105097,4250 auburrn blvd,heritage oaks hospital,ca,sacramento,95841
105098,726 4th stt,adventist health and rideout,ca,marysville,95901
105099,1531 esplaanade,enloe medical center,ca,chico,95926
105100,199 e websster streett,colusa medical center,ca,colusa,95932
105101,155 glassoon way,sierra nevada memorial hospital,ca,grass valley,95945
105102,240 sprucee street,orchard hospital,ca,gridley,95948
105103,2767 olivee highway,oroville hospital,ca,oroville,95966
105104,5974 pentzz road,adventist health feather river,ca,paradise,95969
105105,1065 buckss lake roadd,plumas district hospital,ca,quincy,95971
105106,1133 w syccamore st,glenn medical center,ca,willows,95988
105107,455 plumass blvd,sutter surgical hospital  north valley,ca,yuba city,95991
105108,2175 rosalline ave clairmontclairmont hgts,mercy medical center redding,ca,redding,96001
105109,2900 eurekka way,patients hospital of redding,ca,redding,96001
105110,1100 buttee st,shasta regional medical center,ca,redding,96001
105111,130 brentwwood drive,seneca district hospital,ca,chester,96020
105112,43563 hwy299 east,mayers memorial hospital,ca,fall river mills,96028
105113,914 pine sstreet,mercy medical center mt shasta,ca,mount shasta,96067
105114,2550 sisteer mary columba drivlumba drive,st elizabeth community hospital,ca,red bluff,96080
105115,60 easteravenue,trinity hospital,ca,weaverville,96093
105116,444 brucestreet,fairchild medical center,ca,yreka,96097
105117,228 w mcdoowell ave,modoc medical center,ca,alturas,96101
105118,741 northmain streetet,surprise valley community hospital,ca,cedarville,96104
105119,500 firstavenue,eastern plumas hospital  portola campus,ca,portola,96122
105120,1800 sprinng ridge driverive,banner lassen medical center,ca,susanville,96130
105121,2170 southh avenue,barton memorial hospital,ca,south lake tahoe,96150
105122,10121 pinee ave,tahoe forest hospital,ca,truckee,96161
105123,981079 mooanalua roadad,pali momi medical center,hi,aiea,96701
105124,912301 foort weaver roadroad,kahi mohala,hi,ewa beach,96706
105125,1190 waiannuenue avenuenue,hilo medical center,hi,hilo,96720
105126,45547 pluumeria streeteet,hale hoola hamakua,hi,honokaa,96727
105127,56117 puaalalea streeteet,kahuku medical center,hi,kahuku,96731
105128,640 ulukahhiki st,adventist health castle,hi,kailua,96734
105129,67 1125 maamalahoa highwayighway,north hawaii community hospital,hi,kamuela,96743
105130,4800 kawaiihau road,samuel mahelona memorial hospital,hi,kapaa,96746
105131,280 home oolu place,molokai general hospital,hi,kaunakakai,96748
105132,791019 haaukapila streettreet,kona community hospital,hi,kealakekua,96750
105133,54383 hosspital roadd,kohala hospital,hi,kapaau,96755
105134,628 7th sttreet,lanai community hospital,hi,lanai city,96763
105135,33420 kuhhio highwayy,wilcox memorial hospital,hi,lihue,96766
105136,1 kamani sstreet,kau hospital,hi,pahala,96777
105137,128 lehuastreet,wahiawa general hospital,hi,wahiawa,96786
105138,100 keokeaa place,kula hospital,hi,kula,96790
105139,221 mahalaani street,maui memorial medical center,hi,wailuku,96793
105140,4643 waimeea canyon drivedrive,kauai veterans memorial hospital,hi,waimea,96796
105141,fagaalu viillage,lbj tropical medical center,as,pago pago,96799
105142,888 so kinng street,straub clinic and hospital,hi,honolulu,96813
105143,1301 punchhbowl st,the queens medical center,hi,honolulu,96813
105144,347 northkuakini streettreet,kuakini medical center,hi,honolulu,96817
105145,3288 moanaalua rd,kaiser foundation hospital,hi,honolulu,96819
105146,1319 punahhou street,kapiolani medical center for women  children,hi,honolulu,96826
105147,1310 punahhou street,shriners hospital for children,hi,honolulu,96826
105148,1 jarrettwhite rd,tripler amc ft shafter,hi,honolulu,96859
105149,85o gov caarlos g camacho roadmacho road,guam memorial hospital authority,gu,tamuning,96913
105150,133 route3,guam regional medical city,gu,dededo,96929
105151,1 lower naavy hill road po booad po box 409ck,commonwealth health center,mp,garapan,96950
105152,10180 se ssunnyside roadroad,kaiser sunnyside medical center,or,clackamas,97015
105153,24800 se sstark streetet,legacy mount hood medical center,or,gresham,97030
105154,810 12th sstreet,providence hood river memorial hospital,or,hood river,97031
105155,1500 divission streett,providence willamette falls medical center,or,oregon city,97045
105156,1700 e 19tth street,midcolumbia medical center,or,the dalles,97058
105157,19300 sw 665th avenuee,legacy meridian park medical center,or,tualatin,97062
105158,2111 exchaange streett,columbia memorial hospital,or,astoria,97103
105159,335 se 8thh avenue,tuality community hospital,or,hillsboro,97123
105160,2875 nw sttucki ave,kaiser foundation hospital  westside,or,hillsboro,97124
105161,2700 se sttratus ave,willamette valley medical center,or,mcminnville,97128
105162,1001 proviidence driveve,providence newberg medical center,or,newberg,97132
105163,725 s wahaanna road,providence seaside hospital,or,seaside,97138
105164,1000 thirdd street,adventist health tillamook,or,tillamook,97141
105165,1015 nw 222nd avenue w121 w121,legacy good samaritan medical center,or,portland,97210
105166,4805 ne gllisan streetet,providence portland medical center,or,portland,97213
105167,10123 se mmarket streeteet,adventist health portland,or,portland,97216
105168,10150 se 332nd avenuee,providence milwaukie hospital,or,milwaukie,97222
105169,10300 sw eeastridge streetstreet,cedar hills hospital,or,portland,97225
105170,9205 sw baarnes road,providence st vincent medical center,or,portland,97225
105171,2801 n ganntenbein avenuevenue,legacy emanuel medical center,or,portland,97227
105172,3181 sw saam jackson park roadpark road,ohsu hospital and clinics,or,portland,97239
105173,3101 sw saam jackson park roadpark road,shriners hospital for childrenportland,or,portland,97239
105174,2600 centeer street nene,oregon state hospital distinct part,or,salem,97301
105175,890 oak sttreet se,salem hospital,or,salem,97301
105176,1046 6th aavenue sw,samaritan albany general hospital,or,albany,97321
105177,3600 nw saamaritan driverive,good samaritan regional medical center,or,corvallis,97330
105178,525 se wasshington streettreet,salem health west valley,or,dallas,97338
105179,525 n santtiam highwayay,samaritan lebanon community hospital,or,lebanon,97355
105180,930 sw abbbey street,samaritan pacific community hospital,or,newport,97365
105181,3043 ne 288th street,samaritan north lincoln hospital,or,lincoln city,97367
105182,342 fairviiew street,legacy silverton medical center,or,silverton,97381
105183,1401 n 10tth avenue,santiam hospital,or,stayton,97383
105184,1255 hilyaard street,sacred heart university district,or,eugene,97401
105185,900 11th sstreet se,southern coos hospital  health center,or,bandon,97411
105186,1775 thomppson road,bay area hospital,or,coos bay,97420
105187,940 east 55th street,coquille valley hospital district,or,coquille,97423
105188,1515 villaage drive,peacehealth cottage grove community medical center,or,cottage grove,97424
105189,400 9th sttreet,peace harbor medical center,or,florence,97439
105190,94220 fourrth street,curry general hospital,or,gold beach,97444
105191,600 ranchroad,lower umpqua hospital district,or,reedsport,97467
105192,2700 nw sttewart parkwaykway,mercy medical center,or,roseburg,97471
105193,1460 g strreet,mckenziewillamette medical center,or,springfield,97477
105194,3333 riverrbend drivee,sacred heart medical center  riverbend,or,springfield,97477
105195,2825 e barrnett road,asante rogue regional medical center,or,medford,97504
105196,1111 crateer lake avenueenue,providence medford medical center,or,medford,97504
105197,280 maplestreet,asante ashland community hospital,or,ashland,97520
105198,500 sw rammsey avenuee,asante three rivers medical center,or,grants pass,97527
105199,2865 daggeett avenue,sky lakes medical center,or,klamath falls,97601
105200,700 southj street,lake district hospital,or,lakeview,97630
105201,2500 ne neeff road,st charles bend,or,bend,97701
105202,557 w washhington streetreet,harney district hospital,or,burns,97720
105203,470 ne a sstreet,st charles madras,or,madras,97741
105204,384 se commbs flat roadoad,st charles prineville,or,prineville,97754
105205,1253 nw caanal blvd,st charles redmond,or,redmond,97756
105206,2801 st annthony way,st anthony hospital,or,pendleton,97801
105207,3325 pocahhontas roadd,saint alphonsus medical center  baker city inc,or,baker city,97814
105208,601 medicaal parkway,wallowa memorial hospital,or,enterprise,97828
105209,564 e pionneer drive,pioneer memorial hospital,or,heppner,97836
105210,610 nw 11tth street,good shepherd medical center,or,hermiston,97838
105211,170 ford rroad,blue mountain hospital,or,john day,97845
105212,900 sunsett drive,grande ronde hospital,or,la grande,97850
105213,351 sw 9thh street,saint alphonsus medical center  ontario inc,or,ontario,97914
105214,202 northdivision street plastreet plaza one,multicare auburn medical center,wa,auburn,98001
105215,34515 9thavenue southuth,st francis community hospital,wa,federal way,98003
105216,1035116thh ave ne,overlake hospital medical center,wa,bellevue,98004
105217,1450 batteersby avenueue,st elizabeth hospital,wa,enumclaw,98022
105218,21601 76thh avenue westest,swedish edmonds hospital,wa,edmonds,98026
105219,751 ne blaakely dr,swedish issaquah,wa,issaquah,98029
105220,10200 ne 1132nd st,bhc fairfax hospital,wa,kirkland,98034
105221,12040 ne 1128th streetet,evergreenhealth medical center,wa,kirkland,98034
105222,17700 se 2272nd st,multicare covington medical center,wa,covington,98042
105223,400 s 43rdd st,valley medical center,wa,renton,98055
105224,9801 fronttier ave see,snoqualmie valley hospital,wa,snoqualmie,98065
105225,925 senecaa st,virginia mason medical center,wa,seattle,98101
105226,325 9th avvenue,harborview medical center,wa,seattle,98104
105227,4800 sandpoint way ne po bone po box c5371,seattle childrens hospital,wa,seattle,98105
105228,201  16thh avenue eastast,kaiser permanente central hospital,wa,seattle,98112
105229,747 broadwway,swedish medical center,wa,seattle,98122
105230,500 17th aavenue,swedish medical center  cherry hill,wa,seattle,98122
105231,2600 southhwest holdenen,navos,wa,seattle,98126
105232,1550 northh 115th streetreet,uw medicinenorthwest hospital,wa,seattle,98133
105233,16251 sylvvester road swd sw,highline medical center,wa,burien,98166
105234,12844 miliitary road southsouth,cascade behavioral hospital,wa,tukwila,98168
105235,1959 ne paacific st  box 35615box 356151,university of washington medical ctr,wa,seattle,98195
105236,1321 colbyy avenue,providence regional medical center everett,wa,everett,98201
105237,1211  24thh street,island hospital,wa,anacortes,98221
105238,330 s stilllaguamish aveave,cascade valley hospital,wa,arlington,98223
105239,2901 squallicum parkwayway,st joseph hospital,wa,bellingham,98225
105240,101 northmain streetet,whidbeyhealth medical center,wa,coupeville,98239
105241,1117 sprinng street,peacehealth peace island medical center,wa,friday harbor,98250
105242,3955 156thh st ne,smokey point behavioral hospital,wa,marysville,98271
105243,14701 179tth se,evergreenhealth monroe,wa,monroe,98272
105244,1415 kincaaid street,skagit valley hospital,wa,mount vernon,98274
105245,3475 northh saratoga streetstreet,nh oak harbor,wa,oak harbor,98277
105246,2000 hospiital drive,peacehealth united general medical center,wa,sedro woolley,98284
105247,2520 cherrry avenue,harrison memorial hospital,wa,bremerton,98310
105248,1 boone rooad bremertonton,nh bremerton,wa,bremerton,98312
105249,530 bogachhiel way,forks community hospital,wa,forks,98331
105250,11567 cantterwood boulevard nwulevard nw,st anthony hospital,wa,gig harbor,98332
105251,521 adamsstreet,arbor health morton hospital,wa,morton,98356
105252,939 caroliine st,olympic medical center,wa,port angeles,98362
105253,834 sheriddan street,jefferson healthcare,wa,port townsend,98368
105254,401 15th aavenue se,multicare good samaritan hospital,wa,puyallup,98372
105255,1717 southh j street,st joseph medical center,wa,tacoma,98405
105256,315 s mlkjr way,tacoma general allenmore hospital,wa,tacoma,98405
105257,317 martinn luther king jr w bing jr w box 5299,mary bridge childrens hospital,wa,tacoma,98415
105258,9040 jacksson avenue,madigan amc ft lewis,wa,tacoma,98431
105259,11315 briddgeport way s wy s w,st clare hospital,wa,lakewood,98499
105260,3900 capittal mall dr swr sw,capital medical center,wa,olympia,98502
105261,413 lillyroad ne,providence st peter hospital,wa,olympia,98506
105262,915 andersson drive,grays harbor community hospital,wa,aberdeen,98520
105263,914 s scheeuber road,providence centralia hospital,wa,centralia,98531
105264,600 east mmain streett,summit pacific medical centerswing bed unit,wa,elma,98541
105265,901 mt vieew drive,mason general hospital  family of clinics,wa,shelton,98584
105266,800 alderstreet,willapa harbor hospital,wa,south bend,98586
105267,310 southroosevelt,klickitat valley hospital,wa,goldendale,98620
105268,174 firstavenue northrth,ocean beach hospital,wa,ilwaco,98624
105269,1615 delawware streett,peacehealth st john medical center,wa,longview,98632
105270,400 ne motther joseph placeh place,peacehealth southwest medical center,wa,vancouver,98668
105271,211 skylinne drive,skyline hospital,wa,white salmon,98672
105272,2211 ne 1339th streett,legacy salmon creek medical center,wa,vancouver,98686
105273,820 northchelan avenueenue,confluence health wenatchee valley hosp  clinics,wa,wenatchee,98801
105274,1201 southh miller streettreet,central washington hospital,wa,wenatchee,98807
105275,507 hospittal way,three rivers hospital,wa,brewster,98812
105276,503 east hhighland,lake chelan community hospital,wa,chelan,98816
105277,200 nat waashington wayway,columbia basin hospital,wa,ephrata,98823
105278,817 commerrcial streetet,cascade medical center,wa,leavenworth,98826
105279,801 east wwheeler roadad,samaritan hospital,wa,moses lake,98837
105280,810 jasminne street,mid valley hospital,wa,omak,98841
105281,908 10th aavenue southwestthwest,quincy valley hospital,wa,quincy,98848
105282,203 southwestern,north valley hospital,wa,tonasket,98855
105283,110 southninth ave,astria regional medical center,wa,yakima,98902
105284,2811 tietoon drive,yakima valley memorial hospital,wa,yakima,98902
105285,603 southchestnut,kittitas valley community hospital,wa,ellensburg,98926
105286,1016 tacomma avenue,astria sunnyside hospital,wa,sunnyside,98944
105287,502 w fourrth ave,astria toppenish hospital,wa,toppenish,98948
105288,850 maplestreet  p o box  ap o box  a,eastern state hospital,wa,medical lake,99022
105289,500 east wwebster,providence st joseph hospital,wa,chewelah,99109
105290,1200 westfairview,whitman hospital and medical center,wa,colfax,99111
105291,982 east ccolumbia,providence mount carmel hospital,wa,colville,99114
105292,10 nicholss street,lincoln hospital,wa,davenport,99122
105293,411 fortuyyn road,coulee medical center,wa,grand coulee,99133
105294,714 west ppine streett,newport community hospital,wa,newport,99156
105295,502 e amennde drive,odessa memorial healthcare center,wa,odessa,99159
105296,835 s bishhop blvd,pullman regional hospital,wa,pullman,99163
105297,36 klondikke road,ferry county memorial hospital,wa,republic,99166
105298,903 southadams,east adams rural hospital,wa,ritzville,99169
105299,104 w 5thave,inland northwest behavioral health,wa,spokane,99204
105300,101 west 88th avenue,prov sacred hrt med ctr  childs hosp,wa,spokane,99204
105301,911 west 55th avenue,shriners hospital for children,wa,spokane,99204
105302,5633 northh lidgerwoodod,providence holy family hospital,wa,spokane,99208
105303,w 800 fiftth avenue,multicare deaconess hospital,wa,spokane,99210
105304,12606 eastt mission avenueavenue,multicare valley hospital,wa,spokane,99216
105305,520 n fourrth avenue,lourdes medical center,wa,pasco,99301
105306,1012 southh 3rd streetet,dayton general hospital,wa,dayton,99328
105307,900 southauburn streetreet,trios,wa,kennewick,99336
105308,315 north14th avenueue,othello community hospital,wa,othello,99344
105309,66 north ssixth streetet,garfield county memorial hospital,wa,pomeroy,99347
105310,723 memoriial street,prosser memorial hospital,wa,prosser,99350
105311,888 swiftblvd,kadlec regional medical center,wa,richland,99352
105312,1175 caronndelet driveve,lourdes counseling center,wa,richland,99352
105313,401 w popllar st,providence st mary medical center,wa,walla walla,99362
105314,1221 highlland avenuee,tristate memorial hospital,wa,clarkston,99403
105315,673 mdg 59955 zeamer aveave,673rd medical group joint base elmendorfrichardson,ak,jber,99506
105316,4315 diploomacy dr,alaska native medical center,ak,anchorage,99508
105317,3700 piperr street,alaska psychiatric institute,ak,anchorage,99508
105318,2801 debarrr road,alaska regional hospital,ak,anchorage,99508
105319,2530 debarrr rd,north star hospital,ak,anchorage,99508
105320,3200 proviidence driveve,providence alaska medical center,ak,anchorage,99508
105321,po box 2877,yukon kuskokwim delta reg hospital,ak,bethel,99559
105322,po box 1600  602 chase avenuease avenue,cordova community medical center,ak,cordova,99574
105323,p o box 1330,kanakanak hospital,ak,dillingham,99576
105324,4300 bartllett st,south peninsula hospital,ak,homer,99603
105325,1915 eastrezanof driverive,providence kodiak island medical ctr,ak,kodiak,99615
105326,2500 southh woodworth looph loop,matsu regional medical center,ak,palmer,99645
105327,417 firstavenue po box 365o box 365,providence seward hospital,ak,seward,99664
105328,250 hospittal place,central peninsula general hospital,ak,soldotna,99669
105329,po box 5500,providence valdez medical center,ak,valdez,99686
105330,1650 cowlees street,fairbanks memorial hospital,ak,fairbanks,99701
105331,4076 neelyy road,bassett ach ft wainwright,ak,fort wainwright,99703
105332,7000 uulast,samuel simmonds memorial hospital,ak,barrow,99723
105333,po box 43,maniilaq health center,ak,kotzebue,99752
105334,1000 gregkruschek avenue pavenue p o box 966,norton sound regional hospital,ak,nome,99762
105335,3260 hospiital dr,bartlett regional hospital,ak,juneau,99801
105336,po box 5899,petersburg medical center,ak,petersburg,99833
105337,222 tongasss dr,mt edgecumbe hospital,ak,sitka,99835
105338,209 mollerr drive,sitka community hospital,ak,sitka,99835
105339,3100 tongaass avenue,ketchikan medical center,ak,ketchikan,99901
105340,310 bennettt street po box 108po box 1081,searhc wrangell medical centercah,ak,wrangell,99929
