SR_NUM,SOURCE_IDENTIFIER,DATA_SOURCE_NAME,PROTOCOL_NUMBER,SITE_NUM,UNIQUE_SITE_ID,COUNTRY,SITE_NAME,STATE,CITY,POSTAL_CODE,SITE_STATUS,CONCAT_ADDRESS
1,CDM,ICON,C16007,28001,,Italy,cardiology  amyloidosis research  treatment center fondazione irccs policlinico san matteo,,pavia,27100,ACTIVE,viale golgi 19
2,CDM,ICON,C25001,28001,,Italy,azienda sanitaria ospedaliera sgiovanni battista molinette,italy,torino,10126,ACTIVE,ospedale sgiovanni battista molinettedermatologia 2corso bramante 8890
514,CDM,PPD,C16021,28113,,Italy,azienda ospedaliero universitaria policlinico vittorio emanuele,sicilia,catania,95123,Active - No Longer Recruiting,via santa sofia 78
4,CDM,ICON,C25002,28001,,Italy,clinica di oncoematologia pediatrica azienda ospedalierauniversita di padova,italy,padova,35128,ACTIVE,via giustiniani3
5,CDM,ICON,C25003,,,Italy,ematologia 1,,genova,16132,ACTIVE,irccs aou san martino istlargo r benzi 10monoblocco 11° piano lato ponente
515,CDM,PPD,C14023,1-43W27DH,,Italy,asst papa giovanni xxiii  azienda ospedaliera papa giovanni xxiii,lombardia,bergamo,24128,Disqualified,largo barozzi 1
3,CDM,ICON,C25001,28003,,Italy,istematologia e oncologia medica le aseragnoli,,bologna,40138,ACTIVE,azienda ospedalierouniversitaria policlinico sorsolamalpighi via massarenti 9istituto di ematologia l e  aseragnolivia massarenti 9
7,CDM,ICON,C25001,28003,,Italy,istituto di ematologia seragnoli,province bologna,bologna,40138,ACTIVE,policlinico santorsola malpighi via massarenti 9istituto di ematologia l e  aseragnolivia massarenti 9
8,CDM,ICON,C25001,28003,,Italy,policlinico sorsolamalpighi uo dermatologia  university of bologna,bo,bologna,40138,ACTIVE,via massarenti 1istituto di ematologia l e  aseragnolivia massarenti 9
9,CDM,ICON,C25001,28004,,Italy,azienda ospedaliera universitaria careggi,italy,firenze,50134,ACTIVE,aou careggiematologia pad 16largo brambilla 3
11,CDM,ICON,C25003,,,Italy,clinica ematologica ospedale policlinico san martino irccs,ge,genova,16132,ACTIVE,irccs aou s martinoist largo rosanna benzi 10
520,CDM,PPD,C14023,28009,,Italy,grande ospedale metropolitano bianchimelacrinomorelli,,reggio calabria,89100,Withdrawn,via g melacrino
12,CDM,ICON,C25003,28002,,Italy,pharmacy,italy,napoli,80131,ACTIVE,azienda ospedaliera universitaria federico iivia sergio pansini 5padiglione 24
14,CDM,ICON,C25003,28004,,Italy,comitato etico indipendente cagliari,,cagliari,09124,ACTIVE,via ospedale 54
525,CDM,PPD,C14023,28001,,Italy,azienda sanitaria ospedaliera s luigi gonzaga,,orbassano,10043,Withdrawn,regione gonzole 10
15,CDM,ICON,C25003,28004,,Italy,local laboratory ospedale oncologico di riferimento regionale armando businco,,cagliari,09121,ACTIVE,via edward jenner
528,CDM,PPD,C16010,28007,,Italy,ospedale s eugenio,lazio,roma,144,Closed,piazzale umanesimo 10
18,CDM,ICON,C25003,28008,,Italy,clinica di ematologia  ospedali riuniti di ancona,,torrette di ancona,60020,ACTIVE,via conca 71
19,CDM,ICON,C25003,28009,,Italy,comitato etico irccs ifo,,roma,00144,ACTIVE,via elio chianesi 53
530,CDM,PPD,C16029,1-107UW9N,,Italy,la maddalena  casa di cura,,palermo,90146,Disqualified,via san lorenzo colli 312doncoematologia
21,CDM,ICON,C25003,28013,,Italy,comitato etico indipendente int milano,,milano,20133,ACTIVE,via giacomo venezian 1
23,CDM,ICON,C16007,28001,,Italy,comitato di bioetica,pavia,pavia,27100,ACTIVE,co direzione scientifica padiglone 10bviale golgi 19
24,CDM,ICON,C25003,28002,,Italy,azienda ospedaliero universitaria federico ii di napoli,campania,napoli,80131,ACTIVE,policlinico federico ii via s pansini 5via sergio pansini 5
536,CDM,PPD,C16029,1-Y2IF0C,,Italy,ospedale casa sollievo della sofferenza irccs,puglia,san giovanni rotondo,71013,Disqualified,viale cappuccini 1
25,CDM,ICON,C25003,28002,,Italy,universita degli studi di napoli federico ii,napoli,napoli,80131,ACTIVE,via pansini  5via sergio pansini 5
27,CDM,ICON,C25003,28004,,Italy,uo ematologia e ctmo ospedale oncologico a businco,,cagliari,09121,ACTIVE,via e jenner 1
28,CDM,ICON,C25003,28005,,Italy,comitato etico università cattolica sacro cuore,,roma,00168,ACTIVE,largo a gemelli 8
29,CDM,ICON,C25003,28005,,Italy,dipartimento di bioimaging e scienze radiologiche,,roma,00168,ACTIVE,policlinico universitario a gemelli  università cattolica s cuorelargo a gemelli 8
30,CDM,ICON,C16007,28001,,Italy,ert shipment address  fondazione ircc policlinico san matteo centro amiloidosi,,pavia,27100,ACTIVE,padiglione forlanini 3° pianopiazzale golgi 19
31,CDM,ICON,C25002,28002,,Italy,osppedale bambin gesu,rome,rome,00165,ACTIVE,san¿onofrio 4
32,CDM,ICON,C25002,28002,,Italy,sc farmacia ospedaliera irccs ospedale pediatrico bambino gesù,italy,rome,00165,ACTIVE,piazza santonofrio 4
33,CDM,ICON,C25003,,,Italy,irccs  azienda ospedaliera universitaria  ist san martino,genova,genova,16132,ACTIVE,largo rosanna benzi 10
34,CDM,ICON,HGT-MLD-071,036,,Italy,unita operativa di epidemiologia,,roma,00165,ACTIVE,osp bambino gesù pzza s onofrio 165
544,CDM,PPD,C16019,1-2VCRO9,,Italy,aou maggiore della carità,piemonte,novara,28100,Disqualified,corso mazzini 18struttura complessa a direzione universitaria ematologia
36,CDM,IQVIA,161302,161302-501,1-1V0B3CR,Italy,azienda ospedaliero universitaria pisana,pisa,pisa,56126,Dropped,via roma 67
42,CDM,ICON,C25003,28009,,Italy,laboratorio analisi del dipartimento di ematologia istituto regina elena,italy,rome,00144,ACTIVE,regina elena cancer institutevia elio chianesi 53
43,CDM,ICON,C25003,28010,,Italy,sc ematologia aso scroce e carle,italy,cuneo,12100,ACTIVE,cuneo via mcappino 26
1068,CDM,PPD,SHP634-401,401513,,Italy,università di pisa,toscana,pisa,56126,Disqualified,via roma 67dipartimento di medicina interna  istituto di reumatologia clinica
44,CDM,ICON,C25003,28011,,Italy,irccs centro di riferimento oncologico della basilicata,,rionero in volture,85028,ACTIVE,dipartimento oncoematologicovia padre pio 1
556,CDM,PPD,C16017,28003,,Italy,irccs giovanni paolo ii istituto oncologico,puglia,bari,70124,Closed,via orazio flacco 65
46,CDM,ICON,C25003,28012,,Italy,istituto clinico humanitas  humanitas cancer center,,rozzano ¿ milano,20089,ACTIVE,head of hematology departmentvia manzoni 56
47,CDM,ICON,C25003,28012,,Italy,servizio farmacia  istituto clinico humanitas,,rozzano mi,20089,ACTIVE,via manzoni 56via manzoni 56
561,CDM,PPD,C16029,28005,,Italy,ospedale oncologico regionale a businco,,cagliari,09121,Withdrawn,via e jenner 1uo ematologia e centro trapianti di midollo osseo
48,CDM,ICON,C25003,28013,,Italy,fondazione irccs istituto nazionale dei tumori,,milano,20133,ACTIVE,via venezian 1
1071,CDM,PPD,SHP630-001,1-SM524V,,Italy,asst santi paolo e carlo  azienda universitariapolo universitario san paolo,lombardia,milano,20142,Disqualified,via a di rudini 8
52,CDM,IQVIA,071102,383,1-2OX1HYL,Italy,azienda ospedaliera pediatrica santobono pausillipon,napoli,napoli,80122,Enrollment Open,via posillipo 226
53,CDM,IQVIA,071301,386,1-2XP5W0X,Italy,fondazione policlinico universitario agostino gemelli irccs,roma,roma,00168,Closed,servizio malattie emorragiche e trombotiche largo gemelli 8ala j piano 3
54,CDM,IQVIA,161301,161301-051,1-2PH8CNB,Italy,azienda socio sanitaria territoriale degli spedali civili di brescia,brescia,brescia,25123,Dropped,piazzale spedali civili sn
55,CDM,IQVIA,161302,161302-500,1-1UX7Y8E,Italy,azienda ospedaliero universitaria ospedali riuniti,torrette di ancona,ancona,60126,Dropped,via conca 71ita1671
56,CDM,IQVIA,161403,281,1-1JNRSH1,Italy,azienda ospedaliera città della salute e della scienza di torino,torino,torino,10126,Enrollment Open,corso spezia 60
57,CDM,IQVIA,161403,282,1-1RBBRAC,Italy,azienda ospedalierouniversitaria santa maria della misericordia,udine,udine,33100,Enrollment Open,ple smaria della misericordia 15
58,CDM,IQVIA,161403,283,1-1QG1FDL,Italy,irccs ospedale casa sollievo della sofferenza,san giovanni rotondo,foggia,71013,Enrollment Closed,viale cappuccini 1liver unit  irccs san giovanni rotondo
59,CDM,ICON,C25001,28002,,Italy,istituto di ricovero e cura a carattere scientifico national cancer insititute,pordenone,aviano,33081,ACTIVE,via franco gallini 2diprtiemento di oncoematologiavia fgallini 2
1083,CDM,PPD,TAK-079-1005,28503,,Italy,irccs aou san martino,liguria,genova,16132,Submitted,largo daneo  3dipartimento di neuroscienze riabilitazione oftalmologia genetica e scienze maternoinfantili
61,CDM,ICON,C25003,,,Italy,farmacia antiblastici ufa,,genova,16132,ACTIVE,irccs aou san martino istlargo r benzi 10ex isolamento piano 2°
567,CDM,PPD,C16029,1-YFS7I1,,Italy,istituto europeo di oncologia,lombardia,milan,20141,Disqualified,via ripamonti 435
566,CDM,PPD,C16029,28017,,Italy,azienda ospedaliera ospedali riuniti marche nord,marche,pesaro,61122,Close-Out Ready,via lombroso 1uoc ematologia e centro trapianti
1088,CDM,PPD,TAK-079-1004,28405,,Italy,azienda sanitaria universitaria giuliano isontina asugi,,trieste,34125,Active - Recruiting,piazza dellospitale 1
572,CDM,PPD,C16029,28019,,Italy,azienda ospedaliera cardinale g panico,lecce,tricase,73039,Withdrawn,via san pio x 4
64,CDM,ICON,C25003,28007,,Italy,farmacia ospedaliera,15121,alessandria,15121,ACTIVE,ao ss antonio e biagio e c arrigovia venezia 16piano terra
578,CDM,PPD,C16019,1-4KXEL1,,Italy,istituto nazionale per lo studio e la cura dei tumori fondazione giovanni pascale,campania,napoli,80131,Disqualified,via mariano semmola
581,CDM,PPD,C16029,1-ZD12II,,Italy,ospedale civile dellannunziata,calabria,cosenza,87100,Disqualified,via felice migliori
582,CDM,PPD,C21015,1-1FGBZ1,,Italy,fondazione del piemonte per l�oncologia irccs,piemonte,candiolo,10060,Disqualified,strada provinciale 142 km 395
1095,CDM,PPD,TAK-079-1004,28403,,Italy,azienda ospedaliera di rilievo nazionale e di alta specializzazione garibaldi,sicilia,catania,95122,Active - Not Yet Recruiting,via palermo 636uoc ematologia
71,CDM,IQVIA,161505,285,1-2O2TDLJ,Italy,azienda ospedaliera universitaria policlinico g martino,messina,messina,98122,Enrollment Open,via consolare valeria1
1097,CDM,PPD,SHP675-301,1-78GKRLT,,Italy,ospedale guglielmo da saliceto,,piacenza,29100,Disqualified,via taverna 49
72,CDM,IQVIA,161505,284,1-2O2TDKL,Italy,azienda ospedaliera universitaria policlinico tor vergata,roma,roma,00133,Essential Documents in place,viale oxford 81azienda ospedaliera univ pol tor vergata  dermatologia
73,CDM,IQVIA,201501,815,1-2HR1Y0H,Italy,fondazione irccs ca granda ospedale maggiore policlinico,milano,milano,20122,Enrollment On-Hold,via francesco sforza 28
74,CDM,IQVIA,241501,121,1-2SW0CRE,Italy,azienda ospedaliera nazionale santi antonio e biagio e cesare arrigo,alessandria,alessandria,15100,Prematurely Closed,via venezia 16
1101,CDM,PPD,SHP647-221,1-5WSAUCA,,Italy,nuovo ospedale civile s agostinoestense di baggiovara,emiliaromagna,modena località baggiovara,41126,Disqualified,via giardini 1355
78,CDM,IQVIA,C14011,28001,1-5I78FK,Italy,ospedale santeugenio,,,,,
79,CDM,IQVIA,C14012,28007,1-55L4S3,Italy,ospedale oncologico armando businco,,,,,
76,CDM,IQVIA,AD-4833/TOMM40_301,5072,1-1HOO26E,Italy,azienda ospedaliera di perugia ospedale s maria della misericordia,,,,ACTIVE,
590,CDM,PPD,C16029,28006,,Italy,arcispedale santa maria nuova,emiliaromagna,reggio emilia,42123,Close-Out Ready,via risorgimento 80struttura complessa di  ematologia
82,CDM,IQVIA,C14012,28006,1-5ESI7L,Italy,istituto tumori giovanni paolo ii irccs ospedale oncologico bari,,,,,
83,CDM,IQVIA,C14012,28009,1-79JDJN,Italy,ospedale degli infermi,,,,,
80,CDM,IQVIA,C14012,28001,1-4CFR1O,Italy,azienda ospedaliera universitaria policlinico santorsola malpighi,,,,,
81,CDM,IQVIA,C14012,28004,1-4CFQYJ,Italy,azienda ospedaliero universitaria consorziale policlinico di bari,,,,,
86,CDM,ICON,C25001,28002,,Italy,cro instituto nazionale tumori di aviano,pordenone,aviano,33081,ACTIVE,divisione di oncologia medica avia pedemontana occidentale 12via fgallini 2
599,CDM,PPD,C21015,1-1FGBYJ,,Italy,presidio ospedaliero san donato,toscana,arezzo,52100,Disqualified,via nenni 20
600,CDM,PPD,FOS,206,,Italy,sc neurofisiopatologia  perugia,,perugia,06122,Disqualified,località santandrea delle frattecardiologia
84,CDM,IQVIA,C14018,28103,1-12JD71Z,Italy,azienda socio sanitaria territoriale niguarda grande ospedale metropolitano niguarda,,,,,
85,CDM,IQVIA,C25004,28002,1-272ZSD5,Italy,azienda ospedaliera universitaria policlinico santorsola malpighi,bologna,bologna,40138,Enrollment Closed,via massarenti 9policlinico sorsolamalpighipoli building 11
601,CDM,PPD,FOS,089,,Italy,azienda ospedaliera pugliese ciaccio,calabria,catanzaro,88100,Active - Recruiting,viale pio xunità operativa di pediatria  ambulatorio di pediatria genetica
92,CDM,ICON,C25002,28002,,Italy,centro pettac,,roma,00168,ACTIVE,facoltà di medicina e chirurgia a gemellilargo f vito 1
90,CDM,IQVIA,C26002,28004,1-19MCI5P,Italy,azienda ospedaliero universitaria san martino,,,,,
606,CDM,PPD,FOS,265,,Italy,careggi university hospital,firenze,firenze,85,Disqualified,viale morgagni
602,CDM,PPD,FOS,194,,Italy,ospedale ss annunziata,,cento,44042,Active - Recruiting,via vicini 2centro per la diagnosi e cura malattie dell intestino
95,CDM,ICON,C25003,,,Italy,azienda ospedaliero  universitaria policlinico di modena,modena,modena,41124,ACTIVE,via del pozzo 71
97,CDM,ICON,C25003,,,Italy,dip di medicina diagnostica clinica e di sanita pubblica,modena,modena,41124,ACTIVE,aou di modena  policlinico  via del pozzo 71
99,CDM,ICON,C25003,28010,,Italy,laboratorio di ematologia,,cuneo,12100,ACTIVE,azienda ospedaliera s croce e carlevia m coppino 26piano seminterrato
100,CDM,ICON,C25003,28010,,Italy,ospedale civile di cuneo santa croce e carle,cuneo,cuneo,12100,ACTIVE,divisione di cardiologia  utic
102,CDM,ICON,C25003,28010,,Italy,sc farmacia,,cuneo,12100,ACTIVE,ospedale a carlevia a carle 5
105,CDM,IQVIA,MLN0002-3026,28006,1-1QW26BV,Italy,azienda ospedaliero universitaria policlinico paolo giaccone,,,,,
108,CDM,ICON,HGT-MLD-071,036,,Italy,farmacia ospedale bambino gesu,roma gianicolo,roma,00146,ACTIVE,roma gianicolo  padiglione santonofrio i pianoviale ferdinando baldelli 41magazzino dispositivi medici
622,CDM,PPD,C16029,1-YWQSRJ,,Italy,ospedale san maurizio,,bolzano,39100,Disqualified,via lorenz bohler 5
110,CDM,IQVIA,071102,381,1-2OWUCZM,Italy,ospedale pediatrico bambino gesù,roma,roma,00165,Enrollment Open,piazza sant onofrio 43° piano stanza k5
112,CDM,IQVIA,MLN0002-3028,7067,1-1IZNK4H,Italy,azienda ospedaliera universitaria federico ii,,,,,
626,CDM,PPD,C21015,1-121J0Q,,Italy,ospedale livorno,,livorno,57100,Withdrawn,viale alfieri 36
114,CDM,IQVIA,161505,291,1-34DE82E,Italy,casa di cura del policlinico,milano,milano,20144,Essential Documents in place,via dezza 49
115,CDM,IQVIA,161505,292,1-37QD605,Italy,azienda ospedaliera universitaria policlinico umberto i  università di roma la sapienza,roma,roma,00161,Selected,via delluniversità 30
116,CDM,IQVIA,MLN0002SC-3027,28007,1-1SDWVUH,Italy,istituto clinico humanitas,,,,,
629,CDM,PPD,C21015,1-121J47,,Italy,asst di cremona  azienda socio sanitaria territoriale di cremona,lombardia,cremona,26100,Withdrawn,viale concordia 1
120,CDM,IQVIA,201601,814,1-307DIET,Italy,presidio ospedaliero di castelfranco veneto,castelfranco veneto,treviso,31033,Enrollment Closed,via dei carpani 16
124,CDM,IQVIA,241501,127,1-2W55UUT,Italy,istituto clinico humanitas,rozzano,milano,20089,Enrollment Open,via manzoni 56
127,CDM,IQVIA,MA25101,28011,1-1H9XUWB,Italy,azienda ospedaliera universitaria policlinico tor vergata,,,,,
128,CDM,IQVIA,MLN0002-3026,28004,1-1QTX8KE,Italy,azienda ospedaliera ospedale cannizzaro,,,,,
129,CDM,IQVIA,MLN0002-3026,28009,1-1QTX8Z9,Italy,azienda ospedaliera di padova,,,,,
130,CDM,IQVIA,MLN0002-3026,28014,1-1QTX99T,Italy,seconda università degli studi di napoli,,,,,
132,CDM,IQVIA,MLN0002SC-3027,28003,1-1S4J6Q1,Italy,azienda ospedaliera vincenzo cervello,,,,,
133,CDM,IQVIA,MLN0002SC-3027,28010,1-1SEAF9V,Italy,irccs policlinico san donato,,,,,
136,CDM,IQVIA,C25004,28005,1-272ZSEH,Italy,fondazione irccs policlinico san matteo,pavia,pavia,27100,Enrollment Closed,piazzale golgi19
650,CDM,PPD,IOS,166,,Italy,presidio policlinico di monserrato,sardegna,monserrato,09042,Active - Recruiting,ss 554 bivio per sestu
140,CDM,IQVIA,MA25101,28008,1-1CK8NH7,Italy,arcispedale s maria nuova azienda ospedaliera di reggio emilia,,,,,
652,CDM,PPD,MLN0002-3024,1-8E2ICFM,,Italy,hospital virgen de la concha,zamora,zamora,49022,Void,avenida requejo 35
141,CDM,IQVIA,MLN0002-3026,28001,1-1QTXXAQ,Italy,irccs ospedale casa sollievo della sofferenza,,,,,
142,CDM,IQVIA,MLN0002-3026,28011,1-1QTX8LX,Italy,aou policlinico di modena,,,,,
656,CDM,PPD,MACS-2014-100795,1-F0O9QW,,Italy,asst nord milano  irccs multimedica sesto san giovanni,lombardia,sesto san giovanni,20099,Disqualified,via milanese 300
146,CDM,IQVIA,MLN0002SC-3027,28018,1-1T9RCRY,Italy,azienda socio sanitaria territoriale fatebenefratelli presidio ospedale sacco,,,,,
658,CDM,PPD,MACS-2014-100795,1-F0O9SP,,Italy,università campus bio medico di roma,,roma,00128,Disqualified,via alvaro del portillo 21
151,CDM,ICON,C25003,,,Italy,centro oncologico modenese,,modena,41124,ACTIVE,aou policlinico di modenavia del pozzo 71
154,CDM,IQVIA,MLN0002SC-3030,28002,1-26CTGZ5,Italy,azienda ospedaliera san camillo forlanini,roma,roma,00152,Enrollment Open,circonvallazione gianicolese 87
155,CDM,IQVIA,MLN0002SC-3030,28003,1-26CTH0E,Italy,azienda ospedaliera vincenzo cervello,palermo,palermo,90146,Enrollment Open,via trabucco 180
667,CDM,PPD,MACS-2014-100795,1-F0S7ZY,,Italy,azienda ospedaliera santandrea,,roma,00189,Disqualified,via di grottarossa 1035
669,CDM,PPD,MLN0002-3024,1-7I0U9CE,,Italy,clinica pediatrica e malattie rare,,cagliari,09121,Disqualified,via jenner
156,CDM,ICON,C25001,28002,,Italy,centro di riferimento oncologico irccs di aviano,,aviano pn,33081,ACTIVE,centro di riferimento oncologico irccs di avianodiprtiemento di oncoematologiavia fgallini 2
1183,CDM,PRA,AP24534-14-203,355,1-1FD38K5,Italy,azienda ospedaliera san gerardo di monza,monza e brianza,monza,20090,Activated,via pergolesi 33unit  di ricerca clinica  sezione di ematologia
162,CDM,ICON,C25001,28005,,Italy,irccs irst meldola,italy,meldola,47014,ACTIVE,irccs irst meldola
164,CDM,ICON,C25003,,,Italy,uo laboratorio analisi centrale,,grenova,16132,ACTIVE,largo r benzi 10monoblocco 1° piano
165,CDM,ICON,C25003,,,Italy,uoc farmacia,,genova,16132,ACTIVE,irccs aou san martino  istlargo r benzi 10pad maragliano  piano fondi  magazzino specialità medicinali
166,CDM,ICON,C25003,28001,,Italy,centro ricerche cliniche  istituto di ematologia l e a seragnoli,,bologna,40138,ACTIVE,aou di bolognavia massarenti 9pad 16 ingresso b
676,CDM,PPD,HOS,131,,Italy,azienda ospedaliera g rummo,,benevento,82032,Disqualified,via dellangelo 1istituto di genetica medica
1188,CDM,PRA,AP26113-13-301,598,1-1FC2ATK,Italy,azienda ospedaliera san gerardo di monza,milano,milano,20900,Activated,struttura complessa oncologia medicaazienda ospedaliera sgerardo monzavia pergolesi 33
169,CDM,ICON,C25003,28005,,Italy,university of sacred heart policlinico a gemelli,rome,rome,00168,ACTIVE,largo agostino gemelli 8
170,CDM,ICON,C25003,28007,,Italy,azienda ospedaliera nazionale ss antonio e biagio e cesare arrigo sc ematologia,italy,alessandria,15121,ACTIVE,via venezia 16via venezia 16pad fiandesio 3â° piano
682,CDM,PPD,MLN0002-3024,1-7K1AWJH,,Italy,irccs materno infantile burlo garofolo  incipit  pin,friulivenezia giulia,trieste,34137,Disqualified,via dellistria 651laboratorio di diagnostica avanzata e traslazionale
684,CDM,PPD,MLN0002-3025,3025-28003,,Italy,universita degli studi di padova,veneto,padova,35122,Qualified,via 8 febbraio 2
1190,CDM,PRA,Brigatinib-1001,28003,1-1KJDA0E,Italy,policlinico santorsola malpighi,bologna,bologna,40138,Activated,unita operativa medicina internavia albertoni 15
1191,CDM,PRA,AP24534-14-203,687,1-1FD38E4,Italy,aoui  ospedale policlinico giambattista rossi di borgo roma,verona,verona,37134,Activated,dipartimento di ematologiapiazzale l e a scuro 10
175,CDM,ICON,C25003,28001,,Italy,comitato etico indipendentebologna,,bologna,40138,ACTIVE,via albertoni 15via massarenti 9pad 8
176,CDM,ICON,C25003,28001,,Italy,radiologia,,bologna,40138,ACTIVE,via massarenti 9pad 15pad 8
688,CDM,PPD,FOS,025,,Italy,ortona hospital,,ortona,66026,Disqualified,contrada s liberataunita operative di nefrologia e dialisi
689,CDM,PPD,MLN9708_101,6538014,,Italy,ospedale san giovanni bosco,piemonte,torino,10154,Closed,piazza del donatore di sangue 3
1197,CDM,PRA,AP26113-13-301,631,1-1FC4W2Q,Italy,azienda ospedaliera santandrea,pisa,pisa,56100,Closed,ospedale santa chiaravia roma 67
177,CDM,ICON,C25003,28002,,Italy,azienda ospedaliera universitaria federico ii,,napoli,80131,ACTIVE,dipartimento di biochimica e biotechnologie medichevia sergio pansini 5
1201,CDM,PRA,Brigatinib-3001,28015,1-1L6OLO8,Italy,istituto scientifico universitario san raffaele,milano,milano,20132,Activated,unit operativa di oncologia medicavia olgettina 60
180,CDM,ICON,C25003,28008,,Italy,clinica di ematologia,,torrette di ancona,60020,ACTIVE,ospedali riuniti di anconavia conca 71
693,CDM,PPD,FOS,029,,Italy,ospedale di belcolle,lazio,viterbo,01100,Active - Recruiting,strada sammartinese
696,CDM,PPD,FOS,1-1BBQ1YH,,Italy,ospedale “infermi” rimini,,rimini,47923,Withdrawn,via luigi settembrini
1205,CDM,PRA,AP26113-13-301,479,1-1FA47VI,Italy,azienda unita sanitaria locale di ravenna,ravenna,ravenna,48121,Activated,uoc oncologia medicapoliclinico ravennaviale randi 5
1204,CDM,PRA,AP26113-13-301,478,1-1FA47KM,Italy,istituto tumori napoli fondazione g pascale,napoli,napoli,80131,Activated,oncologia medica toraco polmonarevia mariano semmola
699,CDM,PPD,FOS,276,,Italy,università degli studi di torino,,torino,10126,Active - Recruiting,corso dogliotti 14sc endocrinologia diabetologia e metabolismo  udipartimento di scienze mediche
1212,CDM,PRA,C31005,28006,1-1BVWP7N,Italy,istituto di ricovero e cura a carattere scientifico istituto oncologico veneto,padova,padova,35128,Closed,oncologia medica 1istituto oncologico veneto iov irccsvia gattamelata 64
189,CDM,ICON,C25003,28004,,Italy,ospedale oncologico businco ematologia e ctmo,italy,cagliari,09121,ACTIVE,7° piano ala b via edward jenner 1
702,CDM,PPD,MACS-2014-100795,1-F0O9M3,,Italy,ospedale sandro pertini,lazio,roma,00157,Disqualified,via dei monti tiburtini 385
703,CDM,PPD,MACS-2014-100795,1-F0O9P3,,Italy,ospedale s maria goretti,lazio,latina,04100,Disqualified,via guido reni 87
193,CDM,ICON,C25003,28010,,Italy,comitato etico ao cuneo,,cuneo,12100,ACTIVE,via monte zovetto 18
1219,CDM,PRA,SYR-322_309,28005,1-1FLIUDV,Italy,ospedale policlinico ss annunziata,chieti,chieti,66100,Activated,universita degli studi azienda asl chieti  clinica pediatricavia dei vestini 5
1223,CDM,PRA,TAK-041-2001,Spalletta,1-1L8J9VL,Italy,fondazione santa lucia  istituto di ricovero e cura a carattere scientifico,,roma,00179,Dropped,via ardeatina 306354
712,CDM,PPD,MLN0002-3024,1-DTUQSTL,,Italy,azienda usl di bologna,emiliaromagna,bologna,40133,Eligible for Participation,largo bartolo nigrisoli 2
1225,CDM,PRA,C31004,28009a,1-1G0DYG2,Italy,presidio ospedaliero di lugo,ravenna,ravenna,48100,Closed,ausl di ravennaoncologia medicaviale randi 5
201,CDM,IQVIA,MLN0002SC-3030,28010,1-26CTH2C,Italy,irccs policlinico san donato,san donato milanese,milano,20097,Enrollment Open,piazza edmondo malan 2
205,CDM,IQVIA,161403,287,1-2AM52CF,Italy,azienda socio sanitaria territoriale  sette laghi presidio ospedale di circolo e fondazione macchi,varese,varese,21100,Dropped,viale borri 57
717,CDM,PPD,MLN0002-3024,3024-28002,,Italy,sapienza university of rome,lazio,rome,00161,Qualified,viale regina elena 324pediatric gastroenterology unit
207,CDM,IQVIA,201501,816,1-2HR1Y16,Italy,ospedale san bortolo di vicenza,vicenza,vicenza,36100,Dropped,viale rodolfi 37
1229,CDM,PRA,C34004,28008,1-1C8DFRH,Italy,azienda grande ospedale metropolitano bianchi melacrino morelli,reggio calabria,reggio calabria,89100,Dropped,unit opertiva di ematologiavia melacrino 21
1235,CDM,PRA,Vedolizumab-3035,28004,1-1LL109B,Italy,policlinico universitario di catania,catania,catania,95124,Activated,divisione di ematologiaunita di trapianto di midollovia santa sofia 78
1236,CDM,PRA,Vedolizumab-3035,28006,1-1LV4U3W,Italy,ospedale mazzoni,marche,ascoli piceno,63100,Activated,via degli iris 6
215,CDM,IQVIA,241501,116,1-2SW0CM2,Italy,azienda ospedaliera di catanzaro puglieseciaccio,catanzaro,catanzaro,88100,Enrollment Open,viale pio x 10
217,CDM,IQVIA,261203,543,1-1XGPK58,Italy,azienda ospedaliera universitaria policlinico  vittorio emanuele presidio ferrarotto alessi,catania,catania,95124,Enrollment Open,via g clementi 36
219,CDM,IQVIA,AD-4833/TOMM40_301,5073,1-1K5OXTT,Italy,sdn istituto di ricerca diagnostica e nucleare,,,,ACTIVE,
221,CDM,IQVIA,C14012,28008,1-6J6MKG,Italy,ospedale santa maria delle croci,,,,,
222,CDM,IQVIA,C14012,28010,1-79JDNR,Italy,istituto scientifico romagnolo per lo studio e la cura dei tumori,,,,,
1247,CDM,PRA,AP26113-13-301,767,1-1FA42D2,Italy,policlinico universitario campus biomedico,roma,roma,00128,Activated,dipto oncologia medicavia alvaro del portillo 200
223,CDM,IQVIA,C14018,28106,1-13Y8376,Italy,azienda ospedalierouniversitaria sluigi gonzaga,,,,,
734,CDM,PPD,MLN9708_101,1-3Q6AQJ,,Italy,irccs istituto auxologico italiano,lombardia,milano,20149,Disqualified,via spagnoletto 3
1250,CDM,PRA,Ponatinib-3001,28007,1-1L9MVJG,Italy,azienda usl della romagna,ravenna,ravenna,48121,Activated,uo ematologiaviale vincenzo randi 5
738,CDM,PPD,P2002,1-5PK159O,,Italy,ospedale santa maria della misericordia di perugia,umbria,perugia,06156,Disqualified,piazza menghinistruttura complessa di ematologia con trapianto di midollo osseo
227,CDM,IQVIA,MA25101,28013,1-2E15W7B,Italy,azienda ospedaliera universitaria integrata di verona,,,,,
741,CDM,PPD,NSMM-5001,1-MNRKTB,,Italy,universita degli studi la sapienza,lazio,rome,00161,Disqualified,viale del policlinico 155centro di ematologia
230,CDM,IQVIA,MLN0002-3028,7069,1-1GCK4YN,Italy,azienda ospedaliera san camillo forlanini,,,,,
231,CDM,IQVIA,161403,290,1-2HRAI1S,Italy,fondazione istituto neurologico casimiro mondino,pavia,pavia,27100,Enrollment Open,via mondino 2
1257,CDM,PRA,Brigatinib-2002,28008,1-1KAJK4O,Italy,azienda ospedaliero  universitaria san luigi gonzaga,torino,orbassano,10043,Activated,scdu malattie apparato respiratorio 5 ad indirizzo oncologicovia regione gonzole 10
1258,CDM,PRA,C31004,28010,1-1C5QLJS,Italy,spedali civili di brescia,brescia,brescia,25123,Closed,unit di ostetricia e ginecologiapiazza spedali civili 1
1260,CDM,PRA,C34004,28001,1-1C86O4M,Italy,azienda ospedaliera papa giovanni xxiii,lombardia,bergamo,24127,Closed,usc ematologiapiazza organizzazione mondiale della sanit 1torre 6  4 piano
1261,CDM,PRA,C34004,28006,1-1C86NZY,Italy,azienda ospedalierouniversitaria,novara,novara,28100,Closed,struttura complessa direzione universitaria ematologia scdu ematologiacorso mazzini 18
237,CDM,IQVIA,161505,294,1-4JCFA4M,Italy,ospedale clinicizzato ss annunziata,chieti,chieti,66013,Dropped,via dei vestini
243,CDM,IQVIA,MLN1117-1501,28004,1-1Q01HT9,Italy,azienda ospedaliera universitaria careggi,,,,,
1268,CDM,PRA,TAK-041-2001,Muratori,1-1L8J9UC,Italy,irccs istituto delle scienze neurologiche di bologna,bologna,bologna,40139,Dropped,via altura 3
1270,CDM,PPD,Vedolizumab-4005,1-RSAUHN,,Italy,asst fatebenefratelli sacco  ospedale fatebenefratelli e oftalmico,lombardia,milano,20121,Disqualified,corso di porta nuova 23
246,CDM,IQVIA,AD-4833/TOMM40_301,5042,1-182PII4,Italy,irccs centro san giovanni di dio fatebenefratelli,,,,ACTIVE,
1274,CTMS,,C14006,TBD-300296422,,Italy,ospedale santanna,,,,Not Selected,
1275,CTMS,,C14006,TBD-300296408,,Italy,instituto ospedaliero fondazione poliambulanza,,,,Not Selected,
1276,CTMS,,Sardi - Italy,Sardi - Italy,,Italy,meyer childrens hospital,,,,Active,
1277,CTMS,,C14006,TBD-300296409,,Italy,ospedale policlinico santorsola malpighi,,,,Not Selected,
1278,CTMS,,C14006,TBD-300296423,,Italy,ente ospedaliero ospedali galliera,,,,Not Selected,
252,CDM,IQVIA,071301,385,1-2FNHRB8,Italy,umberto i pol di romauniversità di roma la sapienza,roma,roma,00161,Closed,via benevento 6dipartimento di ematologia clinical trial service piano 1
1281,CDM,PPD,Vedolizumab-4005,1-SY43ZF,,Italy,ospedali riuniti azienda ospedaliero universitaria,puglia,foggia,71122,Disqualified,viale luigi pinto1
1282,CDM,PPD,Vedolizumab-4005,1-SY43ZR,,Italy,azienda complesso ospedaliero s filippo neri,lazio,rome,00135,Disqualified,via giovanni martinotti 20
260,CDM,IQVIA,281102,010,1-2V4MDJ3,Italy,azienda socio sanitaria territoriale papa giovanni xxiii presidio papa giovanni xxiii,bergamo,bergamo,24127,Enrollment Open,piazza oms 1neurologia
1286,CDM,PRA,AP24534-14-203,511,1-1FD38FM,Italy,centro di ematologia policlinico umberto i universita sapienza di roma,roma,roma,00161,Activated,dipartimento di biotecnologie cellulari ed ematologiasezione di ematologiavia benevento 6
1288,CDM,PRA,AP26113-13-301,476,1-1FB8FX2,Italy,azienda ospedaliera di perugia,perugia,perugia,06132,Activated,sc oncologia medicavia gdottori 1
268,CDM,IQVIA,SHP643-303,171,1-4S0PDZR,Italy,ospedale mauriziano umberto i,torino,torino,10128,Dropped,largo filippo turati62
1292,CTMS,,X25015,001-IIS,,Italy,istituto di ematologia e oncologia medica,,,,Active,
270,CDM,IQVIA,TAK-390MR_108,5008,1-1CMUXME,Italy,ospedale pediatrico bambino gesù,,,,,
1295,CTMS,,X25029,001-IIS,,Italy,universita di bologna,,,,Under Consideration,
1294,CTMS,,X25010,001-IIS,,Italy,istituto nazionale tumori milan,,,,Active,
785,CDM,PPD,Pevonedistat-2001,w1-IPDFFV,,Italy,universita degli studi di modena e reggio emilia  modena,emiliaromagna,modena,41121,Disqualified,via universita 4
1299,CDM,PRA,AP26113-13-301,477,1-1FAP7PO,Italy,azienda ospedaliera san giuseppe moscati,avellino,avellino,83100,Activated,uo di oncologia medicacontrada amoretta
1302,CDM,PRA,C31004,28005,1-1C5O1GU,Italy,ente ospedaliero ospedali galliera,genova,genova,16128,Closed,via mura delle cappuccine 1416128 genova
1306,CTMS,PPD,C21004,28003,,Italy,centro di riferimento oncologico,,,,Closed,
798,CDM,PPD,Pevonedistat-3001,1-16QY945,,Italy,azienda ulss 3 serenissima,veneto,venezia,30100,Void,via paccagnella 11uo di ematologia
287,CDM,IQVIA,MLN1117-1501,28001,1-1MZDHGC,Italy,azienda socio sanitaria territoriale di cremona istituti ospitalieri di cremona,,,,,
1311,CTMS,PPD,C21004,28007,,Italy,azienda ospedaliera santandrea,,,,Closed,
294,CDM,IQVIA,241501,120,1-2SW2WMS,Italy,ospedale m bufalini,cesena,forli  cesena,47028,Dropped,viale ghirotti 286
1319,CTMS,,X16008,001-IIS,,Italy,university of torino,,,,Active,
295,CDM,IQVIA,241501,123,1-2SW0CJ5,Italy,ospedale san giovanni bosco,napoli,napoli,80144,Dropped,via fm briganti 255
1323,CTMS,PPD,C21004,,,Italy,ospedale di cattinara,,,,Declined Participation,
1324,CDM,PRA,Vedolizumab-3035,28008,1-1LL00NS,Italy,azienda ospedaliero universitaria ospedali riuniti di ancona,ancona,ancona,60126,Closed,via conca 71torrette
1329,CTMS,PPD,C21005,28009,,Italy,policlinico universitario a gemelli,,,,Closed,
1330,CTMS,PPD,C21004,28002,,Italy,azienda ospedaliera universitaria san giovanni battista,,,,Closed,
307,CDM,IQVIA,SHP643-303,166,1-4S2B7HV,Italy,azienda ospedaliera di cagliari  presidio monserrato,monserrato,cagliari,09042,Selected,ss 554 km 4500
308,CDM,IQVIA,MLN1117-1501,28003,1-1MZEQ29,Italy,ospedale vito fazzi,,,,,
309,CDM,IQVIA,AD-4833/TOMM40_301,5071,1-1I6FJ8G,Italy,azienda ospedaliera card g panico,,,,ACTIVE,
1333,CTMS,PPD,C21005,28006,,Italy,ospedali riuniti di bergamo azienda ospedaliera,,,,Withdrawn,
1335,CTMS,PPD,C21005,28010,,Italy,fondazione del piemonte per oncologia ircc,,,,Closed,
1336,CTMS,,C14006,TBD-300296407,,Italy,ospedale versilia,,,,Not Selected,
1342,CTMS,PPD,C21013,1-1LM1W4T,,Italy,presidio ospedaliero  san donato,,,,Declined Participation,
831,CDM,PPD,Ponatinib-1501,28002,,Italy,fondazione mbbm monza e brianza per il bambino e la sua mamma  co centro maria letizia verga,lombardia,monza,20900,Approved,via cadoreclinica pediatrica
1343,CTMS,PPD,C23003,28405,,Italy,azienda policlinico umberto i,,,,Closed,
322,CDM,IQVIA,TED-R13-002,0701,1-3JX5BL9,Italy,ospedale monsignor raffaele dimiccoli,barletta,bari,70051,Regulatory Green Light,viale ippocrate 15
1348,CTMS,PPD,C23003,1-19UXOAR,,Italy,ospedale infantile regina margherita,,,,Withdrawn,
1349,CTMS,Quintiles,MLN1117-1003,28005,,Italy,iov  istituto oncologico veneto irccs,,,,Selected,
326,CDM,PPD,3004,1-CKH0TP,,Italy,fondazione irccs di rilievo nazionale istituto nazionale neurologico carlo besta,,milano,20133,Disqualified,via celoria 11
327,CDM,PPD,3004,1-CKH0U2,,Italy,asst di monza  azienda ospedaliera san gerardo,lombardia,monza,20900,Disqualified,via donizetti 106
328,CDM,IQVIA,TAK-743-3001,167,1-553RSKR,Italy,azienda ospedaliera universitaria oo rr s giovanni di dio e ruggi daragona,salerno,salerno,84131,Selected,via s leonardo
167,CDM,ICON,C25003,28001,,Italy,investigational drug service,,bologna,40138,ACTIVE,aou di bolognavia massarenti 9pad19
1351,CTMS,PPD,C21013,1-1LLX8PY,,Italy,maggiore della carita,,,,Withdrawn,
842,CDM,PPD,Pevonedistat-3001,1-1CT0MND,,Italy,la sapienza  university,,rome,198,Void,via panama 12
844,CDM,PPD,SHP-001-801,1-60ZRWU,,Italy,ospedale san giuseppe,firenze,empoli,50053,Disqualified,viale giovanni boccaccio
333,CDM,PPD,3004,1-CKH0V5,,Italy,ospedale misericordia e dolce azienda usl 4 prato,veneto,treviso,31100,Disqualified,piazza ospedale 1
1358,CTMS,PPD,C21004,28011,,Italy,fondazione centro san raffaele del monte tabor,,,,Closed,
337,CDM,PPD,3004,1-CSNNHF,,Italy,istituti ortopedici rizzoli,emiliaromagna,bologna,40136,Disqualified,via pupilli 1
340,CDM,PPD,Alofisel-5003,1-3DBC2M5,,Italy,asst fatebenefratelli sacco  ospedale luigi sacco,lombardia,milano,20157,Eligible for Participation,via giovanni battista grassi 74
342,CDM,IQVIA,C26003,28001,1-19MEVHU,Italy,ospedale mater salutis,,,,,
855,CDM,PPD,SHP-608-002,1-1Z2UH6,,Italy,consiglio nazionale delle ricerche cnr,,naples,80131,Disqualified,via pietro castellino 111
1368,CTMS,Quintiles,MLN1117-1003,28004,,Italy,azienda ospedaliera istituti ospitalieri di cremona,,,,Selected,
1369,CTMS,Quintiles,MLN1117-1003,28006,,Italy,fondazione poliambulanza istituto ospedaliero,,,,Selected,
858,CDM,PPD,SHP607-202,154,,Italy,presidio ospedaliero di treviso ca foncello,,treviso,31100,Active - Recruiting,piazzale ospedale 1uoc terapia intensiva neonatale
1370,CTMS,PPD,C23003,1-1C3KTYR,,Italy,azienda ospedaliera a meyer,,,,Withdrawn,
1371,CTMS,PPD,C23003,28402,,Italy,azienda ospedaliera di rilievo nazionale a cardarelli,,,,Closed,
346,CDM,PPD,3004,1-CTPRCS,,Italy,azienda ospedaliera cannizzaro,sicilia,catania,95126,Disqualified,via messina 829
351,CDM,IQVIA,C34001,28003,1-2NB9B0I,Italy,ospedale san raffaele,milano,milano,20132,Closed,via olgettina 60
352,CDM,IQVIA,C14018,58801,1-12JEDMR,Italy,presidio ospedaliero di livorno,,,,,
353,CDM,IQVIA,C25004,28006,1-2VG1OK9,Italy,azienda ospedaliero universitaria ospedale pediatrico meyer,firenze,firenze,50139,Enrollment Closed,viale pieraccini 6
863,CDM,PPD,SHP-608-002,1-1Z2UG0,,Italy,istituto dermopatico dellimmacolata irccs,,rome,00167,Disqualified,via dei monti di creta 104
868,CDM,PPD,SHP607-202,1-15LNM1I,,Italy,asst fatebenefratelli sacco  ospedale dei bambini vittore buzzi  incipit  pin,,milano,20154,Disqualified,via castelvetro 32
870,CDM,PPD,Pevonedistat-2001,w1-IPDFHL,,Italy,azienda ospedaliera universitaria di sassari,sardegna,sassari,07100,Disqualified,viale san pietro 12universita degli studi di sassari istituto di ematologia
358,CDM,IQVIA,TAK-831-2002,28003,1-45LSMHS,Italy,azienda socio sanitaria territoriale degli spedali civili di brescia presidio spedali civili,brescia,brescia,25124,Enrollment Open,ple spedali civili 1
361,CDM,IQVIA,TAK-994-1501,28001,1-4YD1T6M,Italy,università di bolognaclinica neurologicadipartimento di scienze neurologiche,bologna,bologna,40123,Selected,irccs isnb uoc clinica neurologica ospedale bellaria
362,CDM,IQVIA,TAK-994-1501,28004,1-53TBA6U,Italy,irccs oasi maria ss,troina,enna,94018,Selected,via conte ruggero 73
363,CDM,PPD,Alofisel-5004,1-3QGRYGN,,Italy,azienda ospedale università padova  dipartimento salute della donna e del bambino  incipit  pin,veneto,padova,35128,Disqualified,via giustiniani 2uoc gastroenterologia
876,CDM,PPD,SHP-616-211,1-JAW4BR,,Italy,ospedale binaghi,,cagliari,09126,Disqualified,via island guadazzonis 2
364,CDM,PPD,Alofisel-5004,604,,Italy,complesso integrato columbus,roma,roma,00168,Closed,via g moscati 31unità operativa di medicina interna e gastroenterologia
375,CDM,PPD,3004,1-CKH0SZ,,Italy,azienda ospedaliera cannizzaro,,,,Disqualified,
394,CDM,PPD,3004,1-CKH0SN,,Italy,azienda ospedaliera ospedale san carlo,cagliari,cagliari,09134,Disqualified,piazzale ricchi 1
405,CDM,PPD,Alofisel-5003,28001,,Italy,azienda ospedaliero universitaria di bologna  policlinico s orsola malpighi,emiliaromagna,bologna,40138,Active - Recruiting,via pietro albertoni 15
930,CDM,PPD,Pevonedistat-3001,1-16QY8YG,,Italy,azienda ospedalierouniversitaria di ferrara  arcispedale sant anna,ferrara,cona,44124,Disqualified,via aldo moro 8
419,CDM,PPD,C14023,28006,,Italy,azienda ospedaliero universitaria san giovanni battista di torino,,torino,10126,Withdrawn,via genova 3
422,CDM,PPD,Brigatinib-1002,1-61FJUOY,,Italy,istituto g gaslini ospedale pediatrico irccs  incipit  pin,liguria,genoa,16147,Disqualified,largo gerolamo gaslini 5
424,CDM,IQVIA,TAK-994-1501,28003,1-53CJ2HN,Italy,ospedale san raffaele san raffaele turro,milano,milano,20127,Selected,via stamira dancona 20
425,CDM,PPD,C16010,28004,,Italy,aorn a cardarelli,campania,naples,80131,Active - No Longer Recruiting,via antonio cardarelli 9
948,CDM,PPD,SHP-001-801,1-65YYR1,,Italy,azienda ospedaliera di padova,hessen,wiesbaden,65199,Disqualified,ludwigerhardstrasse 100
436,CDM,PPD,C14023,1-439NRCU,,Italy,centro di riferimento oncologico,pordenone,aviano,,Void,via franco gallini 2
955,CDM,PPD,SHP625-306,1-1K8MME6,,Italy,istituto mediterraneo per i trapianti e terapie ad alta specializzazione ismett,,palermo,90127,Disqualified,via ernesto tricomi 5
957,CDM,PPD,SHP630-001,1-SQ8O4X,,Italy,fondazione gb bietti per lo sudio e la ricerca in oftalmologiapresidio ospedaliero britannico,,roma,198,Disqualified,via livenza 3
450,CDM,PPD,C16010,28005,,Italy,azienda ospedaliera s maria di terni,umbria,terni,5100,Active - No Longer Recruiting,viale tristano di jaonnuccio 1
963,CDM,PPD,SHP634-401,401510,,Italy,universita di firenze dipartimento di chirurgia e medicina traslazionale dcmt,firenze,firenze,50139,Active - Recruiting,viale pieraccini 6dipartimento di medicina generale
965,CDM,PPD,SHP-616-211,1-L9UKXR,,Italy,asst della valle olona  azienda ospedaliera s antonio abate di gallarate,varese,gallarate,21013,Disqualified,via pastori 4
454,CDM,PPD,Brigatinib-1002,1-61DPFPZ,,Italy,aou delluniversità degli studi della campania luigi vanvitelli,,napoli,80138,Disqualified,vico luigi de crecchio 7
967,CDM,PPD,SHP647-221,1-5WSAUF6,,Italy,irccs saverio de bellis,,castellana grotte,70013,Disqualified,via turi 27
968,CDM,PPD,SHP675-301,1-3P63B74,,Italy,asst santi paolo e carlo  ospedale san carlo borromeo,lombardia,milano,20153,Disqualified,via pio ii 3
456,CDM,IQVIA,TAK-831-2002,28001,1-45LSMQM,Italy,azienda ospedaliera universitaria università degli studi della campania “luigi vanvitelli”,napoli,napoli,80138,Enrollment Open,largo madonna delle grazie 1
467,CDM,PPD,C16019,28915,,Italy,presidio ospedaliero di pescara,abruzzo,pescara,65100,Closed,via fonte romana 8
468,CDM,PPD,3004,1-CKH0W7,,Italy,presidio ospedaliero vito fazzi,lecce,lecce,73100,Disqualified,piazza filippo muratore
469,CDM,PPD,3004,1-CKH0TC,,Italy,e o ospedali galliera,liguria,genova,16128,Disqualified,mura delle cappuccine 14
471,CDM,PPD,Alofisel-5003,1-3DBC2NY,,Italy,azienda ospedaliera ordine mauriziano di torino,piemonte,turin,10128,Disqualified,via ferdinando magellano 1
987,CDM,PPD,SHP675-301,1-78GKRL4,,Italy,azienda ulss n 7 pedemontana  ospedale san bassiano,,bassano del grappa,36061,Disqualified,via dei lotti 40
995,CDM,PPD,SHP675-301,1-7GM66PH,,Italy,centro ricerche cliniche di verona,veneto,verona,37124,Eligible for Participation,piazzale la scuro 10co policlinico gb rossi
483,CDM,PPD,C16019,1-2R71DN,,Italy,azienda sanitaria ospedaliera s croce e carle,piemonte,cuneo,12100,Disqualified,via m coppino 26struttura complessa ematologia
1009,CDM,PPD,SHP-616-211,1-JAW4D7,,Italy,ospedale di fidenza,emiliaromagna,fidenza,43036,Disqualified,via don enrico tincati 5 località vaio
497,CDM,PPD,C16019,28911,,Italy,ospedale infermi di rimini,emiliaromagna,rimini,47900,Active - No Longer Recruiting,via settembrini 2dipartimento di oncologia e oncoematologia
1014,CDM,PPD,SHP-616-211,1-JAW4CH,,Italy,fondazione istituto g giglio di cefal,,cefalù,90015,Disqualified,contrada pietrapollastra
506,CDM,PPD,C16021,1-98EA40,,Italy,ospedale santa maria delle croci,ravenna,ravenna,48100,Disqualified,viale randi 5uo ematologia
1021,CDM,PPD,SYR-322-309,1-11ASLUA,,Italy,presidio ospedaliero giovanni di cristina,,palermo,,Disqualified,piazza p montalto 2
