SR_NUM,SOURCE_IDENTIFIER,DATA_SOURCE_NAME,PROTOCOL_NUMBER,SITE_NUM,UNIQUE_SITE_ID,COUNTRY,SITE_NAME,STATE,CITY,POSTAL_CODE,SITE_STATUS,CONCAT_ADDRESS
18432,CDM,PPD,SHP647-302,1-165T2T1,,United_States,exemplar research inc  elkins,west virginia,elkins,26241,,55 chenoweth creek road
18434,CDM,PPD,SHP647-303,303-392,,United_States,exemplar research inc  elkins,west virginia,elkins,26241,,812 gorman avenue
18439,CDM,PPD,NSMM-5001,1-TUA2AC,,United_States,united hospital center,west virginia,bridgeport,26330,,327 medical park driveoncology
18440,CDM,PPD,NSMM-5001,1-MT5W7E,,United_States,west virginia clinical trials network,west virginia,morgantown,26505,,364 patterson drivemary babb randolph cancer center
18441,CDM,PPD,TAK-007-2001,1-7FJ0MH7,,United_States,dartmouth hitchcock medical center,west virginia,morgantown,26506,,one medical center drive
18442,CDM,PPD,C16021,58121,,United_States,w va university mary babb randolph cancer center,west virginia,morgantown,26506,,1 medical center drivemary babb randolph cancer center
18444,CDM,PPD,C16027,1-RZQ4GK,,United_States,w va university mary babb randolph cancer center,west virginia,morgantown,26506,,po box 9260mary babb randolph cancer center
18446,CDM,PRA,C34005,58011,1-1CYE8AI,United_States,west virginia university,wv,morgantown,26506,,mary babb randolph cancer center1 medical center drive
18447,CDM,PPD,Pevonedistat-2001,1-FL7MPI,,United_States,west virginia university hospital,west virginia,morgantown,26506,,1 medical center drivemary babb randolph cancer center
18451,CDM,PPD,SHP647-306,1-15YIW56,,United_States,west virginia university hospital,west virginia,morgantown,26506,,8 medical center driveclinical trials research unit
18455,CDM,PPD,SHP647-301,301-378,,United_States,west virginia university hospital,west virginia,morgantown,26506,,one medical center drive
18461,CDM,PPD,TAK-079-1004,1-5QH85C8,,United_States,west virginia univeristy,west virginia,morgantown,265068009,,1 stadium drivepo box 9214
18467,CDM,PPD,SHP-607-201,026,,United_States,west virginia university hospital,west virginia,morgantown,265069180,,one medical center drivedepartment of pediatrics
18468,CDM,PPD,C16029,1-Y4936E,,United_States,w va university mary babb randolph cancer center,west virginia,morgantown,265069300,,1 medical center drivepost office box 9300
18470,CDM,PPD,SHP621-301,301-172,,United_States,clinical trials of americanc llc,north carolina,mt airy,27030,,911 worth street
18476,CDM,PPD,C16014,1-HHT2R,,United_States,center for clinical research,north carolina,winston salem,27103,,145 kimel park drivesuite 262
18477,CDM,PPD,SHP647-305,1-1117O46,,United_States,digestive health specialists,north carolina,winston salem,27103,,2025 frontis plaza boulevardsuite 200
18479,CDM,PRA,TAK-906-2002,58041,1-1JYHXM9,United_States,gastroenterology associates of the piedmont,nc,winston salem,27103,,1901 south hawthorne roadsuite 310
18480,CDM,PPD,NSMM-5001,58059-HOLD,,United_States,novant health oncology specialists,north carolina,winston salem,27103,,1010 bethesda court
18481,CDM,PPD,SHP647-306,1-4BFEE35,,United_States,pmg research of winstonsalem,north carolina,winston salem,27103,,1901 south hawthorne roadsuite 110
18488,CDM,PPD,SHP647-301,1-XEW9RH,,United_States,pmg research of winstonsalem,north carolina,winstonsalem,27103,,145 kimel park drivesuite 306
18490,CDM,PPD,SHP647-305,1-43JRGYL,,United_States,southeastern research center,north carolina,winston salem,27103,,2928 maplewood avenue
18497,CDM,IQVIA,TAK-883-3001,104,1-4RG71CT,United_States,southeastern research center llc,winstonsalem,north carolina,27103,,3019 lyndhurst drive
18499,CDM,PPD,TAK-079-1005,1-6S54DOJ,,United_States,wake forest baptist health,north carolina,winstonsalem,27103,,medical center blvd
18500,CDM,PPD,TAK-071-2002,1-B8W5L36,,United_States,novant clinical research institute,north carolina,winston salem,271033013,,3333 silas creek pkwy
18501,CDM,PPD,SHP647-305,1-XE3MD0,,United_States,pmg research of charlotte llc,north carolina,winston salem,27104,,4505 country club roadgastroenterologysuite 280
18503,CDM,IQVIA,071301,118,1-2NLCJZ7,United_States,comprehensive cancer center of wake forest university,winston salem,north carolina,27157,,medical center blvd
18506,CDM,PPD,SHP647-306,1-25THNA0,,United_States,wake forest baptist health,north carolina,winsonsalem,27157,,medical center blvdsection on gastroenterologysuite 200
18514,CDM,PPD,TAK-007-2001,1-7EY5P7C,,United_States,wake forest baptist medical center  comprehensive cancer center  ppds,north carolina,winston salem,27157,,medical center boulevard
18516,CDM,PPD,Pevonedistat-1016,1-3SC6FNK,,United_States,wake forest baptist medical center  ppds,north carolina,winston salem,27157,,2000 west 1st streetcomprehensive cancer center
18517,CDM,PPD,TAK-079-1004,1-5QH8511,,United_States,wake forest baptist medical center  ppds,north carolina,winston salem,27157,,medical center boulevard
18522,CDM,IQVIA,161403,591,1-1JFDTLZ,United_States,wake forest university,winstonsalem,north carolina,27157,,8th floor hanes buildingmedical center boulevard
18523,CDM,IQVIA,261203,154,1-2O3OPCF,United_States,wake forest university baptist medical center,winstonsalem,north carolina,27157,,medical center boulevarddivision of hematology and oncology
18524,CDM,PPD,Brigatinib-1002,1-6188XOU,,United_States,wake forest university baptist medical center  comprehensive cancer center,north carolina,winston salem,27157,,2000 west 1st street
18527,CDM,PPD,C16021,1-8JW0O6,,United_States,wake forest university health sciences,north carolina,winstonsalem,27157,,medical center boulevardsection of hematology and oncology
18531,CDM,PPD,SHP647-301,1-205DFSC,,United_States,wfu baptist medical center,north carolina,winston salem,27157,,medical center boulevard
18540,CDM,PPD,C16014,1-G4A85,,United_States,randolph cancer center,north carolina,ashboro,27203,,373 n fayetteville street
18541,CDM,PPD,SHP647-305,1-ZVCY9B,,United_States,prima care pc,massachusetts,fall river,2721,,289 pleasant street
18543,CDM,PPD,C16029,1-YF93EI,,United_States,alamance regional medical cancer center,north carolina,burlington,27215,,1236 huffman mill roadsuite 120
18545,CDM,PPD,SHP647-305,1-112J54Y,,United_States,kernodle clinic inc,north carolina,burlington,27215,,1234 huffman mill roadresearch department
18548,CDM,PPD,C16021,1-8K3B10,,United_States,emerywood hematology oncology,north carolina,high point,27262,,302 westwood avenue
18550,CDM,PPD,SHP647-305,1-24QPVTR,,United_States,cone health medical groupmebane,north carolina,mebane,27302,,3940 arrowhead blvdsuite 230
18557,CDM,PPD,SHP620-303,1-TJB5UA,,United_States,cone health regional center for infectious disease,north carolina,greensboro,27401,,301 east wendover avenue
18558,CDM,PPD,C16014,1-E46ZN,,United_States,moses h cone memorial hospital,north carolina,greensboro,27401,,1200 north elm street
18559,CDM,PPD,C16014,58019,,United_States,cone health cancer center,north carolina,greensboro,27403,,501 north elam avenue
18562,CDM,PPD,SHP621-301,1-HI0JKM,,United_States,lebauer research associates pa,north carolina,greensboro,27403,,520 north elam avenue
18565,CDM,PPD,SHP647-301,1-1114N7F,,United_States,pharmquest llc  clinedge  ppds,north carolina,greensboro,27408,,806 green valley roadsuite 305
18567,CDM,PPD,SHP647-305,1-1117NTU,,United_States,triad clinical trials,north carolina,greensboro,27410,,515 college roadsuite 150b
18569,CDM,PPD,SHP465-308,1-19L7OJ8,,United_States,3c family services pa,north carolina,cary,27513,,1901 n harrison
18570,CDM,PRA,C34005,58005,1-1BRJRK8,United_States,lineberger comprehensive cancer center,nc,chapel hill,27514,,101 manning drive
18571,CDM,PPD,Brigatinib-1003,1-61FGW9G,,United_States,north carolina childrens hospital,north carolina,chapel hill,27514,,101 manning drive
18575,CDM,IQVIA,AskBio009-101,20,1-2OKED8R,United_States,university of north carolina at chapel hill,chapel hill,north carolina,27514,,101 manning driveroom n3122 3rd floor connector linkinvestigational drug services
18577,CDM,PPD,SHP621-301,301-101,,United_States,university of north carolina at chapel hill,north carolina,chapel hill,27514,,101 manning driveuniversity of north carolina school of medicine unccampus box 7080
18581,CDM,PPD,C16014,1-FUXPY,,United_States,university of north carolina at chapel hill,north carolina,chapel hill,27514,,101 manning drive
18584,CDM,PPD,TAK665-4003,1-GO0XDBV,,United_States,university of north carolina at chapel hill,north carolina,chapel hill,27514,,450 west drivelineberger comprehensive cancer center
18586,CDM,PRA,Vedolizumab-3035,58008,1-1N4W8KT,United_States,university of north carolina hospitals,nc,chapel hill,27514,,north carolina cancer hospital101 manning drivesecond floor
18587,CDM,PPD,SHP647-307,1-269ZLOK,,United_States,chapel hill internal medicine,north carolina,chapel hill,275142601,,940 martin luther king jr boulevard
18594,CDM,PPD,TAK-079-1005,58510,,United_States,university of north carolina at chapel hill,north carolina,chapel hill,275144220,,101 manning drphysicians office bldgrm 2135
18595,CDM,PPD,TAK-981-1503,1-BAJ2GQX,,United_States,lineberger cancer center,north carolina,chapel hill,275144221,,170 manning dr ofc 3
18596,CDM,PPD,SHP647-301,1-XE2ZL2,,United_States,unc endoscopy center at meadowmont,north carolina,chapel hill,27517,,300 meadowmont village circle
18598,CDM,PPD,TAK-341-1001,1-9W3RGJT,,United_States,unc neurology outpatient clinic,north carolina,chapel hill,275174403,,194 finley golf course rd ste 200
18599,CDM,PPD,SHP647-306,1-25THN0R,,United_States,cary gastroenterology associates,north carolina,cary,27518,,1000 crescent green drivesuite 101
18601,CDM,PPD,SHP647-305,1-24QPVQO,,United_States,cary gastroenterology associates,north carolina,cary,27518,,1000 crescent green drive
18606,CDM,PPD,SHP647-301,1-XFETT2,,United_States,tarheel clinical research,north carolina,cary,27518,,2474319 walnut street
18608,CDM,PPD,C16014,1-C26CJ,,United_States,southeastern medical oncology center,north carolina,goldsboro,27534,,203 cox boulevard
18609,CDM,PPD,SHP647-302,1-21XXTBS,,United_States,wayne health physicians,north carolina,goldsboro,27534,,1506 wayne memorial drive
18616,CDM,PPD,C16014,1-AHP55,,United_States,blood and cancer clinic,north carolina,fayetteville,27540,,2125 valleygate drivesuite 101
18618,CDM,PPD,Pevonedistat-1016,1-3M8FE1J,,United_States,lineberger cancer center,north carolina,chapel hill,27599,,170 manning drivecampus box 7305
18619,CDM,PPD,C16014,1-CLBHI,,United_States,unc hematologyoncology,north carolina,chapel hill,27599,,cb 73053009 old clinic building
18620,CDM,PRA,MLN0002-2003,58034,1-1DUQM30,United_States,university of north carolina  school of medicine,nc,chapel hill,27599,,130 mason farm roadbioinformatics building 4101
18621,CDM,IQVIA,MLN0002SC-3030,58056,1-2LE5I8M,United_States,university of north carolina at chapel hill,chapel hill,north carolina,27599,,130 mason farm rd cb 70804151 bioinformatics bldg
18624,CDM,PPD,HOS,050,,United_States,university of north carolina at chapel hill,north carolina,chapel hill,27599,,101 manning drivemedical school building department of pediatricsroom 108
18625,CDM,PPD,MLN0002-3024,1-7FWUE3X,,United_States,university of north carolina at chapel hill,north carolina,chapel hill,27599,,101 manning drive
18627,CDM,PPD,SHP647-302,1-15TZTL8,,United_States,university of north carolina at chapel hill,north carolina,chapel hill,27599,,130 mason farm roadcb7215room 7032 mbrb
18640,CDM,PPD,SHP620-303,1-TJB5PM,,United_States,university of north carolina at chapel hill,north carolina,chapel hill,275997215,,130 mason farm road
18642,CDM,PPD,Pevonedistat-3001,58032,,United_States,university of north carolina at chapel hill,north carolina,chapel hill,275997305,,170 manning drivelineberger comprehensive cancer center3rd floor
18643,CDM,PPD,SHP647-305,1-XFTFMP,,United_States,rex healthcare,north carolina,raleigh,27606,,4420 lake boone trailsuite 304
18645,CDM,PPD,VDZ-5034,58059,,United_States,carolina gi research  m3 wr  ern  ppds,north carolina,raleigh,27607,,2601 lake drive
18646,CDM,PPD,SHP647-304,1-24HTTBM,,United_States,digestive healthcare,north carolina,raleigh,27607,,2417 atrium drivesuite 150
18653,CDM,PPD,SHP647-305,1-1117NMI,,United_States,north carolina clinical research  crn  ppds,north carolina,raleigh,27607,,4301 lake boone trailsuite 309 a
18655,CDM,PPD,SHP647-301,1-ZWXQTF,,United_States,raleigh endoscopy center,north carolina,raleigh,27607,,2417 atrium drivesuite 101
18657,CDM,PPD,C16029,1-YQMPL5,,United_States,raleigh hematology oncology associates,north carolina,raleigh,27607,,4101 macon pond road
18658,CDM,PPD,TAK-079-1005,1-5D85A79,,United_States,raleigh neurology associates pa,north carolina,raleigh,27607,,1540 sunday drive
18662,CDM,PPD,SHP647-305,1-1311LLP,,United_States,wake endoscopy center,north carolina,raleigh,27607,,2601 lake drivesuite 201
18669,CDM,IQVIA,TAK-994-1501,58044,1-51CUUJI,United_States,raleigh neurology associates,raleigh,north carolina,276076010,,1540 sunday drste 100
18671,CDM,PPD,Pevonedistat-1016,1-3SC63LP,,United_States,duke raleigh cancer center,north carolina,raleigh,27609,,3404 wake forest roadsuite 9000
18673,CDM,PPD,SHP647-301,1-205DFPL,,United_States,north raleigh gastroenterology pa,north carolina,raleigh,27609,,6080c six forks road
18681,CDM,PPD,SHP647-301,1-112J4VL,,United_States,raleigh medical group,north carolina,raleigh,27609,,3509 haworth drive
18689,CDM,PPD,SHP621-301,1-H0C8WL,,United_States,wakemed health and hospitals,north carolina,raleigh,27610,,3000 new bern avenue
18691,CDM,IQVIA,TAK-101-2001,58003,1-4YNIN2R,United_States,carolinas gi research llc,raleigh,north carolina,27612,,3100 duraleigh rdsuite 310
18692,CDM,PPD,SHP647-305,1-ZWXR6D,,United_States,m3 wake research inc  m3 wr  ern  ppds,north carolina,raleigh,27612,,3100 duraleigh roadsuite 304
18694,CDM,PRA,TAK-906-2002,58006,1-1JYYVNP,United_States,wake research associates,nc,raleigh,27612,,3100 duraleigh road
18695,CDM,PPD,SHP647-301,1-205DFP9,,United_States,gastrointestinal healthcare,north carolina,raleigh,27615,,2011 falls valley drivesuite 106
18702,CDM,PPD,SHP647-305,1-XFRQ0Q,,United_States,clinical trials of north carolina,north carolina,durham,27701,,1416 woodland drivesuite 102
18704,CDM,IQVIA,161301,161301-080,1-25MTU6V,United_States,quintiles france,durham,north carolina,27703,,4820 emperor blvdattn qcare 8th floor
18705,CDM,IQVIA,SHP643-403,117,1-4F22JLE,United_States,duke asthma allergy  airway center,durham,north carolina,27704,,4309 medical park drivesuite 100
18707,CDM,PPD,TAK-007-2001,58012,,United_States,duke cancer institute,north carolina,durham,27705,,2400 pratt streetdumc 3961suite 5000
18708,CDM,IQVIA,SHP655-101,107,1-4ER7DFV,United_States,duke university medical center,durham,north carolina,27705,,2301 erwin rd
18709,CDM,PPD,C16011,1-E0Z346,,United_States,duke university medical center,north carolina,durham,27705,,2200 west main streetoffice of corporate research collaborationssuite 9000
18711,CDM,PPD,SHP620-302,1-25ICJJV,,United_States,duke university medical center,north carolina,durham,27705,,2400 pratt streetsuite 9000
18713,CDM,PPD,TAK-071-2002,1-65RA3C9,,United_States,duke university school of medicine,north carolina,durham,27705,,2400 pratt streetinternal medicineinfectious disease department
18714,CDM,PPD,C16029,1-118022Y,,United_States,durham va medical center  navref  ppds,north carolina,durham,27705,,508 fulton street
18715,CDM,PPD,P2002,58026,,United_States,duke university health system duhs,north carolina,durham,277053976,,2400 pratt st ste 5000
18717,CDM,PPD,TAK-071-2002,1-B8T8JCI,,United_States,duke neurological disorders clinic  morreene road,north carolina,durham,277054410,,932 morreene rd
18719,CDM,PPD,SHP465-308,113,,United_States,triangle neuropsychiatry,north carolina,durham,27707,,3713 university drive
18720,CDM,PPD,Pevonedistat-2001,58022,,United_States,duke cancer institute,north carolina,durham,27710,,20 duke medicine circlesuite 9000
18722,CDM,PPD,Brigatinib-1002,1-61DKLJH,,United_States,duke childrens hospital and health center,north carolina,durham,27710,,2301 erwin road
18724,CDM,IQVIA,TED-R13-002,0555,1-306PDCG,United_States,duke gastroenterology,durham,north carolina,27710,,300 trent drive dumc box 3512
18725,CDM,IQVIA,SHP633-304,0434,1-2RJW121,United_States,duke medical center,durham,north carolina,27710,,dumc 3522
18726,CDM,PPD,TAK-079-1005,1-5D85A8Y,,United_States,duke neurological disorders clinic,north carolina,durham,27710,,40 duke medicine circledcru
18727,CDM,PRA,TAK-954-2004,58022,1-1NRZSVY,United_States,duke university,nc,durham,27710,,dumc box 3094
18728,CDM,PPD,C16021,1-8JW06N,,United_States,duke university health system,north carolina,durham,27710,,2400 pratt streetadult bone marrow transplant clinicsuite 9000
18729,CDM,IQVIA,281102,026,1-2VY14YA,United_States,duke university medical center,durham,north carolina,27710,,2301 erwin roadduke university hospital
18731,CDM,IQVIA,SHP655-201,509,1-45ABJY4,United_States,duke university medical center,durham,north carolina,27710,,905 s lasalle str
18733,CDM,PRA,AP24534-14-203,003,1-1FBMCNJ,United_States,duke university medical center,nc,durham,27710,,30 duke medicine circleduke south white zone suite 25156dumc box 3872
18734,CDM,PPD,C16027,1-RZRR7C,,United_States,duke university medical center,north carolina,durham,27710,,10 bryan searle drivesuite 9000
18739,CDM,PPD,SHP647-305,1-ZWZNRF,,United_States,duke university medical center,north carolina,durham,27710,,2100 erwin road
18743,CDM,PPD,NSMM-5001,1-LF776W,,United_States,duke university medical center,north carolina,durham,27710,,2301 erwin roadsuite 9000
18754,CDM,PPD,TAK-079-1005,1-5D8IUYK,,United_States,duke university medical center,north carolina,durham,27710,,dumc box 3913department of medicine
18755,CDM,PPD,SHP620-302,1-SMY3YR,,United_States,duke university medical center,north carolina,durham,27710,,dumc box 3913infectious disease clinic
18760,CDM,PPD,C16014,1-C0N4F,,United_States,dumc palliative care clinical research,north carolina,durham,27710,,box 343625162 morris building division of medical oncology department of medicine
18761,CDM,PPD,TAK-981-1502,1-719W5LX,,United_States,duke university medical center,north carolina,durham,277102000,,20 duke medicine cirseeley g mudd buildingroom 433
18763,CDM,PPD,SHP647-306,1-25THN56,,United_States,boice willis clinic pa,north carolina,rocky mount,27804,,901 n winstead avepo box 7200
18770,CDM,PPD,SHP647-301,1-205DFQA,,United_States,legato medical systems inc,north carolina,rocky mount,27804,,120 roundabout court
18777,CDM,PPD,SHP647-305,1-XE2Z5N,,United_States,pmg research of rocky mount,north carolina,rocky mount,27804,,901 north winstead avenueresearch department
18778,CDM,PPD,SHP647-305,1-1LKFC6M,,United_States,pmg research of rocky mount,north carolina,rocky mount,27804,,901 north winstead avenuesuite 210
18781,CDM,PPD,TAK-981-1502,1-6TY38N1,,United_States,southeastern medical oncology center,north carolina,rocky mount,27804,,2460 curtis ellis drive
18782,CDM,PPD,SHP607-202,1-15NMZTG,,United_States,brody school of medicine at ecu,north carolina,greenville,27834,,600 moye boulevard
18784,CDM,PPD,SHP621-301,301-180,,United_States,carolina digestive diseases,north carolina,greenville,27834,,704 west h smith boulevard
18792,CDM,PPD,TAK-981-1501,58113,,United_States,east carolina university,north carolina,greenville,27834,,4e59a brody building
18794,CDM,PPD,C16014,1-F1KPZ,,United_States,east carolina university,north carolina,greenville,27834,,600 moyer boulevard
18802,CDM,PPD,Pevonedistat-2001,1-D902A8,,United_States,eastern institute of medical sciences,north carolina,greenville,27834,,2080 west arlington boulevardsuite b
18804,CDM,PPD,SHP647-305,1-ZVCYHM,,United_States,gastroenterology east pa,south carolina,greenville,27834,,2210 hemby lanesuite b
18808,CDM,PPD,SHP-607-201,024,,United_States,vidant medical center,north carolina,greenville,27834,,600 moye boulevarddepartment of pediatricsroom 2nn2006
18809,CDM,PPD,SHP607-202,006,,United_States,vidant medical center,north carolina,greenville,278342818,,2100 stantonsburg road
18811,CDM,PPD,SHP607-203,1-HBIAK57,,United_States,vidant medical center,north carolina,greenville,278344300,,600 moye blvd dept of
18812,CDM,IQVIA,SHP655-201,513,1-4SFDZJ1,United_States,east carolina school of medicine,greenville,north carolina,27858,,600 moye blvdlife sciences building
18813,CDM,IQVIA,261203,153,1-2H1RLT7,United_States,east carolina university,greenville,north carolina,27858,,2200 south charles blvd2906 greenville centre
18815,CDM,PPD,SHP647-301,1-ZUUUL4,,United_States,wilson digestive diseases center,north carolina,wilson,27893,,2402 camden street swsuite 300
18817,CDM,PPD,SHP647-301,1-205DFRN,,United_States,carolina gastroenterology specialists pllc,north carolina,wilson,27896,,3520 airport blvdsuite f
18824,CDM,PPD,MLN0002-3025,3025-58007,,United_States,atrium health,north carolina,concord,28025,,200 medical park drivecarolinas medical center north east
18825,CDM,PRA,TAK-906-2002,58029,1-1K2BX0F,United_States,carolina digestive health associates,nc,concord,28025,,1085 northeast gateway courtsuite 280
18826,CDM,PRA,C31004,58021A,1-1F12I1L,United_States,levine cancer institute  concord,nc,concord,28025,,100 medical park drive
18827,CDM,IQVIA,TAK-994-0001,58037,1-53KKIE2,United_States,research carolina elite llc,denver,north carolina,28037,,7480 waterside loop roadsuite 201
18829,CDM,IQVIA,TAK-994-1501,58015,1-4QAIBLL,United_States,clinical research of gastonia,gastonia,north carolina,28054,,1010 x ray drive
18830,CDM,PPD,C16029,1-YQMPJE,,United_States,gaston hematology and oncology,north carolina,gastonia,28054,,2610 aberdeen boulevard
18834,CDM,PPD,SHP647-303,1-240DA8A,,United_States,the carolina clinic for digestive  liver disease,north carolina,gastonia,28054,,1040b xray drivecaromont health
18841,CDM,PPD,SHP647-301,1-109774B,,United_States,charlotte gastroenterology and hepatology pllc,north carolina,huntersville,28078,,13808 professional center drive
18843,CDM,PPD,SHP647-303,1-2401XKF,,United_States,charlotte gastroenterology and hepatology pllc,north carolina,matthews,28105,,1340 matthews township parkwaysuite 301
18850,CDM,PPD,SHP647-305,1-ZWXGI4,,United_States,carolina digestive health associates,north carolina,monroe,28112,,1663 campus park drivesuite d
18852,CDM,PPD,SHP647-304,1-24IZFU9,,United_States,carolina digestive health associates,north carolina,charlotte,28117,,131 medical park road1st floor
18859,CDM,PRA,TAK-906-2002,58023,1-1JYIJRZ,United_States,pmg research of salisbury,nc,salisbury,28144,,410 mocksville avenue
18860,CDM,PPD,SHP647-305,1-XE272W,,United_States,pmg research of salisbury llc,north carolina,salisbury,28144,,410 mocksville avenue
18862,CDM,PPD,SHP647-304,1-1ADCIGD,,United_States,wg bill hefner va medical center  navref  ppds,north carolina,salisbury,28144,,1601 brenner avenue
18869,CDM,PPD,SHP647-301,1-205DFQM,,United_States,cleveland gastro associates pa,north carolina,shelby,28150,,808 north washington street
18876,CDM,PPD,C16014,1-AHPB0,,United_States,blumenthal cancer center,north carolina,charlotte,28203,,1000 blythe boulevardsuite 300
18877,CDM,PPD,C16014,1-H1M5W,,United_States,blumenthal cancer center,north carolina,charlotte,28203,,1000 blythe boulevard
18878,CDM,PPD,SHP647-301,1-ZH2G0Q,,United_States,carolina digestive health associates,north carolina,charlotte,28203,,8220 university executive park drivesuite 205
18880,CDM,IQVIA,161406,161406-119,1-1VRD8L0,United_States,carolinas healthcare system,charlotte,north carolina,28203,,1000 blythe boulevardorthopaedic surgery
18884,CDM,PPD,SHP647-301,1-ZK0NW6,,United_States,charlotte medical clinic,north carolina,charlotte,28203,,1001 blythe boulevardsuite 125
18892,CDM,PRA,AP32788-15-101,266,1-1K3BRJC,United_States,carolinas healthcare system,nc,charlotte,282034297,,1000 blythe boulevard
18894,CDM,PPD,MLN0002-3024,3024-58007,,United_States,atrium health,north carolina,charlotte,28204,,1000 blythe blvdatrium health cannon research center
18895,CDM,PPD,C16029,1-Y4IFBE,,United_States,carolinas healthcare system,north carolina,charlotte,28204,,1021 morehead medical drive
18896,CDM,PPD,Pevonedistat-2001,1-D901ZJ,,United_States,levine cancer center,north carolina,charlotte,28204,,1021 morehead medical drivedepartment of hematologic oncology and blood disorders
18898,CDM,IQVIA,SHP655-101,117,1-4NK39QD,United_States,levine cancer institute,charlotte,north carolina,28204,,1021 morehead medical drivesuite 60100lci building ii
18900,CDM,PRA,C31004,58021,1-1C6PL94,United_States,levine cancer institute,nc,charlotte,28204,,1021 morehead medical drive
18902,CDM,ICON,C25003,,278682,United_States,levine cancer institute,north carolina,charlotte,28204,,1021 morehead medical drive
18904,CDM,PPD,TAK-788-3001,1-4ZOLPJN,,United_States,levine cancer institute  charlotte,north carolina,charlotte,28204,,1021 morehead medical drivedepartment of hematologysuite 5300
18907,CDM,PPD,C16014,1-HC48P,,United_States,presbyterian hospital center for cancer research,north carolina,charlotte,28204,,200 hawthorne lane
18909,CDM,PPD,Brigatinib-1002,1-61KU6DG,,United_States,st jude affiliate clinic  novant health hemby childrens hospital,north carolina,charlotte,28204,,301 hawthorne lanepresbyterian blume pediatric hematology  oncology clinicsuite 100
18911,CDM,IQVIA,071102,102,1-2IR6XCD,United_States,st jude affiliate clinic at novant health,charlotte,north carolina,28204,,301 hawthorne lanesuite 100
18913,CDM,PPD,TAK-981-1501,58105,,United_States,levine cancer institute  charlotte,north carolina,charlotte,282040017,,1021 morehead medical dr ste 2200
18917,CDM,PRA,TAK-573-1501,58010-A,1-1OQ66YM,United_States,levine cancer institute  concord,nc,concord,28205,,100 medical park drive northeastsuite 110
18918,CDM,PPD,TAK-079-1005,58506,,United_States,carolinas healthcare system neurosciences instituteneurology,north carolina,charlotte,28207,,1010 edgehill road north
18921,CDM,PPD,SHP647-305,1-YJR8LS,,United_States,charlotte gastroenterology and hepatology pllc,north carolina,charlotte,28207,,2015 randolph roadsuite 208
18924,CDM,PPD,C16021,1-8JFYA8,,United_States,levine cancer center,north carolina,charlotte,28207,,1021 morehead medical drivelevine cancer institute
18933,CDM,PPD,C16014,1-FUPT9,,United_States,piedmont oncology specialists,north carolina,charlotte,28207,,1901 brunswick avenue
18934,CDM,ICON,C25003,,250206,United_States,oncology specialists of charlotte,north carolina,charlotte,282072027,,2711 randolph rd ste 100
18935,CDM,PPD,SHP647-301,1-118W6JD,,United_States,pmg research of charlotte llc,north carolina,charlotte,28209,,1700 abbey place
18937,CDM,PPD,SHP647-301,1-XE0LC9,,United_States,charlotte gastroenterology and hepatology pllc,north carolina,charlotte,28210,,6324 fairview roadsuite 208
18939,CDM,PPD,SHP647-305,1-118W6GS,,United_States,djl clinical research,north carolina,charlotte,28210,,10370 park roadsuite 200
18941,CDM,IQVIA,TAK-101-2001,58034,1-4YNIN27,United_States,javara inc,charlotte,north carolina,28210,,6060 piedmont row drive southfloor 8
18942,CDM,PPD,SHP647-301,1-ZWZ2JY,,United_States,carolina digestive health associates charlottedowntown,north carolina,charlotte,28211,,300 billingsley roadsuite 200
18944,CDM,PRA,Brigatinib-2002,58001,1-1KHIPXY,United_States,levine cancer institute  southpark,nc,charlotte,28211,,4525 cameron valley parkwaysuite 3500
18945,CDM,PPD,SHP647-302,1-30I2OX6,,United_States,new hope clinical research,north carolina,charlotte,28211,,3101 latrobe drive
18959,CDM,PRA,AP26113-13-301,205,1-1F5H9VC,United_States,novant health presbyterian medical center,nc,charlotte,28262,,101 wt harris boulevardsuite 5203
18960,CDM,PPD,SHP647-306,1-6ZMJ4QA,,United_States,carolina clinical research,north carolina,charlotte,28273,,9040 nations ford roadsuite 101
18966,CDM,IQVIA,161406,161406-110,1-1VK9YHG,United_States,allergy asthma  immunology relief of charlotte,charlotte,north carolina,28277,,​1523 elizabeth ave ste 200
18968,CDM,PPD,SHP621-301,1-HXHEOK,,United_States,asthma and allergy specialists pa,north carolina,charlotte,28277,,8045 providence roadfood allergy institute of charlotte
18969,CDM,PPD,SHP647-303,1-15Y78F0,,United_States,carolinas research center,north carolina,charlotte,28277,,1805b milton rd
18976,CDM,IQVIA,SHP643-403,101,1-49SI2IL,United_States,clinical research of charlotte,charlotte,north carolina,28277,,8045 providence roadsuite 300
18979,CDM,PPD,SHP643-301,643301-107,,United_States,clinical research of charlotte,north carolina,charlotte,28277,,8045 providence road
18980,CDM,PPD,SHP621-303,303-140,,United_States,clinical research of charlotte,north carolina,charlotte,28277,,8045 providence roadsuite 300
18982,CDM,PPD,C16010,58018,,United_States,blood and cancer clinic,north carolina,fayetteville,28303,,1565 purdue drivesuite 101
18983,CDM,PPD,SHP647-302,1-21XXTAU,,United_States,cape fear center for digestive diseases pa,north carolina,fayetteville,28304,,1880 quiet covepo box 87388
18990,CDM,PRA,TAK-906-2002,58036,1-1JYIV51,United_States,cumberland research associates,nc,fayetteville,28304,,2109 valleygate drive
18991,CDM,PPD,SHP647-301,1-XFETDS,,United_States,cumberland research associates,north carolina,fayetteville,28304,,2149 valleygate drivesuite 102
18993,CDM,PPD,SHP647-303,1-2401XK3,,United_States,scotland gastroenterology,north carolina,laurinburg,28352,,205 lauchwood drive
19000,CDM,PPD,TAK-007-2001,1-7FJ0MGH,,United_States,mayo clinic arizona  ppds,arizona,phoenix,28374,,5777 e mayo blvdtransplant center
19002,CDM,PPD,SHP647-305,1-Y0ZOC5,,United_States,pinehurst medical clinic inc,north carolina,pinehurst,28374,,205 page road
19005,CDM,PPD,SHP607-202,003,,United_States,coastal carolina neonatology,north carolina,wilmington,28401,,2212 south 17th street
19007,CDM,PPD,C16014,1-AQTIH,,United_States,hanover medical specialists,north carolina,wilmington,28401,,1500 physicians drivebuilding a
19008,CDM,PPD,C16021,1-8IWLU0,,United_States,hanover medical specialists,north carolina,wilmington,28401,,1515 doctors circlebuilding a
19013,CDM,PPD,SHP647-305,1-110ZJTF,,United_States,pmg research of wilmington,north carolina,wilmington,28401,,1907 tradd court
19022,CDM,PPD,SHP647-305,1-XE1CPH,,United_States,wilmington gastroenterology associates,north carolina,wilmington,28401,,1922 tradd court
19026,CDM,PRA,TAK-906-2002,58010,1-1K2BXE5,United_States,trial management associates,nc,wilmington,28403,,5115 oleander drive
19027,CDM,PPD,SHP647-302,1-21XXTFW,,United_States,wilmington gastroenterology associates,north carolina,wilmington,28403,,5115 oleander drive
19034,CDM,PPD,MLN0002-3024,1-7JSVWIE,,United_States,trial management associates llc  ern  ppds,north carolina,wilmington,284036702,,1414 39th st
19035,CDM,PPD,SHP647-301,1-15EZ30D,,United_States,vineland family medicine,north carolina,whiteville,28472,,630 south madison street
19042,CDM,PPD,SHP621-301,1-HI0JIP,,United_States,esi medical research pllc,north carolina,kinston,28501,,2541 north queen streetsuite 12
19043,CDM,PPD,SHP647-306,1-15U4H23,,United_States,kinston medical specialists,north carolina,kinston,28501,,701 doctors drivesuite north
19050,CDM,PPD,SHP647-301,1-1114N49,,United_States,kinston medical specialists,north carolina,kinston,28501,,701 doctors drivedivision of gastroenterologysuite north
19052,CDM,PPD,SHP647-304,304-739,,United_States,east carolina gastroenterology,north carolina,jacksonville,28546,,4 office park drive
17059,CDM,PPD,TAK665-4003,1-GNTNXUR,,United_States,childrens hospital of pittsburgh,pennsylvania,pittsburgh,15201,,45th street and penn avenue
17061,CDM,PPD,SHP647-305,1-1119KN1,,United_States,clinical trials research services llc,pennsylvania,pittsburgh,15206,,201 south highland avenuesuite 102
17068,CDM,PPD,SHP647-305,1-1912YEK,,United_States,veterans research foundation of pittsburgh  navref  ppds,pennsylvania,pittsburgh,15206,,7180 highland drive 2045w2
17069,CDM,PPD,SHP647-301,301-370,,United_States,allegheny center for digestive health,pennsylvania,pittsburgh,15212,,1307 federal streetfederal north buildingsuite b100
17071,CDM,PPD,SHP647-305,1-ZGYE7Y,,United_States,allegheny center for digestive health,pennsylvania,pittsburgh,15212,,1307 federal streetsuite 301
17074,CDM,PPD,SHP621-301,1-H3LR17,,United_States,allegheny center for digestive health,pennsylvania,pittsburgh,15212,,1307 federal street
17079,CDM,IQVIA,TED-R13-002,0510,1-15SX66K,United_States,allegheny center for digestive health,pittsburgh,pennsylvania,15212,,federal north 1307 federal streetsuite 301 allegheny ctr for digestive health
17080,CDM,PRA,TAK-954-2004,58007,1-1MBDOHJ,United_States,allegheny general hospital,pa,pittsburgh,15212,,320 east north avenue
17082,CDM,PPD,TAK-788-2001,1-7HRFEQZ,,United_States,allegheny general hospital,pennsylvania,pittsburgh,15212,,320 east north avenuesouth tower
17084,CDM,PPD,SHP607-202,1-15MWYFI,,United_States,magee womens hospital,pennsylvania,pittsburgh,15213,,300 halket street
17086,CDM,PRA,TAK-018-2001,58020,1-1MZTHDK,United_States,university of pittsburgh medical center,pa,pittsburgh,15213,,digestive disorders center200 lothrop street3rd floor
17087,CDM,PPD,TAK-079-1004,1-5QGG68F,,United_States,university of pittsburgh medical center,pennsylvania,pittsbugh,15213,,200 lothrop street6ne montfiore hospital
17092,CDM,PPD,TAK620-5004,003,,United_States,university of pittsburgh medical center,pennsylvania,pittsburgh,15213,,3601 fifth avefalk medical building
17095,CDM,PRA,C31004,58014,1-1C6T9VM,United_States,university of pittsburgh medical center cancer center at mageewomens hospital,pa,pittsburgh,15213,,mageewomens hospital300 halket streetroom i410
17096,CDM,PPD,SHP647-305,1-Y14RHA,,United_States,upmc presbyterian hospital,pennsylvania,pittsburgh,15213,,200 lothrop street
17097,CDM,PPD,MLN0002-3024,1-7JSADQJ,,United_States,university of pittsburgh school of medicine,pennsylvania,pittsburgh,152132500,,3550 terrace st
17098,CDM,IQVIA,TED-R13-002,0553,1-1B9GXYJ,United_States,upmc digestive diseases ctr gas,pittsburgh,pennsylvania,152132536,,200 lothrop st ste 3dpuh m2 c wing
17099,CDM,PPD,Brigatinib-1002,1-61FS0WN,,United_States,university of pittsburgh medical center,pennsylvania,pittsburgh,152133236,,3459 5th avenuethomas e starzl transplantation institute pittsburgh transplantation institute
17101,CDM,PPD,SHP647-302,1-4GAXJC6,,United_States,pittsburgh gastroenterology associates,pennsylvania,pittsburgh,15219,,1350 locust streetsuite 202
17108,CDM,IQVIA,161503,131,1-4601XQD,United_States,pediatric alliance greentree division,pittsburgh,pennsylvania,15220,,969 greetree roadsuite 100
17109,CDM,PPD,Pevonedistat-2001,1-DCTZSK,,United_States,allegheny general hospital,pennsylvania,pittsburgh,15224,,4800 friendship avenue
17110,CDM,PPD,C16051,1-3SH592J,,United_States,childrens hospital of pittsburgh,pennsylvania,pittsburg,15224,,4401 penn avenuepediatrics
17112,CDM,PPD,Brigatinib-1003,1-61FS0MZ,,United_States,childrens hospital of pittsburgh,pennsylvania,pittsburgh,15224,,4401 penn aveblood and marrow transplantation and cellular therapies  bmt  ct
17114,CDM,PPD,Brigatinib-1003,1-6B4XQST,,United_States,childrens hospital of pittsburgh,pennsylvania,pittsburgh,15224,,4401 penn avenuechildrens hospital of pittsburgh
17115,CDM,PPD,MLN0002-3024,3024-58006,,United_States,childrens hospital of pittsburgh,pennsylvania,pittsburgh,15224,,4401 penn avenue
17121,CDM,IQVIA,161503,130,1-401QV2U,United_States,childrens hospital of pittsburgh of upmc,pittsburgh,pennsylvania,15224,,4401 penn avenue 5th floor main hospitalinvestigationalcontrolled substance pharmacist one childrens hospital drive
17122,CDM,PRA,MLN0002-2003,58029,1-1DUKUV7,United_States,upmc childrens hospital of pittsburgh,pa,pittsburgh,15224,,one childrens hospital drive4401 penn avenuemain hospital floor 5
17124,CDM,PPD,NSMM-5001,1-LE3LS9,,United_States,western pennsylvania hospital,pennsylvania,pittsburgh,15224,,4800 friendship avenue
17127,CDM,PPD,TAK-981-1503,1-BAJ2GTB,,United_States,west penn cancer institute,pennsylvania,pittsburgh,152241722,,4800 friendship ave ste 2303
17128,CDM,PPD,TAK-981-1501,58107,,United_States,western pennsylvania hospital,pennsylvania,pittsburgh,152242156,,4815 liberty ave
17129,CDM,PPD,SHP647-305,1-ZGHKFZ,,United_States,associates in gastroenterology,pennsylvania,pittsburgh,15232,,5200 centre avenueshadyside medical center building  suite 312
17131,CDM,PPD,Pevonedistat-3001,1-16PZHHH,,United_States,the university of pittsburgh,pennsylvania,pittsburgh,15232,,5150 centre avenue
17133,CDM,PPD,C16014,1-ASKDJ,,United_States,the university of pittsburgh,philadelphia,pittsburgh,15232,,5150 centre avenuecancer pavillion
17134,CDM,PPD,Pevonedistat-2001,1-D8Y2FG,,United_States,university of pittsburgh medical center,pennsylvania,pittsburgh,15232,,5115 centre avenuehillman cancer center
17135,CDM,PPD,C16029,1-Y4HKGD,,United_States,university of pittsburgh medical center,pennsylvania,pittsburgh,15232,,5150 centre avenuecancer pavilionsuite 301
17136,CDM,PPD,SHP647-305,1-XEX558,,United_States,university of pittsburgh medical center,pennsylvania,pittsburgh,15232,,5150 centre avenue
17144,CDM,PPD,SHP647-301,1-11122WY,,United_States,university of pittsburgh medical center,pennsylvania,pittsburgh,15232,,5230 centre avenueshadyside hospital
17146,CDM,PRA,C31004,58014A,1-1HQ20RE,United_States,university of pittsburgh medical center  hillman cancer center,pa,pittsburgh,15232,,upmc cancer centers william m cooper ambulatory care pavilion of the hillman cancer center5115 centre ave third floor
17149,CDM,PPD,TAK-079-1004,1-5QH8533,,United_States,upmc hillman cancer center,pennsylvania,pittsburgh,15232,,5115 center avenuehillman cancer center
17152,CDM,PPD,SHP647-307,1-166N1ES,,United_States,gastroenterology associates of pittsburgh,pennsylvania,pittsburgh,15237,,3285 babcock boulevard
17159,CDM,PPD,TAK-676-1003,58004,,United_States,university of pittsburgh medical center,pennsylvania,pittsburgh,15240,,university drive c
17161,CDM,PPD,C16029,1-Y4IF29,,United_States,veterans affairs pittsburgh healthcare system  navref  ppds,pennsylvania,pittsburgh,15240,,university drive crob building 30
17165,CDM,PPD,SHP647-301,1-1444GQW,,United_States,veterans research foundation of pittsburgh  navref  ppds,pennsylvania,pittsburgh,15240,,university drive crob building 30151
17178,CDM,IQVIA,161406,161406-101,1-1VJXRZO,United_States,allergy  clinical immunology associates,pittsburgh,pennsylvania,15241,,180 fort couch roadsuite 375
17179,CDM,PPD,SHP647-305,1-1117O20,,United_States,pezzone gastroenterology associates,pennsylvania,washington,15301,,86 wellness way
17181,CDM,PPD,SHP647-305,1-1117O2Q,,United_States,pish medical associates,pennsylvania,uniontown,15401,,20 highland park drivesuite 202
17183,CDM,PPD,SHP647-303,1-246IKYM,,United_States,southwestern gastrointestinal specialists,pennsylvania,uniontown,154018903,,300 spring creek lane
17190,CDM,PPD,TAK-079-1004,1-5QHJUZC,,United_States,highlands hospital,pennsylvania,connellsville,15425,,401 east murphy avenue
17191,CDM,PPD,SHP647-303,1-16743SW,,United_States,john g stagias pc,massachusetts,southbridge,1550,,428 hamilton street
17198,CDM,PPD,SHP647-305,1-ZGYE4A,,United_States,dr bruce a bradley do,pennsylvania,greensburg,15601,,443 frye farm roadsuite 200
17200,CDM,PPD,SHP647-301,1-ZK5DOY,,United_States,ilumina clinical associates,pennsylvania,indiana,15701,,1265 wayne avenuesuite 301
17202,CDM,PPD,SHP647-305,1-ZWZNQ1,,United_States,dubois regional medical center,pennsylvania,dubois,15801,,100 hospital avenue
17204,CDM,PPD,SHP647-301,1-ZUUUPJ,,United_States,reliant medical group inc,massachusetts,worcester,1605,,425 lake avenue n
17206,CDM,PPD,C16029,1-YQMMG0,,United_States,worcester medical center,massachusetts,worcester,1608,,123 summer streetfallon clinic
17207,CDM,PPD,C16014,1-HGLLZ,,United_States,joseph t morelli do,pennsylvania,greenville,16125,,110 woodfield drive
17208,CDM,PPD,SHP647-305,1-ZVCY7A,,United_States,digestive diseases of nw pa,pennsylvania,erie,16502,,2315 myrtle streetsuite 290
17210,CDM,PPD,SHP647-301,1-ZVCY60,,United_States,bayfront digestive disease,pennsylvania,erie,16507,,100 peach streetsuite 200
17212,CDM,PPD,SHP634-404,1-1KEWQY0,,United_States,umass memorial medical center,massachusetts,worcester,1655,,55 lake avenue north
17213,CDM,PPD,SHP647-301,1-205DH7V,,United_States,blair gastroenterology associates,pennsylvania,altoona,16602,,810 valley view boulevard
17220,CDM,PPD,SHP647-305,1-XZL30C,,United_States,altoona center for clinical research,pennsylvania,duncansville,16635,,175 meadowbrook lane
17222,CDM,PPD,SHP647-304,304-780,,United_States,penn state hershey medical group,pennsylvania,state college,16803,,32 colonnade way
17225,CDM,PPD,SHP647-301,1-10B2OOQ,,United_States,penn state hershey medical group,pennsylvania,state college,16803,,32 colonnade waysuite 1
17229,CDM,PPD,SHP647-301,1-ZX03JE,,United_States,jackson siegelbaum gastroenterology ltd,pennsylvania,camp hill,17011,,423 n 21st streetsuite 100
17231,CDM,PPD,SHP647-304,1-24OSZAT,,United_States,pennsylvania gastroenterology consultants,pennsylvania,camp hill,17011,,899 poplar church road
17238,CDM,PPD,SHP647-307,1-26COL4B,,United_States,carlisle digestive disease associates,pennsylvania,carlisle,17015,,241 alexander spring road
17245,CDM,PPD,SHP647-305,1-Y0ZARO,,United_States,hershey medical center,pennsylvania,hershey,17033,,500 university drive
17248,CDM,PPD,Brigatinib-1003,1-615UQJW,,United_States,milton s hershey medical center,pennsylvania,hershey,17033,,500 university drive
17250,CDM,PRA,TAK-954-2004,58012,1-1MBDOQK,United_States,penn state health milton s hershey medical center,pa,hershey,17033,,500 university drivepo box 850mail code ch56
17251,CDM,PPD,TAK-079-1004,1-5QHGE62,,United_States,penn state milton s hershey medical center,pennsylvania,hershey,17033,,500 university drivemc ho53
17255,CDM,PPD,C16014,1-DX4F3,,United_States,penn state milton s hershey medical center,pennsylvania,hershey,17033,,500 university drive
17256,CDM,PPD,C16014,58071,,United_States,penn state milton s hershey medical center,pennsylvania,hershey,17033,,500 university drivepenn state hershey medical center
17265,CDM,IQVIA,261203,115,1-1WGFCLJ,United_States,penn state milton s hershey medical center,hershey,pennsylvania,17033,,500 university drive room c6606mch046
17269,CDM,PPD,C16021,1-8K3B8K,,United_States,pennsylvania state university,pennsylvania,hershey,17033,,500 university drive
17273,CDM,PPD,SHP647-301,1-205DH9K,,United_States,jackson siegelbaum gastroenterology ltd,pennsylvania,harrisburg,17110,,4387 sturbridge drive
17280,CDM,PPD,SHP647-307,1-18HO57V,,United_States,sfm clinical trials,pennsylvania,scotland,17254,,3730 scotland road
17286,CDM,PPD,TAK-788-2001,1-74VZMJ1,,United_States,wellspan oncology research,pennsylvania,york,17403,,25 monument road
17287,CDM,PPD,SHP647-305,1-1113F4X,,United_States,regional gastroenterology associates of lancaster ltd,pennsylvania,lancaster,17604,,2104 harrisburg pikesuite 300
17289,CDM,PPD,SHP647-305,1-109GCP8,,United_States,susquehanna gastroenterology associates ltd,pennsylvania,montoursville,17754,,10 choate circle
17291,CDM,PPD,NSMM-5001,1-MNRKMS,,United_States,geisinger medical center,pennsylvania,danville,17822,,100 north academy avenueknapper clinic
17292,CDM,PPD,SHP647-305,1-10TILI4,,United_States,geisinger medical center,pennsylvania,danville,17822,,100 north academy avenue
17301,CDM,PPD,SHP647-301,1-43IRL99,,United_States,care access research,pennsylvania,pottsville,17901,,100 schuylkill medical plazasuite 101
17308,CDM,PPD,C16014,1-GXADY,,United_States,oncology hematology of lehigh valley,pennsylvania,bethlehem,18015,,701 ostrum streetsuite 501
17310,CDM,PPD,C16029,1-YQMPKS,,United_States,oncology hematology of lehigh valley,pennsylvania,fountain hill,18015,,701 ostrum streetst lukes cancer care associatessuite 501
17312,CDM,PPD,C16029,1-Y4IF1W,,United_States,st luke’s hospital – allentown campus,pennsylvania,bethlehem,18015,,801 ostrum street
17313,CDM,PPD,Pevonedistat-1016,1-3SHMBSI,,United_States,st lukes university health network,pennsylvania,easton,18045,,1600 saint lukes boulevardsuite 501
17316,CDM,PPD,TAK-071-2002,1-65RE4HX,,United_States,lehigh valley health network,pennsylvania,allentown,18102,,17th  chew stsnetwork office of research and innovationsuite 2800
17317,CDM,PPD,SHP647-301,1-109776D,,United_States,eastern pennsylvania gastroenterology  liver specialists pc,pennsylvania,allentown,18104,,1501 north cedar crest boulevardsuite 110
17319,CDM,PPD,TAK-951-2001,1-70MN84C,,United_States,institute for female pelvic medicine,pennsylvania,allentown,18104,,2200 west hamilton street
17320,CDM,IQVIA,TAK-375SL_201,4014,1-1HB4NM4,United_States,lehigh center for clinical research llc,allentown,pa,18104,,401 north 17th streetsuite 207
17322,CDM,PPD,Brigatinib-1002,1-61KAFE8,,United_States,lehigh valley reilly childrens hospital,pennsylvania,allentown,181042253,,1517 pond roadnetwork office of research and innovationsuite 1000
17324,CDM,PPD,SHP647-301,1-205DH98,,United_States,pocono gastroenterology,pennsylvania,east stroudsburg,18301,,175 east brown streetsuite 201a
17331,CDM,PPD,SHP647-305,1-ZV1B10,,United_States,pocono ambulatory surgery center,pennsylvania,stroudsburg,18360,,1 streetorm street
17333,CDM,PPD,C16014,58061,,United_States,scranton hematology oncology,pennsylvania,scranton,18510,,743 jefferson avenuesuite 205
17337,CDM,PPD,C16029,1-YQMMDZ,,United_States,hematology and oncology associates of nepa,pennsylvania,dunmore,18512,,1100 meade street
17339,CDM,PPD,SHP647-301,1-ZGYE5Y,,United_States,digestive care associates,pennsylvania,edwardsville,18704,,490 northampton streetsuite 1
17341,CDM,PPD,C16014,1-HCHV3,,United_States,medical oncology associates  kingston,pennsylvania,kingston,18704,,382 pierce street
17343,CDM,PPD,P2002,1-5J5J4ND,,United_States,geisinger medical center,pennsylvania,wilkes barre,18711,,1000 east mountain boulevard
17345,CDM,PPD,SHP647-301,1-XZL2IF,,United_States,guthrie research institute,pennsylvania,sayre,18840,,1 guthrie square
17350,CDM,PPD,SHP647-305,1-ZWZNPC,,United_States,central bucks specialists,pennsylvania,doylestown,18901,,599 west state streetsuite 200
17352,CDM,IQVIA,MLN0002SC-3030,58015,1-262IGP4,United_States,main line gastroenterology associates,perkasie,pennsylvania,18944,,210 west walnut stsuite 200
17353,CDM,PPD,SHP647-307,1-6YHJN1Z,,United_States,the center for gi health sellersville,pennsylvania,sellersville,189601579,,817 lawn avenue
17359,CDM,PPD,C16014,1-LP5O8,,United_States,abington memorial hospital,pennsylvania,abington,19001,,1200 old york road
17360,CDM,PPD,SHP647-307,1-26CO2KN,,United_States,gastrointestinal associates inc,pennsylvania,abington,19001,,1235 old york road 123
17367,CDM,PPD,TAK-071-2002,1-FYAU1NO,,United_States,abington neurologic associates,pennsylvania,abington,190013724,,1245 highland ave ste 301
17368,CDM,PPD,SHP647-301,1-ZH2FWV,,United_States,bryn mawr medical specialists association,pennsylvania,bryn mawr,19010,,825 old lancaster roadsuite 340
17370,CDM,PPD,C16014,1-E7UFM,,United_States,associates in hematologyoncology,pennsylvania,upland,19013,,vivacqua pavilion 1 medical center boulevardoncology pcvivacqua pavilion suite 341
17371,CDM,PPD,SHP647-305,1-24SWYXQ,,United_States,crozer chester medical center,pennsylvania,chester,19013,,1 medical center boulevardacp 231
17378,CDM,PPD,C16014,1-CLBCC,,United_States,consultants in medical oncology and hematology,pennsylvania,drexel hill,19026,,2100 keystone avenuesuite 502
17379,CDM,PPD,SHP647-301,1-Y14R09,,United_States,pivotal clinical research,pennsylvania,flourtown,19031,,1811 bethlehem pikespringfield medical associatessuite 200
17381,CDM,PPD,SHP647-301,1-14GH5JE,,United_States,clinical trial center llc,pennsylvania,jenkintown,19046,,815 greenwood avesuite 12suite 12
17388,CDM,PPD,Pevonedistat-1016,1-75YKJ3J,,United_States,fox chase cancer center,pennsylvania,rockledge,19046,,50 huntingdon pike second floor
17389,CDM,PPD,SHP647-301,1-ZH2FQJ,,United_States,gastro intestinal associates,pennsylvania,jenkintown,19046,,1095 rydal roadsuite 100
17391,CDM,PPD,SHP647-302,1-22FSDEL,,United_States,gastro intestinal associates,pennsylvania,rydal,19046,,1095 rydal roadrydal executive plaza
17398,CDM,PPD,SHP647-301,1-ZVCYR4,,United_States,paul l berenbaum md  associates,pennsylvania,jenkintown,19046,,261 old york roadsuite 309
17400,CDM,PPD,SHP647-302,1-22FSDAA,,United_States,clinical gastrointestinal associates,pennsylvania,langhorne,19047,,1 cornerstone drivesuite 300
17407,CDM,PPD,C16021,1-8JF3TW,,United_States,regional hematology oncology associates,pennsylvania,langhorne,19047,,240 middletown boulevardsuite 148
17410,CDM,IQVIA,TAK-831-2002,58024,1-4OSRFDJ,United_States,suburban research associates,media,pennsylvania,19063,,107 chesley dr unit 2
17411,CDM,PPD,SHP647-301,1-ZGHK87,,United_States,regional gastrointestinal,pennsylvania,yardley,19067,,301 oxford valley roadsuite 804a
17413,CDM,PPD,SHP647-301,1-YBATPD,,United_States,university of pennsylvania health system,pennsylvania,radnor,190875220,,250 king of prussia roadpenn medicine radnor
17415,CDM,PPD,C16014,1-E471A,,United_States,lankenau medical center,pennsylvania,wynnewood,19096,,100 lancaster avenue
17416,CDM,PPD,SHP647-305,1-ZUUUP6,,United_States,main line gastroenterology assoc,pennsylvania,wynnewood,19096,,100 east lancaster avenue
17418,CDM,PRA,AP26113-11-101,013,1-1GR5I7Z,United_States,abramson cancer center,pa,philadelphia,19104,,3400 civic center boulevard16 penn tower building
17419,CDM,PRA,AP24534-14-203,013,1-1FBKO9H,United_States,abramson cancer center,pa,philadelphia,19104,,3400 spruce street16 penn tower building16th floor
17420,CDM,ICON,C25003,,87090,United_States,abramson cancer center,pennsylvania,philadelphia,19104,,3400 spruce street16 penn tower
17421,CDM,PPD,C16021,1-8JFYCZ,,United_States,abramson cancer center of the university of pennsylvania,pennsylvania,philadelphia,19104,,3400 civic center boulevard
17423,CDM,PPD,Pevonedistat-1016,1-3SBUXJ0,,United_States,abramson cancer center of the university of pennsylvania,pennsylvania,philadelphia,19104,,3400 civic center boulevardwest pavilion
17424,CDM,PPD,C16029,1-Y49D63,,United_States,abramson cancer center of the university of pennsylvania,pennsylvania,philadelphia,19104,,3400 spruce street16 penn tower
17425,CDM,PPD,TAK-788-1502,1-6W6WVQR,,United_States,abramson cancer center of the university of pennsylvania,pennsylvania,philadelphia,19104,,3400 spruce street
17429,CDM,PPD,SHP611-201,002,,United_States,childrens hospital of philadelphia,pennsylvania,philadelphia,19104,,3401 civic center blvdabramson research center514e
17430,CDM,PPD,HOS,141,,United_States,childrens hospital of philadelphia,pennsylvania,philadelphia,19104,,3401 civic center boulevardcolket translational research buildingsuite 9054
17432,CDM,PPD,SHP621-301,1-H0CA37,,United_States,childrens hospital of philadelphia,pennsylvania,philadelphia,19104,,3401 civic center boulevard
17439,CDM,PPD,MLN0002-3024,1-BQNMJ38,,United_States,childrens hospital of philadelphia,pennsylvania,philadelphia,19104,,34th street and civic center blvd
17444,CDM,PPD,Brigatinib-1002,1-61FJUKM,,United_States,childrens hospital of philadelphia,pennsylvania,philadelphia,19104,,3501 civic center boulevardcenter for childhood cancer research
17447,CDM,PPD,SHP621-301,301-174,,United_States,childrens hospital of philadelphia,pennsylvania,philadelphia,19104,,3550 market streetchildrens hospital of philadelphia
17449,CDM,IQVIA,071102,122,1-2IR7KMU,United_States,childrens hospital of philadelphia,philadelphia,pennsylvania,19104,,3501 civic center blvd 11th fl 1110024
17452,CDM,PPD,TAK-341-1001,1-9W3RGK4,,United_States,hospital of the university of pennsylvania,pennsylvania,philadelphia,19104,,3400 civic center blvdperelman school of medicine
17457,CDM,PPD,TAK-079-1005,1-5D8IV1X,,United_States,penn presbyterian medical center,pennsylvania,philadelphia,19104,,3737 market street8th floor neurology
17458,CDM,PRA,C34004,58001,1-1CBJ9WH,United_States,perelman center for advanced medicine,pa,philadelphia,19104,,3400 civic center boulevardacc cru lymphoma 12 south pavillionroom 12182
17459,CDM,PPD,SHP647-301,1-YBATNC,,United_States,perelman center for advanced medicine,pennsylvania,philadelphia,19104,,3400 civic center boulevard
17463,CDM,PPD,TAK-788-2001,1-74VG4PK,,United_States,university of pennsylvania,pennsylvania,philadelphia,19104,,3400 civic center blvd1st floor
17464,CDM,PPD,SHP621-301,301-105,,United_States,university of pennsylvania,pennsylvania,philadelphia,19104,,3400 civic center boulevardperelman center for advanced medicine7 south pavilion
17467,CDM,PPD,SHP647-306,1-4GD67AU,,United_States,university of pennsylvania,pennsylvania,philadelphia,19104,,3400 spruce street
17472,CDM,PPD,SHP620-302,012,,United_States,university of pennsylvania,pennsylvania,philadelphia,19104,,3400 spruce street3 silverstein
17479,CDM,PPD,MLN0002-3024,1-7JSVWKR,,United_States,university of pennsylvania,pennsylvania,philadelphia,19104,,3737 market streetharron lung center
17483,CDM,IQVIA,SHP655-201,505,1-45C7MWV,United_States,university of pennsylvania health system,philadelphia,pennsylvania,19104,,3620 hamilton walkoffice of clinical research
17487,CDM,PPD,Pevonedistat-2001,1-D8Y2F3,,United_States,university of pennsylvania abramson cancer center,pennsylvania,philadelphia,19104,,3400 spruce street16 penn tower
17489,CDM,PPD,SHP647-305,1-XE1D2F,,United_States,university of pennsylvania,pennsylvania,philadelphia,191044206,,3400 spruce streetperelman school of medicine
17492,CDM,PPD,SHP647-306,1-25ZAGFU,,United_States,penn mediciniegastroenterology,pennsylvania,philadelphia,191045127,,3400 civic center boulevardperelman center for advanced medicinesouth pavilion 4th floor
17500,CDM,PPD,SHP647-305,1-ZGHK4D,,United_States,penn gi  the endoscopy center of pennsylvania hospital,pennsylvania,philadelphia,19106,,230 w washington sqfloor 4
17502,CDM,PPD,C16021,1-8JW0K2,,United_States,pennsylvania oncology hematology associates,pennsylvania,philadelphia,19106,,230 west washington square
17503,CDM,PPD,C16014,58037,,United_States,pennsylvania oncology hematology associates,pennsylvania,philadelphia,19106,,230 west washington square 2nd floor
17506,CDM,PPD,C16014,1-FDPFE,,United_States,bodine center for cancer research,pennsylvania,philadelphia,19107,,111 south 11th street
17507,CDM,PPD,TAK-079-1004,1-5QGG65Z,,United_States,cardeza foundation hemophilia center,pennsylvania,philadelphia,19107,,1015 chestnut streetsuite 1020
17508,CDM,PPD,SHP647-303,1-15ZFJXT,,United_States,drexel university college of medicine,pennsylvania,philadelphia,19107,,219 north broad streetthe arnold t berman md building 5th floor
17510,CDM,PPD,VDZ-5034,58029,,United_States,drexel university college of medicine,pennsylvania,philadelphia,19107,,219 north broad street
17516,CDM,PPD,TAK-007-2001,1-7FJ0MF4,,United_States,jefferson university physicians,pennsylvania,philadelphia,19107,,925 chestnut streetjefferson medical oncology associates
17517,CDM,PPD,TAK-007-2001,1-7EY4W1G,,United_States,jefferson university physicians,pennsylvania,philadelphia,19107,,925 chestnut street
17521,CDM,PPD,SHP607-202,1-15NMZWM,,United_States,thomas jefferson university,pennsylvania,philadelphia,19107,,111 south 11th streetsuite 4240
17525,CDM,PPD,Pevonedistat-2001,1-D8Y2EQ,,United_States,thomas jefferson university,pennsylvania,philadelphia,19107,,233 south 10th streetsidney kimmel cancer center
17529,CDM,PPD,MLN0002-3024,1-7JXXRIX,,United_States,nemours childrens clinic,pennsylvania,philadelphia,191074428,,833 chestnut st ste 1210suite 204
17530,CDM,PPD,C16021,1-8IWM0C,,United_States,thomas jefferson university,pennsylvania,philadelphia,191075099,,1015 walnut streetcurtis building
17532,CDM,PPD,TAK-071-2002,58017,,United_States,university of pennsylvania,pennsylvania,philadelphia,191076103,,330 s 9th stdept of neurology3rd floor
17534,CDM,PPD,TAK-079-1004,1-5QHJUZ0,,United_States,design science,pennsylvania,philadelphia,19109,,123 broad street
17535,CDM,PRA,C16038,10027,1-1HKOO4A,United_States,fox chase cancer center,pa,philadelphia,19111,,333 cottman avenueroom c307
17537,CDM,PPD,TAK-981-1503,1-COG9XVD,,United_States,fox chase cancer center,pennsylvania,philadelphia,19111,,333 cottman avenuedepartment of diagnostic imaginghospital building
17538,CDM,PRA,TAK-573-1001,58104,11785,United_States,fox chase cancer center,pennsylvania,philadelphia,19111,,333 cottman avenue
17544,CDM,PPD,SHP647-303,1-247A53Z,,United_States,fox chase cancer center,pennsylvania,philadelphia,19111,,333 cottman avenuedivision of gastroenterology
17562,CDM,PPD,P2002,1-6CH93I2,,United_States,fox chase cancer center,pennsylvania,philadelphia,19111,,7701 burholme avenue
17565,CDM,PPD,SHP647-301,1-111XYOT,,United_States,gastroentestinal specialists,pennsylvania,philadelphia,19114,,3998 red lion road cancer centersuite 240
17572,CDM,PPD,C16029,1-YQMM9G,,United_States,greater philadelphia cancer and hematology specialists pc,pennsylvania,philadelphia,19114,,3998 red lion road
17574,CDM,PPD,TAK-071-2002,1-BAXBOQ0,,United_States,drexel university college of medicine,pennsylvania,philadelphia,19129,,2900 west queen lane queen lane medical campus hahnemann school of medic
17575,CDM,PPD,Pevonedistat-3001,1-16QX741,,United_States,thomas jefferson university,pennsylvania,philadelphia,19131,,3905 ford roadsidney kimmel cancer centersuite 420a
17576,CDM,PPD,SHP607-202,1-15NMZWZ,,United_States,st christophers hospital for children,pennsylvania,philadelphia,19134,,160 east erie avenue
17577,CDM,PPD,SHP647-304,1-15SMJQT,,United_States,temple university hospital,pennsylvania,philadelphia,19140,,3401 north broad street
17586,CDM,IQVIA,471101,103,1-1OXYKRO,United_States,temple university of the commonwealth system of higher education,philadelphia,pennsylvania,19140,,3401 north broad streetparkinson pavilion 7th floor
17587,CDM,PPD,Pevonedistat-1016,1-3SBUQYF,,United_States,temple university hospital,pennsylvania,philadelphia,191405101,,3307 n broad st rm 154fels institute for cancer research  molecular biologyroom 154
17588,CDM,PPD,SHP647-301,1-Y22SCN,,United_States,albert einstein medical center,pennsylvania,philadelphia,19141,,5501 old york roadklein building
17592,CDM,PPD,SHP647-307,1-24H1ENB,,United_States,main line gastroenterology assoc,pennsylvania,malvern,19355,,325 west central avenuesuite 200
17594,CDM,PPD,SHP647-305,1-24H1EMB,,United_States,main line gastroenterology assoc,pennsylvania,malvern,19355,,325 west central avenue
17599,CDM,PPD,SHP647-301,1-ZI69G7,,United_States,pivotal clinical research,pennsylvania,malvern,19355,,325 central avenuesuite 200suite 200
17601,CDM,PPD,C16014,1-LODXE,,United_States,chester county hemonc,pennsylvania,west chester,19380,,440 east marshall street
17602,CDM,PPD,C16014,1-HDKNL,,United_States,cantor biermann,pennsylvania,norristown,19401,,834 walnut st suite 110suite 308
17603,CDM,PPD,C16014,1-HGO8F,,United_States,montgomery hospital,pennsylvania,norristown,19401,,1301 powell streethematolog internal medicine oncologysuite 308
17604,CDM,PPD,SHP647-302,1-22G0NIY,,United_States,pottstown medical specialists inc,pennsylvania,pottstown,19464,,1591 medical drive
17611,CDM,PPD,C16014,1-FT0BP,,United_States,pottstown memorial regional cancer center,pennsylvania,pottstown,19464,,1600 east high street
17612,CDM,PPD,SHP647-302,1-1WS1RQQ,,United_States,digestive disease associates,pennsylvania,wyomissing,19610,,1011 reed ave
17619,CDM,PRA,TAK-906-2002,58049,1-1MTNUXP,United_States,digestive disease associates  wyomissing,pa,wyomissing,19610,,1011 reed avenuesuite 300
17621,CDM,IQVIA,TAK-994-1501,58036,1-50QU74J,United_States,respiratory specialists,wyomissing,pennsylvania,19610,,2608 keiser blvd
17622,CDM,PPD,SHP647-305,1-24UHI1A,,United_States,digestive disease associates ltd,pennsylvania,west reading,19611,,301 south 7th avenuesuite 215
17629,CDM,PPD,SHP647-304,1-24PMIFY,,United_States,gastroenterology specialists of delaware,delaware,newark,19702,,2600 glasgow avenuesuite 106
17636,CDM,PPD,C16014,1-CK4Z2,,United_States,christiana care health system,delaware,newark,19713,,200 hygeia drive
17637,CDM,PPD,P2002,1-5XUE8UO,,United_States,christiana care health system,delaware,newark,19713,,4701 ogletown stanton rd
17640,CDM,PPD,SHP647-301,1-109GCPK,,United_States,gastroenterology associate,delaware,newark,19713,,4745 ogletown stanton roadmedical arts pavilionsuite 134
17643,CDM,PPD,TAK-981-1501,58115,,United_States,medical oncology hematology consultants,delaware,newark,197137007,,4701 ogletown stanton rd ste 3400
17645,CDM,PPD,Ponatinib-1501,58004,,United_States,alfred i dupont hospital for children,delaware,wilmington,19803,,1600 rockland roadnemours neuroscience center
17646,CDM,PPD,Brigatinib-1002,1-619XIL3,,United_States,alfred i dupont hospital for children,delaware,wilmington,19803,,1600 rockland road
17652,CDM,PPD,SHP647-305,1-24QTFMI,,United_States,delaware digestive diseases associates pa,delaware,seaford,19973,,904 middleford road
17659,CDM,PPD,SHP647-301,1-ZH6JLB,,United_States,capital digestive care,district of columbia,washington,20006,,2021 k street nwsuite t110
17666,CDM,ICON,C25003,,5768,United_States,georgetown university,district of columbia,washington,20007,,3800 reservoir road nw
17667,CDM,PPD,TAK-071-2002,1-E0H5VI3,,United_States,georgetown university medical center,district of columbia,washington,20007,,3800 reservoir roadlombardi cancer center
17670,CDM,PPD,TAK-007-2001,1-704P0DP,,United_States,georgetown university medical center,district of columbia,washington,20007,,3800 reservoir road northwest
17672,CDM,PPD,Pevonedistat-1016,1-75YKJ3W,,United_States,georgetown university medical center,district of columbia,washington,20007,,3800 reservoir road northwest4 main building
17679,CDM,PPD,C16021,1-8JW0QW,,United_States,georgetown university medical center,district of columbia,washington,20007,,3800 reservoir road northwestdepartment of neurology
17683,CDM,PPD,SHP647-305,1-YB9NSG,,United_States,medstar georgetown university hospital,district of columbia,washington,20007,,3800 reservior road northwest
17687,CDM,IQVIA,SHP655-201,507,1-45C99ID,United_States,georgetown university hospitalmedstar,washington,district of columbia,200072113,,3800 reservoir rd nwphc building 7th floor
17690,CDM,PPD,SHP647-301,1-YBATR4,,United_States,chevy chase endoscopy center,district of columbia,washington,20010,,106 irving street northwestsuite 205
17692,CDM,PRA,SYR-322_309,58036,1-1NHUR4Y,United_States,childrens national health system,dc,washington,20010,,111 michigan avenue northwest
17693,CDM,PPD,SHP607-202,1-15MX1GX,,United_States,childrens national health system,district of columbia,washington,20010,,111 michigan avenue northwest
17696,CDM,PPD,SHP621-301,301-143,,United_States,childrens national medical center,district of columbia,washington,20010,,111 michigan avenue northwestdivision of gastroenterology hepatology and nutrition
17698,CDM,PPD,Brigatinib-1003,1-6185DYC,,United_States,childrens national medical center,district of columbia,washington,20010,,111 michigan avenue northwestcenter for cancer and blood disorders  main hospital location
17699,CDM,PPD,SHP607-202,1-15MY45H,,United_States,childrens national medical center,district of columbia,washington,20010,,111 michigan avenue northwest
17704,CDM,PPD,Pevonedistat-2001,1-D8Y2RJ,,United_States,medstar research institute,district of columbia,washington,20010,,110 irving street northwestwashington cancer institute
17705,CDM,PPD,Pevonedistat-1016,1-3SHMBT8,,United_States,medstar research institute,district of columbia,washington,20010,,110 irving street northwest
17707,CDM,PPD,SHP647-301,1-Y14RN9,,United_States,medstar washington hospital center,district of columbia,washington,20010,,106 irving street northwestphysicians office building
17709,CDM,IQVIA,Vedolizumab-4014,58103,1-42IQ3JB,United_States,medstar washington hospital center,washington,district of columbia,20010,,110 irving street nw  room 1a50b
17710,CDM,PPD,C16014,1-FUPWT,,United_States,washington hospital center,district of columbia,washington,20010,,110 irving streetwashington heart
17712,CDM,PPD,TAK-788-2001,1-74VG4WY,,United_States,sibley memorial hospital,district of columbia,washington,20016,,5215 loughboro rd nw
17714,CDM,PPD,P2002,1-7ENFP8L,,United_States,george washington university,district of columbia,washington,20037,,2150 pennsylvania ave nw
17715,CDM,PPD,NSMM-5001,58029,,United_States,george washington university,district of columbia,washington,20037,,2150 pennsylvania avenue northwest
17719,CDM,PPD,TAK-079-1005,1-5D85A5K,,United_States,the george washington university medical faculty associates,district of columbia,washington,20037,,2150 pennsylvania avenue northwestheadache clinic
17721,CDM,PPD,TAK-079-1005,58526,,United_States,george washington university,district of columbia,washington,200373201,,2150 pennsylvania ave nw ste 4417
17722,CDM,IQVIA,C28001,58005,1-1713ZVR,United_States,augusta university,washington,dc,20057,,37th and o streets nw
17723,CDM,IQVIA,SHP633-304,0425,1-2QT68X0,United_States,georgetown childrens research network,washington,district of columbia,20057,,3800 reservoir road nwsw104 meddent
17724,CDM,IQVIA,201501,804,1-2LLICJ5,United_States,georgetown university hospital,washington,district of columbia,20057,,4000 reservoir road nw2nd floor
17726,CDM,PPD,SHP620-303,1-TIJF7J,,United_States,howard university,district of columbia,washington,20059,,2121 georgia avenue northwest center for sickle cell disease
17727,CDM,ICON,C25003,,278668,United_States,howard university hospital,district of columbia,washington,20060,,2041 georgia ave nwtowers building
17728,CDM,PPD,SHP647-307,1-166S3R3,,United_States,gastroenterology associates of northern virginia chantilly office,virginia,chantilly,20151,,3914 centreville roadsuite 350
17735,CDM,PPD,SHP647-301,1-2SJI66T,,United_States,gastroenterology associates pc,virginia,gainesville,20155,,7915 lake manassas drive
17736,CDM,PPD,SHP647-301,1-33OHNM5,,United_States,gi associates gainsville  elligo  ppds,virginia,gainesville,20155,,7915 lake manassas drivesuite 302
17750,CDM,IQVIA,TED-R13-002,0523,1-1ML1YQL,United_States,colon stomach and liver center,leesburg,virginia,20176,,19455 deerfield avenuesuite 201
17751,CDM,PPD,SHP621-301,301-167,,United_States,emeritas research group,virginia,lansdowne,20176,,19455 deerfield avenuesuite 201
17753,CDM,PPD,Pevonedistat-2001,1-D8Y2SM,,United_States,va medical center  navref  ppds,district of columbia,washington,20422,,50 irving street northwestdepartment of medicineroom 435 hs 64907
17755,CDM,IQVIA,C14011,58012,1-642OP0,United_States,vermont cancer center,washington,dc,20422,,50 irving street
17758,CDM,PPD,SHP647-301,1-ZVCYK2,,United_States,medstar shah medical group,maryland,hollywood,20636,,24035 three notch road
17759,CDM,PPD,SHP647-302,302-770,,United_States,tri county endoscopy,maryland,hollywood,20636,,24035 three notch road
17765,CDM,PPD,SHP647-301,1-112J4Y7,,United_States,mid atlantic medical research center,maryland,charlotte hall,20659,,37767 market drive
17767,CDM,PPD,SHP647-303,1-245C1F4,,United_States,calvert gastroenterology,maryland,prince frederick,20678,,110 hospital roadsuite 210
17774,CDM,PPD,SHP647-305,1-Y22C0M,,United_States,maryland digestive disease center,maryland,laurel,20707,,7350 van dusen road
17776,CDM,PPD,C16014,1-AGGBI,,United_States,oncology hematology associates pa,maryland,clinton,20735,,8926 woodyard roadsuite 101
17779,CDM,PPD,C16021,1-OJUFYX,,United_States,walter reed army medical center wramc,maryland,bethesda,20814,,4301 jones bridge roadamerica building3rd floor
17780,CDM,IQVIA,Vedolizumab-4014,58099,1-2R9E4MM,United_States,chevy chase clinical research,chevy chase,maryland,20815,,5530 wisconsin avenuesuite 820
17783,CDM,PPD,SHP647-307,1-15TS7L9,,United_States,chevy chase clinical research,maryland,chevy chase,20815,,5550 friendship boulevardsuite t90
17785,CDM,PPD,SHP647-303,303-745,,United_States,chevy chase clinical research,maryland,chevy chase,20815,,5550 friendship boulevard
17790,CDM,PPD,SHP647-302,1-21GAO6I,,United_States,dc gastroenterology,maryland,chevy chase,20815,,5530 wisconsin ave 715
17797,CDM,IQVIA,TAK-925-2002,58003,1-4QRDLTB,United_States,helene a emsellem md pc trading as the center for sleep  wake disorders,chevy chase,maryland,20815,,5454 wisconsin avenuesuite 1725
17799,CDM,IQVIA,TAK-743-3001,108,1-54ZWZ2Z,United_States,institute for asthma  allergy  chevy chase,chevy chase,maryland,20815,,2 wisconsin circle suite 250
17802,CDM,PPD,SHP643-301,643301-105,,United_States,institute for asthma and allergy,maryland,chevy chase,20815,,2 wisconsin circle
17803,CDM,IQVIA,MLN0002SC-3031,58105,1-2BNZLK7,United_States,metropolitan gastroenterology group pc chevy chase clinical research,chevy chase,maryland,20815,,5550 friendship boulevardsuite t90
17806,CDM,PRA,C16038,10003,1-1GTKT1K,United_States,american oncology partners of maryland pa,md,bethesda,20817,,6410 rockledge drivesuite 660
17807,CDM,PPD,C16021,58105,,United_States,american oncology partners of maryland pa,maryland,bethesda,20817,,6410 rockledge drivesuite 660
17809,CDM,PPD,SHP647-301,1-203PCGO,,United_States,capital digestive care llc,maryland,bethesda,20817,,10215 fernwood rdsuite 404
17816,CDM,PPD,Pevonedistat-1016,1-3SC0KWE,,United_States,center for cancer and blood disorders,maryland,bethesda,20817,,6410 rockledge drivesuite 660
17818,CDM,PPD,C16014,58005,,United_States,center for cancer and blood disorders,maryland,bethesda,20817,,6410 rockledge drive
17823,CDM,PPD,TAK-341-1001,1-9W3RGI5,,United_States,national institute of neurological disorders and stroke,maryland,bethesda,208245801,,po box 5801
17824,CDM,PPD,C16014,1-AGMYY,,United_States,associates of oncologyhematology pc,maryland,rockville,20850,,9707 medical center drivesuite 300
17826,CDM,PRA,TAK-906-2002,58028,1-1JYYZ6P,United_States,capitol research,md,rockville,20850,,10110 molecular drive
17827,CDM,PPD,TAK-788-3001,1-62VRXY1,,United_States,center for cancer and blood disorders,maryland,rockville,20850,,9707 medical center drivesuite 660
17829,CDM,PPD,DEN-303,58000,,United_States,optimal research,maryland,rockville,20850,,15201 shady grove roadsuite 202
17830,CDM,PPD,Pevonedistat-1016,1-3SBUQZV,,United_States,national cancer institute center for cancer research,maryland,rockville,208503330,,9609 medical center dr
17831,CDM,PPD,SHP465-308,114,,United_States,neuroscientific insights,maryland,rockville,20852,,3202 tower oaks boulevard
17832,CDM,PPD,TAK-071-2002,1-B8X39YU,,United_States,meridian clinical researchrockville maryland  platinum  ppds,maryland,rockville,20854,,seven locks roadmontrose west building
17833,CDM,PRA,TAK-831-2001,58001,1-1M0XKXS,United_States,cbh health,md,gaithersburg,20877,,9318 gaither roadunit 220  unit 265
17834,CDM,IQVIA,TAK-831-2002,58004,1-4E8ZVP5,United_States,center for behavioral health llc,gaithersburg,maryland,20877,,9318 gaither road suite 220  265
17835,CDM,PPD,VDZ-5034,58040,,United_States,uniformed services university of the health sciences usuhs,maryland,bethesda,20889,,8901 wisconsin avenuegi departmentbuilding 9 floor 1
17836,CDM,PPD,NSMM-5001,58025,,United_States,walter reed national military medical center  dod  ppds,maryland,bethesda,20889,,8901 rockville pikeamerica building3rd floor
17837,CDM,IQVIA,Vedolizumab-4014,58049,1-2VV1YYG,United_States,walter reed national military medical center the geneva foundation,bethesda,maryland,20889,,8901 rockville pike
17838,CDM,PPD,SHP647-302,1-16743YN,,United_States,walter reed national military medical center  dod  ppds,maryland,bethesda,208895600,,8901 wisconsin avenuegi departmentbuilding 9 floor 1
17845,CDM,PPD,TAK-079-1004,1-5QH85BW,,United_States,national cancer institute center for cancer research,maryland,bethesda,20892,,10 center drive
17846,CDM,PPD,Pevonedistat-3001,1-16R4CFR,,United_States,national heart lung and blood institute,maryland,bethesda,20892,,9000 rockville pikenational institute of health building 10
17847,CDM,PPD,SHP647-301,1-XEOOC3,,United_States,national institute of allergy and infectious diseases,maryland,bethesda,20892,,5601 fishers lane
17849,CDM,PPD,SHP607-202,1-15NMR6K,,United_States,national institute of child health and human development nichd,maryland,bethesda,20892,,6100 executive blvdeunice kennedy shriver national institute of child health and human development nichd
17850,CDM,PPD,SHP621-301,1-H0C8Z2,,United_States,national institutes of health,maryland,bethesda,20892,,9000 rockville pike
17852,CDM,PPD,SHP647-305,1-114L1FA,,United_States,complete health services,maryland,silver spring,20903,,831 university boulevard eastsuite 26
17854,CDM,PPD,SHP647-303,1-245C1FH,,United_States,capital digestive care,maryland,silver spring,20904,,12510 prosperity drivesuite 200
17861,CDM,PPD,SHP647-305,1-25B4FYB,,United_States,montgomery gastroenterology,maryland,silver spring,20906,,12012 viers mill road
17868,CDM,PPD,C16029,1-ZDEHE3,,United_States,university of maryland upper chesapeake kaufman cancer center,maryland,bel air,21014,,500 upper chesapeake drive
17869,CDM,PPD,SHP647-301,1-YCQLLJ,,United_States,anaheim clinical trials llc,maryland,bel air,210151574,,1012 milchling drive
17871,CDM,PPD,C16014,1-KC8XX,,United_States,maryland oncology hematology columbia  usor,maryland,columbia,21044,,10710 charter drivesuite g020
17875,CDM,IQVIA,Vedolizumab-4014,58028,1-2R9E4FW,United_States,gastro center of maryland,columbia,maryland,21045,,7120 minstrel way
17876,CDM,PRA,TAK-906-2002,58052,1-1MTNUTY,United_States,gastro center of maryland,md,columbia,21045,,7120 minstrel waysuite 100
17877,CDM,PPD,SHP647-307,1-26C3UC3,,United_States,gastroenterology center of maryland,maryland,columbia,21045,,7120 minstrel waysuite 100
17884,CDM,PPD,SHP647-301,1-203PCFZ,,United_States,baltimorewashington gi pa,maryland,baltimore,21075,,1900 east northern parkway suite 305a
17891,CDM,PPD,SHP647-307,1-26C3UCF,,United_States,gastro associates,maryland,elkridge,21075,,8186 lark brown roadsuite 104
17898,CDM,PPD,TAK-071-2002,1-69XLDTP,,United_States,parkinsons and movement disorders center of maryland,maryland,elkridge,21075,,8180 lark brown road202
17899,CDM,PPD,SHP647-301,1-YBATMC,,United_States,green spring station endoscopy center,maryland,lutherville,21093,,10751 falls roadsheikh zayed tower
17901,CDM,PPD,TAK-981-1503,1-BADMZRP,,United_States,johns hopkins university,maryland,lutherville,21093,,10751 falls roadfalls concourse
17902,CDM,PPD,SHP647-304,1-24D0ULN,,United_States,park medical associates,maryland,lutherville,21093,,10755 falls road 200
17909,CDM,PPD,SHP647-301,1-Y0ZOF9,,United_States,towson gastroenterology associates,maryland,timonium,21093,,6565 north charleston streetsuite b
17911,CDM,PPD,SHP647-301,1-10977B7,,United_States,tufts medical center  ppds,massachusetts,boston,2111,,750 washington streetgastroenterology researchbox 233
17914,CDM,PPD,SHP647-302,1-15ZF951,,United_States,digestive disease associates pa,maryland,catonsville,21118,,700 geipe roadsuite 230
17924,CDM,PRA,C31004,58008,1-1C6PKZ8,United_States,massachusetts general hospital cancer center,ma,boston,2114,,yawkey center for outpatient care mgh32 fruit streetsuite 9e
17926,CDM,PPD,MLN0002-3024,1-7I03MLY,,United_States,boston childrens hospital,massachusetts,boston,2115,,300 longwood avenue
17929,CDM,PPD,Brigatinib-1002,1-619XIQ3,,United_States,danafarber boston children’s cancer and blood disorders center,massachusetts,boston,2115,,da3450 brookline avenuepediatric brain tumor center
17932,CDM,PPD,C16021,1-8JF3YA,,United_States,carroll county cancer center,maryland,westminster,21157,,555 south center street
17935,CDM,PRA,Vedolizumab-3035,58011,1-1N4JN4J,United_States,marlene and stewart greenebaum cancer center,md,baltimore,21201,,22 south greene street
17936,CDM,ICON,C25003,,86866,United_States,umgcc,maryland,baltimore,21201,,22 south greene street
17937,CDM,PPD,TAK-981-1503,1-BADMZRE,,United_States,university of maryland,maryland,baltimore,21201,,22 south green streetgreenebaum cancer center
17938,CDM,PPD,C16029,58011,,United_States,university of maryland,maryland,baltimore,21201,,22 south greene street
17945,CDM,PPD,TAK-788-2001,1-8X4PT8C,,United_States,university of maryland greenebaum cancer center,maryland,baltimore,21201,,22 south green streetgreenebaum cancer center
17949,CDM,PPD,Pevonedistat-3001,1-16VAC9J,,United_States,university of maryland medical center,maryland,baltimore,21201,,22 south green streetgreenebaum cancer center
17958,CDM,PPD,SHP607-202,1-15NMR67,,United_States,university of maryland school of medicine,maryland,baltimore,212011509,,665 w baltimore street
17960,CDM,PPD,SHP647-305,1-XEOOIJ,,United_States,mercy medical center baltimore,maryland,baltimore,21202,,213 saint paul place
17963,CDM,PPD,SHP621-301,1-13J5UQI,,United_States,charm city research,maryland,towson,21204,,7505 osler drivesuite 501
17964,CDM,PPD,SHP647-305,1-XFRPNY,,United_States,greater baltimore medical center,maryland,baltimore,21204,,6565 north charles streetsuite 512suite b
17968,CDM,PPD,C16014,58031,,United_States,university of maryland st joseph medical center the cancer institute,maryland,towson,21204,,7501 osler drive102
17971,CDM,PPD,VDZ-5034,58050,,United_States,johns hopkins university,maryland,baltimore,21205,,720 rutland avenue918 ross research bldg
17972,CDM,PRA,TAK-018-2001,58017,1-1PY2VOY,United_States,johns hopkins university,md,baltimore,21205,,720 rutland avenue
17974,CDM,PPD,TAK-788-3001,1-4YT5P85,,United_States,johns hopkins university school of medicine,maryland,baltimore,21205,,1830 east monument streetdepartment of medicine
17976,CDM,PPD,SHP465-308,1-1S4V8FX,,United_States,kennedy krieger institute,maryland,baltimore,21205,,716 north broadway
17977,CDM,PRA,TAK-041-2001,Weinberger D,1-1KTCEC9,United_States,lieber institute for brain development,md,baltimore,21205,,855 north wolfe street3rd floorsuite 300
17978,CDM,IQVIA,SHP655-201,508,1-45E9C5U,United_States,johns hopkins hospital hematology,baltimore,maryland,21205,,720 rutland avejohns hopkins hospital
17979,CDM,PPD,SHP647-301,1-XEQAP2,,United_States,pharmasite research inc  clinedge  ppds,maryland,pikesville,21208,,1314 bedford avenuesuite 205
17981,CDM,PPD,Pevonedistat-1016,1-3SBUQWA,,United_States,office of judith e karp md,maryland,baltimore,212081824,,3422 manor hill rd
17982,CDM,IQVIA,Vedolizumab-4014,58097,1-402BBA5,United_States,woodholme gastroenterology associates pa,baltimore,maryland,21209,,1838 greene tree road suite 400
17983,CDM,PPD,SHP647-301,1-14GH5MJ,,United_States,continental clinical research solutions llc,maryland,baltimore,21212,,6600 york roadsuite 104
17990,CDM,PPD,SHP647-305,1-112J8HP,,United_States,alan a rosen md pa,maryland,baltimore,21215,,2411 west belvedere avenuesuite 306
17992,CDM,PPD,C16014,58010,,United_States,sinai hospital of baltimore,maryland,baltimore,21215,,2401 west belvedere avenue
17993,CDM,PPD,C16029,1-Y493EV,,United_States,sinai hospital of baltimore,maryland,baltimore,21215,,2401 west belvedere avenuethe alvin  lois lapidus cancer institute
17996,CDM,PPD,SHP647-302,1-21GANZX,,United_States,woodholme gastroenterology associates,maryland,baltimore,21215,,2411 w belvedere ave
18003,CDM,IQVIA,SHP655-101,105,1-4DMLK8Q,United_States,johns hopkins university school of medicine,baltimore,maryland,21218,,3400 charles streetcrb1390
18004,CDM,PPD,C16014,1-DCUKT,,United_States,johns hopkins bayview medical center,maryland,baltimore,21224,,4940 eastern avenue
18006,CDM,IQVIA,161403,522,1-4LVWBBD,United_States,johns hopkins university,baltimore,maryland,21224,,4940 eastern av301 buildingsuite 4500
18009,CDM,PRA,TAK-831-2001,58001,1-1M16X7C,United_States,maryland psychiatric research center,md,baltimore,21228,,department of psychiatry university of maryland school of medicinetawes buildingpo box 21247
18010,CDM,PPD,SHP621-301,1-H3LR3Z,,United_States,digestive disease associates pa,maryland,baltimore,21229,,4660 wilkens avenuesuite 230
18013,CDM,PRA,C16038,10031,1-1KTUCB8,United_States,saint agnes hospital,md,baltimore,21229,,saint agnes hosptal900 south caton avenue
18014,CDM,PPD,C16029,58003,,United_States,saint agnes hospital  baltimore  hunt  ppds,maryland,baltimore,21229,,900 canton avenue clinical research centermb 235
18015,CDM,PPD,TAK-079-1002,1-4C2T2T7,,United_States,saint agnes hospital  baltimore  hunt  ppds,maryland,baltimore,21229,,900 caton avenue
18018,CDM,PPD,Pevonedistat-3001,1-16QRYEL,,United_States,saint agnes hospital  baltimore  hunt  ppds,maryland,baltimore,21229,,900 caton street mb 235
18020,CDM,PPD,C16051,1-3SH58YL,,United_States,johns hopkins sidney kimmel comprehensive cancer center,maryland,baltimore,21231,,1650 orleans streetbuntingblaustein cancer research building department of pediatric oncology
18023,CDM,PPD,Pevonedistat-1016,1-3SBUO6A,,United_States,johns hopkins sidney kimmel comprehensive cancer center,maryland,baltimore,21231,,401 north broadwayharry and jeannette weinberg building
18025,CDM,PPD,TAK-007-2001,1-6ZX3V3E,,United_States,johns hopkins university,maryland,baltimore,21231,,401 north broadway
18028,CDM,PPD,C16014,1-AHPCC,,United_States,auerbach hematology oncology associates,maryland,baltimore,21237,,9110 philadelphia road
18029,CDM,PPD,C16021,1-8JF3N5,,United_States,harry and jeannette weinberg cancer center at franklin square hospital,maryland,baltimore,21237,,9103 franklin square drivesuite 2200
18031,CDM,PPD,C16029,1-YQMPTV,,United_States,maryland hematology oncology association,maryland,baltimore,21237,,9114 philadelphia roadsuite 208
18034,CDM,PPD,SHP647-305,1-1117NP8,,United_States,charm city research,maryland,towson,21286,,7801 york roadsuite 309
18036,CDM,IQVIA,471101,122,1-3UO50QC,United_States,pulmonary critical care associates of baltimore,towson,maryland,21286,,515 fairmount avesuite 500
18037,CDM,IQVIA,Vedolizumab-4014,58072,1-2VUZGAF,United_States,johns hopkins clinical research center,baltimore,maryland,21287,,1830 e monument st room 422
18042,CDM,PPD,TAK-788-3001,1-4YUHUOA,,United_States,johns hopkins sidney kimmel comprehensive cancer center,maryland,baltimore,21287,,401 north broadway
18044,CDM,PPD,Pevonedistat-3001,1-1CSXR78,,United_States,johns hopkins university,maryland,baltimore,21287,,1650 orleans streetcrbirm 3m87
18049,CDM,PPD,SHP647-303,1-15OFH2U,,United_States,johns hopkins university,maryland,baltimore,21287,,600 n wolfe street
18059,CDM,PPD,SHP607-202,1-15MUJTJ,,United_States,johns hopkins university school of medicine,maryland,baltimore,21287,,1800 orleans street
18060,CDM,PPD,MLN0002-3024,3024-58019,,United_States,johns hopkins university,maryland,baltimore,212870005,,600 n wolfe stjohns hopkins university school of medicine
18062,CDM,PPD,MLN0002-3024,1-7JU6M3N,,United_States,johns hopkins hospital,maryland,baltimore,212870006,,601 n caroline stjohns hopkins childrens center
18063,CDM,PPD,TAK-981-1503,1-COG9XTI,,United_States,johns hopkins sidney kimmel comprehensive cancer center,maryland,baltimore,212870013,,1650 orleans st
18064,CDM,PRA,MLN0002-2003,58038,1-1DUJTCB,United_States,johns hopkins university,md,baltimore,212872631,,division of pedriatric gastroenterology and nutritionjohns hopkins university school of medicinebrady 320 600 north wolfe street
18065,CDM,PPD,C16014,1-APWWL,,United_States,annapolis oncology,maryland,annapolis,21401,,2003 medical parkwaysuite 300
18066,CDM,PPD,C16021,1-8JUVST,,United_States,annapolis oncology,maryland,annapolis,21401,,900 bestgate roadsuite 300
18067,CDM,PPD,SHP647-302,1-167WPI7,,United_States,anne arundel gastroenterology associates pa,maryland,annapolis,21401,,820 bestgate roadsuite 2b
18076,CDM,PPD,SHP647-305,1-XFSIT8,,United_States,digestive disorders associates,maryland,annapolis,21401,,621 ridgely avenuesuite 201
18078,CDM,PPD,SHP647-301,1-ZWZNMY,,United_States,western maryland health,maryland,cumberland,21502,,224 washington street
18080,CDM,PPD,C16014,1-1D1ICV,,United_States,western maryland health system,maryland,cumberland,21502,,12500 willowbrook roadschwab family cancer center
18081,CDM,PPD,C16021,1-8JVS9R,,United_States,frederick memorial health system,maryland,frederick,21701,,501 west seventh street oncology care consultants
18082,CDM,PPD,C16014,1-CLBGM,,United_States,frederick memorial hospital,maryland,frederick,21701,,501 west 7th street area aregional cancer therapy center
18084,CDM,PPD,C16014,1-CK4TE,,United_States,oncology care consultants,maryland,frederick,21701,,501 west 7th street
18085,CDM,PPD,SHP647-301,1-XFSIS6,,United_States,community clinical trials,maryland,frederick,21702,,170 thomas johnson drivesuite 555
18087,CDM,PPD,SHP620-303,1-TJB5M1,,United_States,childrens national medical center,maryland,frederick,21704,,5910 frederick crossing lanefrederick regional outpatient center
18088,CDM,PPD,SHP647-305,1-25B4FWW,,United_States,gastroenterology associates  hagerstown,maryland,hagerstown,21742,,11110 medical campus roadsuite 250
18095,CDM,PPD,SHP647-305,1-10TILM3,,United_States,meritus center for clinical research,maryland,hagerstown,21742,,11110 medical campus road
18098,CDM,PPD,SHP647-307,1-4NIOIR7,,United_States,digestive health associates pc,massachusetts,stoneham,2180,,3 woodland roadsuite 306
18100,CDM,PPD,SHP607-202,1-15NMR7Z,,United_States,south shore hospital,massachusetts,south weymouth,2190,,55 fogg road at route 18
18101,CDM,PPD,SHP647-305,1-ZK5DHD,,United_States,gastroenterology center of northern virginiaannandale office,virginia,annandale,22003,,3299 woodburn roadsuite 220
18103,CDM,PPD,SHP620-303,1-TJ8O09,,United_States,inova fairfax hospital,virginia,annandale,22003,,3289 woodburn roadcenter for liver diseasessuite 250
18104,CDM,PPD,SHP647-305,1-ZH2FNX,,United_States,northern va gastrointestinal,virginia,annandale,22003,,3301 woodburn roadsuite 107
18106,CDM,PPD,SHP-GCB-402,108,,United_States,lysosomal rare disorders research and treatment center,virginia,fairfax,22030,,3702 pender drivesuite 170
18107,CDM,IQVIA,161503,121,1-2XD1CXU,United_States,o  o alpan llc,fairfax,virginia,22030,,11212 waples mill roadsuite 103
18108,CDM,PPD,SHP621-301,1-H0CA50,,United_States,o and o alpan llc,virginia,fairfax,22030,,11212 waples mill roadallergies and asthmasuite 100
18110,CDM,PPD,C16014,1-B4A8T,,United_States,fairfax northern virginia hematology oncology,virginia,fairfax,22031,,8050 williams dr suite 400suite 400
18111,CDM,PPD,C16021,1-8JF3P9,,United_States,fairfax northern virginia hematology oncology,virginia,fairfax,22031,,8503 arlington boulevardsuite 400
18112,CDM,PPD,SHP621-301,1-H0CA1F,,United_States,pediatric gastroentrenology of northern virgina,virginia,fairfax,22031,,2700 prosperity avenue260
18113,CDM,PRA,Brigatinib-2002,58009,1-1KOZAM2,United_States,usor  virginia cancer specialists  fairfax office,va,fairfax,22031,,3040 williams drive340
18114,CDM,PRA,Brigatinib-3001,58009,1-1LRECU1,United_States,usor  virginia cancer specialists  fairfax office,va,fairfax,22031,,8503 arlington boulevardsuite 400
18115,CDM,IQVIA,Vedolizumab-4014,58083,1-34EP231,United_States,verity research inc,fairfax,virginia,22031,,3028 javier roadsuite 500
18116,CDM,PPD,TAK-788-2001,58004,,United_States,virginia cancer specialists,virginia,fairfax,22031,,8503 arlington boulevard
18122,CDM,PPD,TAK-788-3001,1-4YTI5HP,,United_States,virginia cancer specialists fairfax  usor,virginia,fairfax,22031,,8503 arlington boulevardsuite 400
18129,CDM,PPD,TAK-981-1502,58018,,United_States,virginia cancer specialists fairfax  usor,virginia,fairfax,220314629,,8503 arlington blvd ste 400suite 400
18131,CDM,PPD,SHP647-305,1-ZGHKJH,,United_States,gastroenterology associates of northern virginia  fairfax,virginia,fairfax,22033,,3700 joseph siewick drivesuite 308
18133,CDM,PPD,SHP647-301,1-ZVCY7M,,United_States,gastrointestinal medicine associates,virginia,fairfax,22033,,3620 joseph siewick drivesuite 307
18135,CDM,PPD,TAK-079-1004,1-5QHGEDT,,United_States,inova fairfax hospital,virginia,fairfax,22033,,3600 joseph siewick drivecancer center
18136,CDM,PPD,SHP647-305,1-1113FAZ,,United_States,capital caring,virginia,falls church,22042,,2900 telestar court
18138,CDM,PPD,SHP643-301,1-2XB5F5G,,United_States,massachusetts general hospital,massachusetts,boston,2214,,55 fruit streetallergyimmunology departmentco ashley keogh
18139,CDM,PPD,TAK-788-2001,1-8XF4IRR,,United_States,beth israel deaconess medical center,massachusetts,boston,2215,,110 francis streetdivision of gastroenterology
18141,CDM,PPD,SHP647-304,1-167Y56M,,United_States,beth israel deaconess medical center,massachusetts,boston,2215,,330 brookline avenue
18150,CDM,PPD,Pevonedistat-1016,1-3SC63KS,,United_States,dana farber cancer institute,massachusetts,boston,2215,,450 brookline ave
18153,CDM,PPD,TAK-071-2002,1-6JV49W1,,United_States,harvard medical school,massachusetts,boston,2215,,1340 boylston streetmarcus center for aging research
18154,CDM,PPD,C16029,1-YQMMH1,,United_States,cancer and blood specialists of northern virginia,virginia,woodbridge,22191,,2280 opitz boulevardsuite 220
18155,CDM,PPD,SHP647-305,1-1PC7WM9,,United_States,gi group reston  elligo  ppds,virginia,reston,22191,,1939 roland clarke placesuite 200
18163,CDM,PPD,SHP647-305,1-ZUXXIU,,United_States,associates in gastroenterology,virginia,woodbridge,22192,,14010 smoketown roadsuite 117
18165,CDM,PPD,SHP647-307,1-15NM2L4,,United_States,cardinal internal medicine associates pc,virginia,woodbridge,22192,,12731 marblestone drivesuite 200
18172,CDM,PPD,C16014,1-CK4U0,,United_States,arlington fairfax hematology oncology pc,virginia,arlington,22205,,1635 north george mason drivesuite 170
18173,CDM,PPD,SHP647-305,1-ZWUD7D,,United_States,gastroenterology center of northern virginia,virginia,arlington,22205,,1715 north george mason drivesuite 105
18175,CDM,PPD,SHP647-305,1-109772M,,United_States,alexandria clinical research llc,virginia,alexandria,22304,,4660 kenmore avenuesuite 900
18177,CDM,PPD,SHP607-202,1-15MWYLX,,United_States,mary washington hospital,virginia,fredericksburg,22401,,1001 sam perry boulevard
18178,CDM,PPD,SHP647-307,307-767,,United_States,winchester gastroenterology associates,virginia,winchester,22601,,190 campus boulevardsuite 300
18183,CDM,PPD,SHP647-305,1-112J584,,United_States,winchester medical center,virginia,winchester,22601,,190 campus boulevardsuite 300
18185,CDM,IQVIA,C14012,58028,1-3DIJHI,United_States,university of virginia,charlottesville,va,22903,,500 ray c hunt drneurology floor 3
18186,CDM,PPD,TAK-079-1004,58407,,United_States,university of virginia,virginia,charlottesville,22903,,1240 lee streetemily couric clinical cancer center
18188,CDM,PPD,Pevonedistat-2001,58019,,United_States,university of virginia,virginia,charlottesville,22903,,1240 lee streethematology oncology
18190,CDM,PPD,TAK-788-2001,1-74VZMM8,,United_States,university of virginia,virginia,charlottesville,22903,,1240 lee street
18193,CDM,PRA,AP32788-15-101,262,1-1K3COMA,United_States,university of virginia cancer center,va,charlottesville,22903,,emily couric clinical cancer center1240 lee street
18197,CDM,PPD,SHP465-308,101,,United_States,university of virginia school of medicine,virginia,charlottesville,22903,,560 ray c hunt drive
18198,CDM,PPD,TAK-071-2002,1-B915AFH,,United_States,university of virginia school of medicine,virginia,charlottesville,229033363,,1300 jefferson park ave
18200,CDM,IQVIA,TED-R13-002,0560,1-13YFKTV,United_States,digestive health center,charlottesville,virginia,22908,,1300 lee streetwest complex 2nd floor
18202,CDM,PRA,SYR-322_309,58012,1-1JRFQVD,United_States,university of virginia,va,charlottesville,22908,,department of pediatrics1215 lee street4th floor barringer room 4412
18203,CDM,PPD,VDZ-5034,58052,,United_States,university of virginia,virginia,charlottesville,22908,,1215 lee streetdigestive health center
18210,CDM,PPD,SHP647-305,1-XFRULS,,United_States,university of virginia health system,virginia,charlottesville,22908,,1335 lee streetdepartment of emergency medicine
18213,CDM,PPD,SHP647-303,1-4Q1JWEW,,United_States,university of virginia school of medicine,virginia,charlottesviille,22908,,1215 lee street
18221,CDM,PPD,MLN0002-3024,1-ELD74SG,,United_States,university of virginia,virginia,charlottesville,229080386,,1221 lee strbox 800386
18222,CDM,PPD,TAK-981-1502,1-6TYHD9Z,,United_States,university of virginia health system,virginia,charlottesville,229080386,,post office box 800386department of pediatrics
18223,CDM,PPD,MLN0002-3024,1-E3ZYPTR,,United_States,university of virginia,virginia,charlottesville,229080709,,po box 800709
18226,CDM,PPD,TAK-981-1502,58009,,United_States,university of virginia health system,virginia,charlottesville,229080816,,1215 lee stuva cancer center
18227,CDM,PPD,SHP647-302,1-4GACWEN,,United_States,university of virginia school of medicine,virginia,charlottesville,229080816,,1215 lee st
18228,CDM,PPD,SHP647-305,1-Y22SPI,,United_States,university of virginia school of medicine,virginia,charlottesville,229080816,,1215 lee stdigestive health center
18231,CDM,PPD,SHP620-303,1-U6A6UJ,,United_States,university of virginia health system,virginia,charlottesville,229081340,,po box 801340division of infectious diseases and international health
18232,CDM,PPD,SHP647-301,1-XFRQCV,,United_States,charlottesville medical research center,virginia,charlottesville,22911,,325 winding river lane
18234,CDM,PPD,SHP647-305,1-XFVR4K,,United_States,signature healthcare,massachusetts,brockton,2302,,680 centre street
18236,CDM,PPD,C16014,1-EDY89,,United_States,virginia physicians inc,virginia,glen allen,23060,,4900 cox road division of hematologyoncologydivision of hematologyoncology
18237,CDM,PPD,C16029,1-10NUR5D,,United_States,bon secours cancer institute at st francis,virginia,midlothian,23114,,14051 saint francis boulevardsuite 201
18239,CDM,PPD,SHP620-303,1-TIF973,,United_States,bon secours richmond health system,virginia,midlothian,23114,,13710 saint francis boulevardliver institute of virginiasuite 313
18240,CDM,PPD,SHP647-301,1-109GCNI,,United_States,st francis medical center,virginia,midlothian,23114,,13700 saint francis boulevardsuite 205
18242,CDM,PPD,SHP647-301,1-14GD2W7,,United_States,virginia research center llc,virginia,midlothian,23114,,13911 st francis blvdsuite 101
18249,CDM,PPD,SHP607-202,021,,United_States,childrens hospital of richmond at vcu  chor  pin,virginia,richmond,23219,,1000 east broad streetroom 1107
18250,CDM,PPD,Brigatinib-1002,1-6185EBT,,United_States,childrens hospital of richmond at vcu  chor  pin,virginia,richmond,23219,,1000 east broad street
18252,CDM,PPD,SHP621-301,1-H3PQX8,,United_States,virginia commonwealth university,virginia,richmond,23219,,401 north 12th street
18254,CDM,PPD,SHP607-203,021,,United_States,childrens hospital of richmond at vcu  chor  pin,virginia,richmond,232191930,,1000 e broad st
18256,CDM,PPD,P2002,1-5IZUHIN,,United_States,bon secours richmond health system,virginia,richmond,23226,,5801 bremo road
18257,CDM,PPD,TAK-788-2001,1-74VZMWA,,United_States,bon secours st marys hospital,virginia,richmond,23226,,5875 bremo roadsouth medical office building
18258,CDM,PPD,C16029,1-11CPCWB,,United_States,virginia cancer institute,virginia,richmond,23226,,7202 glen forest drivesuite 309
18259,CDM,PPD,SHP647-301,1-YBATG3,,United_States,gastrointestinal specialists inc,virginia,henrico,23229,,7611 forest avenuesuite 410
18261,CDM,PPD,SHP647-305,1-ZWXR72,,United_States,mitchell endoscopy center,virginia,richmond,23229,,7605 forest avenuesuite 305
18263,CDM,PPD,SHP647-305,1-109777E,,United_States,gastrointestinal specialists inc,virginia,richmond,23230,,2369 staples mill roadsuite 202
18265,CDM,PPD,C16021,1-8IVGO1,,United_States,virginia cancer institute,virginia,richmond,23230,,6605 west broad streetsuite b
18270,CDM,PPD,SHP647-303,1-15U4H1D,,United_States,clinical research partners llc,virginia,north chesterfield,23235,,1467 johnston willis drive
18277,CDM,PPD,TAK-981-1503,1-COG9XVQ,,United_States,vcu massey cancer center,virginia,richmond,232351900,,9000 stony point pkwymassey cancer center
18278,CDM,PPD,SHP647-301,1-114L1V0,,United_States,richmond gastroenterology associates inc,virginia,richmond,23236,,223 wadsworth drive
18280,CDM,IQVIA,Vedolizumab-4014,58008,1-2R1MWEA,United_States,mcguire dva medical center,richmond,virginia,23249,,1201 broad rock blvdgihepatology 111n
18281,CDM,PPD,SHP647-306,1-15VSG0W,,United_States,mcguire dvamc  navref  ppds,virginia,richmond,23249,,1201 broad rock boulevardgihepatology service 111n
18288,CDM,PPD,VDZ-5034,58011,,United_States,mcguire veterans affairs medical center  navref  ppds,virginia,richmond,23249,,1201 broad rock boulevard
18291,CDM,PRA,Vedolizumab-3035,58034,1-1N4K7UK,United_States,massey cancer center,va,richmond,23298,,1300 east marshall streetmailstop 980157
18293,CDM,IQVIA,SHP655-101,115,1-4DMI2VQ,United_States,vcu health  research parent,richmond,virginia,23298,,1300 e marshall street north 8north hospital 8th floor
18294,CDM,PPD,TAK-079-1005,1-6S54DOW,,United_States,vcu health system,virginia,richmond,23298,,1101 east marshall streetpo box 980599
18295,CDM,ICON,C25003,,253809,United_States,vcu massey cancer center,virginia,richmond,23298,,401 college st box 9800037
18296,CDM,PPD,SHP621-301,1-HK0J0K,,United_States,virginia commonwealth university,virginia,richmond,23298,,1200 east broad streetwest hospital 14th floor west wing
18297,CDM,PPD,C16029,1-Y4931I,,United_States,virginia commonwealth university,virginia,richmond,23298,,401 college streetmassey cancer center
18298,CDM,PPD,Pevonedistat-3001,1-16PZHH4,,United_States,virginia commonwealth university,virginia,richmond,23298,,401 college street
18301,CDM,PPD,SHP647-305,1-XZH9L4,,United_States,virginia commonwealth university,virginia,richmond,23298,,417 north 11th streetgastroenterology hepatology and nutrition
18303,CDM,IQVIA,TAK-743-3001,118,1-550DC5V,United_States,virginia commonwealth university medical center,richmond,virginia,23298,,1112 e clay streetmcguire hall annex room 427virginia commonwealth university
18305,CDM,PPD,NSMM-5001,1-M5C1C0,,United_States,virginia commonwealth university,virginia,richmond,232980042,,401 north 12th streetmain hospital basement room b300
18307,CDM,PPD,C16014,1-E7UUV,,United_States,mcv hospitals,virginia,richmond,232980157,,1300 east marshall streetbone marrow transplant program
18309,CDM,PPD,TAK665-4003,1-GNYP6NN,,United_States,childrens national medical center,virginia,richmond,232985025,,1200 e broad st
18313,CDM,PPD,C16014,1-ASKB1,,United_States,cancer specialists of tidewater,virginia,chesapeake,23320,,110 wimbledon squaretidewater ltdsuite east
18316,CDM,IQVIA,MLN0002SC-3030,58029,1-262JKKU,United_States,gastroenterology associates of tidewater,chesapeake,virginia,23320,,112 gainsborough squaresuite 200
18318,CDM,PRA,TAK-906-2002,58027,1-1K2GVBD,United_States,gastroenterology associates of tidewater,va,chesapeake,23320,,112 gainsborough squaresuite 200
18319,CDM,PPD,SHP647-305,1-XE2Z72,,United_States,gastroenterology associates of tidewater,virginia,chesapeake,23320,,112 gainsborough squaresuite 200
18322,CDM,PPD,SHP647-305,1-114L1JU,,United_States,gastroenterology limited,virginia,virginia beach,23451,,1101 first colonial road
18324,CDM,PPD,TAK-071-2002,1-65RE4J9,,United_States,sentara neurology specialists,virginia,virginia beach,23455,,816 independence boulevard
18325,CDM,PPD,SHP647-301,1-Y0ZOCV,,United_States,digestive and liver disease specialists,virginia,norfolk,23502,,844 kempsville roadsuite 106
18330,CDM,PPD,C16029,1-YQMMEO,,United_States,virginia oncology associates,virginia,norfolk,23502,,5900 lake wright drive
18331,CDM,PPD,TAK-071-2002,58024,,United_States,meridian clinical research norfolk virginia,virginia,norfolk,235023932,,6161 kempsville cir ste 315
18332,CDM,PPD,HOS,080,,United_States,childrens hospital of the kings daughter,virginia,norfolk,23507,,601 childrens lane
18334,CDM,PPD,Brigatinib-1002,1-615RB9I,,United_States,childrens specialty group,virginia,norfolk,23507,,601 childrens lane
18336,CDM,PPD,MLN0002-3024,1-7JSADP7,,United_States,eastern virginia medical school,virginia,norfolk,235071627,,601 colley ave
18338,CDM,PPD,C16021,1-8IWLKI,,United_States,peninsula cancer institute,virginia,newport news,23601,,12100 warwick boulevard
18344,CDM,PPD,SHP647-301,1-112J523,,United_States,bon secours richmond health system,virginia,newport news,23602,,12720 mcmanus boulevardliver institute of virginiasuite 313
18347,CDM,PPD,SHP647-305,1-ZWXGOD,,United_States,gastrointestinal and liver speciailists of tidewater pllc,virginia,newport news,23606,,11803 jefferson avenuesuite 230
18349,CDM,PPD,SHP647-305,1-11164NV,,United_States,health research of hampton roads inc  clinedge  ppds,virginia,newport news,23606,,11747 jefferson avenuesuite 1b
18351,CDM,PPD,SHP647-305,1-YBATYZ,,United_States,hampton roads gastroenterology pc,virginia,hampton,23666,,501 medical dr
18353,CDM,PPD,C16014,1-CLBJN,,United_States,virginia oncology associates hampton  usor,virginia,hampton,23666,,3000 coliseum drivesuite 100
18354,CDM,IQVIA,SPD503-401,706,1-4NJMJ0C,United_States,clinical research partners llc,petersburg,virginia,23805,,269 medical park boulevard
18356,CDM,PPD,SHP621-301,301-145,,United_States,carilion clinic,virginia,roanoke,24013,,102 highland avenuesuite 305
18357,CDM,PPD,MLN0002-3024,3024-58021,,United_States,carilion clinic,virginia,roanoke,240132253,,102 highland ave se ste 305
18359,CDM,PPD,TAK-788-2001,1-74VZMNU,,United_States,blue ridge cancer care  usor,virginia,roanoke,24014,,2103 south jefferson street
18360,CDM,PPD,Brigatinib-1002,1-619OYWR,,United_States,carilion childrens hospital,virginia,roanoke,24014,,1906 belleview avenue
18363,CDM,PPD,SHP647-301,1-114L1CU,,United_States,carilion roanoke memorial hospital,virginia,roanoke,24033,,1906 belleview avenue southeast
18365,CDM,PPD,Pevonedistat-1016,1-3SHMBRM,,United_States,oncology and hematology associates of southwest virginia blacksburg  usor,virginia,blacksburg,24060,,2600 research center drive2nd floor
18368,CDM,PPD,SHP621-301,1-H5KQB5,,United_States,new river valley research institute,virginia,christianburg,24073,,110 akers farm road ne
18371,CDM,PPD,C16029,1-Y4IFCG,,United_States,oncology and hematology associates of southwest virginia inc,virginia,christiansburg,24073,,2955 market streetclinical research departmentsuite 5
18372,CDM,PPD,C16014,58108,,United_States,oncology and hematology associates of southwest virginia inc,virginia,salem,24153,,1900 electric roadsuite 5
18373,CDM,PPD,C16029,1-YQM95N,,United_States,oncology and hematology associates of southwest virginia inc,virginia,salem,24153,,1900 electric road
18375,CDM,PPD,TAK-071-2002,1-B8X39WW,,United_States,massachusetts general hospital,massachusetts,lexington,2421,,1 maguire roadlurie centerdepartment of pediatrics
18379,CDM,PPD,C16021,1-8IWLRV,,United_States,cancer outreach associates,virginia,abingdon,24211,,104 abingdon place
18381,CDM,PPD,SHP647-301,1-111U0T2,,United_States,mountain gastroenterology pc,virginia,abingdon,24211,,108 abingdon place
18383,CDM,PPD,SHP647-301,1-YBATFQ,,United_States,mid atlantic health specialists,virginia,galax,24333,,103 doctors park
18390,CDM,PPD,C16029,1-YQMPUK,,United_States,lynchburg hematology oncology clinic inc,virginia,lynchburg,24501,,1701 thomson driveallan p pearson regional cancer center
18394,CDM,IQVIA,TAK-101-2001,58009,1-4YNC5YT,United_States,blue ridge medical research,lynchburg,virginia,24502,,121 nationwide dr ste a
18395,CDM,PPD,SHP621-301,301-124,,United_States,blue ridge medical research,virginia,lynchburg,24502,,121 nationwide drivesuite a
18398,CDM,PPD,SHP647-301,1-43M3EM0,,United_States,gastroenterology associates of central virginia,virginia,lynchburg,24502,,121 nationwide drivesuite a
18405,CDM,PPD,C16014,1-F1KPJ,,United_States,danville hematology and oncology,virginia,danville,24541,,125 executive drivesuite j
18406,CDM,PPD,SHP647-301,1-Y0ZASO,,United_States,internal medicine associates clinical research,virginia,danville,24541,,101 holbrook street
18408,CDM,PPD,SHP647-301,1-Y22SLP,,United_States,newton wellesley hospital,massachusetts,newton,2462,,2014 washington streetsuite 201
18410,CDM,PPD,SHP647-301,1-ZI1CE2,,United_States,bluefield gastroenterology,west virginia,princeton,24740,,405 12th street extension
18412,CDM,PPD,SHP647-305,1-ZGHKBY,,United_States,kanawha valley gi associates,west virginia,s charleston,25303,,117 7th avenue
18414,CDM,PPD,SHP647-301,1-ZH2FV2,,United_States,charleston area medical center institute,west virginia,charleston,25304,,3100 maccorkle avenue sesuite 509
18416,CDM,PPD,SHP647-305,1-ZWZ2JM,,United_States,charleston digestive disease inc,west virginia,charleston,25304,,2335 chesterfield avenuesuite 103
18418,CDM,PPD,SHP647-305,1-XEOOI3,,United_States,charleston internal medicine research institute,west virginia,charleston,25304,,3701 maccorkle avenue southeast
18420,CDM,PPD,NSMM-5001,58049,,United_States,berkeley medical center,west virginia,martinsburg,25401,,2000 foundation waywvu medicine cancer and infusion centersuite 2600
18421,CDM,PPD,C16021,1-8IWLHI,,United_States,edwards comprehensive cancer center,west virginia,huntington,25701,,1400 hal greer boulevard
18423,CDM,IQVIA,161503,119,1-32MIXKT,United_States,marshall university medical center,charleston,west virginia,25701,,1600 medical center drive
18424,CDM,PPD,NSMM-5001,1-TUA27Y,,United_States,st marys medical center,west virginia,huntington,25702,,2900 first avenueoncology department
18425,CDM,PPD,SHP647-301,1-ZVCYNG,,United_States,huntington internal medicine group,west virginia,huntington,25705,,5170 us route 60 east
18427,CDM,PPD,SHP647-301,1-ZGYE3A,,United_States,charles f couabbound md practice,west virginia,beckley,25801,,58 brookshire lane
18429,CDM,PPD,NSMM-5001,1-TUA2AP,,United_States,camden clark medical center,west virginia,parkersburg,26101,,705 garfield avenuewvu medicinesuite 220
18430,CDM,PPD,SHP647-305,1-ZWXGPD,,United_States,digestive care center,west virginia,parkersburg,26101,,600 18th streetsuite 401
