SR_NUM,SOURCE_IDENTIFIER,DATA_SOURCE_NAME,PROTOCOL_NUMBER,SITE_NUM,UNIQUE_SITE_ID,COUNTRY,SITE_NAME,STATE,CITY,POSTAL_CODE,SITE_STATUS,CONCAT_ADDRESS
16384,CDM,PPD,SHP647-301,1-ZX03IP,,United_States,new york gi center,new york,bronx,10461,,1200 waters place
16386,CDM,PPD,C16014,1-E46XW,,United_States,our lady of mercy medical center,new york,bronx,10466,,600 east 233 street 7th floor14a36
16391,CDM,PPD,Brigatinib-1003,1-6E3MZKQ,,United_States,childrens hospital at montefiore,new york,bronx,10467,,3415 bainbridge avenue
16419,CDM,ICON,C25003,,7949,United_States,yeshiva university  albert einstein college of medicine  montefiore medical center mmc,new york,bronx,104672401,,111 e 210th st
16420,CDM,IQVIA,TED-R13-002,0532,1-1U4URT8,United_States,montefiore medical ctr chld spc,bronx,new york,104672403,,3415 bainbridge ave
16421,CDM,PPD,SHP647-301,1-10805JI,,United_States,advantage clinical trials,new york,bronx,10468,,2386 jerome avenue3rd floor
16432,CDM,PPD,SHP620-303,0061,,United_States,james j peters veterans administration medical center  navref  ppds,new york,bronx,10468,,130 west kingsbridge road
16441,CDM,PPD,C16014,1-DX4FJ,,United_States,advanced oncology associates,new york,armonk,10504,,84 business park drivesuite 203
16442,CDM,PPD,SHP647-305,1-ZX03KO,,United_States,caremount medical pc,new york,carmel,10512,,672 stoneleigh avenue
16444,CDM,PPD,SHP647-306,1-25TK5PQ,,United_States,scarsdale medical group,new york,harrison,10528,,550 mamaroneck avenuesuite 101
16451,CDM,PPD,Brigatinib-1002,1-616GJ6F,,United_States,boston childrens health physicians bchp,new york,hawthorne,10532,,19 bradhurst aveskyline officeroom 1nj08
16453,CDM,PPD,C16014,1-TDMLM,,United_States,new york medical college,new york,hawthorne,10532,,19 bradhurst avenue
16457,CDM,PPD,Pevonedistat-1016,1-3SC6FPN,,United_States,westchester oncology hematology,new york,hawthorne,10532,,19 bradhurst avenuesuite 2100
16458,CDM,PPD,SHP647-301,1-ZWXQZ5,,United_States,caremount medical pc mount kisco,new york,mount kisco,10549,,90 south bedford road
16460,CDM,PPD,C16014,1-GR2QX,,United_States,westchester hematology oncology associates,new york,mount kisco,10549,,400 east main street 5th floor
16461,CDM,PPD,SHP620-303,1-TIF98H,,United_States,mount vernon hospital,new york,mount vernon,10550,,12 north 7th avenue
16462,CDM,PPD,Pevonedistat-2001,1-D8Y2QH,,United_States,new york medical college,new york,valhalla,10562,,19 skyline drivedepartment of medicine munger pavilion
16463,CDM,ICON,C25003,,347115,United_States,memorial sloan kettering sleepy hollow,new york,sleepy hollow,10591,,777 north broadway
16471,CDM,PPD,SHP607-202,1-17X5DFH,,United_States,new york medical college,new york,valhalla,10595,,100 woods roadnicu mfch at wmc
16474,CDM,PPD,SHP607-202,1-15NMR19,,United_States,regional neonatal center,new york,westchester,10595,,valhalla campus
16475,CDM,PPD,SHP607-202,1-15NMR0W,,United_States,westchester medical center,new york,valhalla,10595,,100 woods roadmaria fareri childrens hospital regional neonatal center
16476,CDM,PPD,TAK620-5004,038,,United_States,new york medical college,new york,valhalla,105951574,,50 plaza w
16477,CDM,PPD,TAK-079-1004,1-5QGG63W,,United_States,white plains hospital,new york,white plains,10601,,170 maple avenuesuite 300
16478,CDM,PRA,C31004,58011B,1-1C6T9OS,United_States,memorial sloankettering cancer center  westchester,ny,west harrison,10604,,500 westchester avenue
16480,CDM,PPD,SHP647-303,1-1654BOF,,United_States,westchester medical and nutrional center,new york,white plains,10604,,222 westchester avenuesuite 308
16487,CDM,PPD,C16021,1-OJUG1E,,United_States,montefiore aoa,new york,new rochelle,10801,,50 guion placesuite 203
16488,CDM,PPD,C16029,1-YQMPOY,,United_States,goshen medical associates,new york,goshen,10924,,70 hatfield lane
16489,CDM,PPD,SHP647-301,1-ZVCYFW,,United_States,horizon family medical group,new york,goshen,10924,,70 hatfield lanesuite 204
16491,CDM,PPD,C16014,1-HHT03,,United_States,hematology oncology associates of rockland,new york,new city,10956,,500 new hempstead road
16492,CDM,PPD,C16021,1-8JF3TD,,United_States,hematology oncology associates of rockland,new york,nyack,10960,,255 5th avenue
16493,CDM,PPD,C16014,1-CPA1F,,United_States,nyack hospital,new york,nyack,10960,,160 midland avenue
16494,CDM,PPD,SHP647-301,1-XZL2O1,,United_States,digestive disease associates of rockland,new york,pomona,10970,,east 974 route 45 pomona professional plaza
16496,CDM,PPD,SHP647-307,1-166VQ13,,United_States,hofstra northwell school of medicine,new york,great neck,11021,,600 northern boulevardsuite 111
16505,CDM,PPD,C16021,1-8INZ0S,,United_States,monter cancer center,new york,great neck,11021,,225 community drive
16507,CDM,PPD,C16014,1-LTQD2,,United_States,north shore university hospitalmanhasset,new york,great neck,11021,,100 community drivedivision of nephrology and hypertension
16515,CDM,PPD,SHP647-305,1-XE3M85,,United_States,nyu langone long island clinical research associates,new york,great neck,11021,,1000 northern boulevard
16525,CDM,PPD,C16014,1-F9G4P,,United_States,cancer research of long island,new york,great neck,11023,,310 east shore road
16526,CDM,PRA,TAK-906-2002,58045,1-1MTYZF7,United_States,long island gastrointestinal research group,ny,great neck,11023,,310 east shore roadsuite 208
16532,CDM,PPD,SHP647-306,1-25TK5PE,,United_States,north shore gastroenterology associates pc,new york,great neck,11023,,233 east shore road101
16539,CDM,PPD,SHP620-303,1-TIF9DU,,United_States,albert einstein college of medicine,new york,manhasset,11030,,300 community driveschneider childrens hospital  north shore
16540,CDM,PPD,GOS,101,,United_States,north shore hematology  oncology pllc,new york,manhasset,11030,,1201 northern boulevardhematologyoncology
16552,CDM,PPD,SHP634-404,1-1JU9IDM,,United_States,northwell health,new york,manhasset,11030,,600 community drivedepartment of medicinesuite 300
16553,CDM,IQVIA,MLN0002SC-3031,58066,1-1Z6V9W8,United_States,digestive disease care,new hyde park,new york,11040,,900 hillside avenue
16555,CDM,PPD,C16014,1-HDKQQ,,United_States,nassau hem onc pc,new york,new hyde park,11040,,410 lakeville road
16556,CDM,PPD,Brigatinib-1003,1-6188XQJ,,United_States,schneider childrens hospital,new york,new hyde park,11040,,26901 76th avenuesteven  alexandra cohen childrens hospital of nysuite 255
16558,CDM,PRA,Vedolizumab-3035,58031,1-1OQXJPB,United_States,cohen childrens medical center,ny,new hyde park,110401433,,26901 76th ave
16559,CDM,PPD,C16021,1-8IWLL2,,United_States,arena oncology associates,new york,lake success,11042,,1999 marcus avenuesuite 120
16561,CDM,PPD,C16014,1-B4AP6,,United_States,biomedical research alliance of new york,new york,lake success,11042,,1981 marcus avenue
16572,CDM,PRA,Ponatinib-3001,58009,1-1KSCGOA,United_States,monter cancer center,ny,new hyde park,11042,,department of hematology oncology450 lakeville road
16573,CDM,PPD,C16029,1-YQMPHZ,,United_States,north shore university hospitalmanhasset,new york,lake success,11042,,450 lakeville roadsuite 212
16576,CDM,PPD,TAK-788-2001,58005,,United_States,northwell health cancer institute,new york,lake success,11042,,450 lakeville roadmonter cancer center
16589,CDM,PPD,MLN0002-3024,3024-58012,,United_States,the steven and alexandra cohen childrens medical center of new york,new york,lake success,11042,,1991 marcus avenuedivision of pediatric endocrinology
16597,CDM,PPD,MLN0002-3025,3025-58012,,United_States,the steven and alexandra cohen childrens medical center of new york,new york,new hyde park,110422062,,1991 marcus ave ste m1009th tower manhasset
16598,CDM,PPD,SHP647-303,1-246J0JN,,United_States,mount sinai hospital of queens,new york,sunnyside,111042062,,4330 46th streetsuite 1h
16605,CDM,PPD,SHP647-302,1-36BGKAB,,United_States,new york clinical trials,new york,brooklyn,11201,,50 court street10th floor room 1002
16616,CDM,PPD,SHP647-303,1-2468BC2,,United_States,gastroenterology associates llp,new york,brooklyn,11203,,450 clarkson avenue
16628,CDM,PPD,SHP647-305,1-ZGHKLH,,United_States,baroukh  robert kodsi md practice,new york,brooklyn,11204,,6010 bay pkwysuite 101
16630,CDM,PPD,SHP647-301,1-YBATTR,,United_States,maimonides medical center,new york,brooklyn,11204,,2202 65th streetfloor 2
16632,CDM,PPD,SHP647-301,1-1117NST,,United_States,healthwise medical associates,new york,brooklyn,11206,,228 bushwick avenue
16634,CDM,PPD,C16029,1-YQMPX0,,United_States,stratton va medical center  navref  ppds,new york,albany,11208,,113 holland avenue
16635,CDM,PPD,SHP647-302,1-1TQOORJ,,United_States,ellipsis research group,new york,brooklyn,11215,,362 9th street
16642,CDM,PPD,SHP647-302,1-21XXT1B,,United_States,new yorkpresbyterian brooklyn methodist hospital,new york,brooklyn,11215,,506 6th streetendoscopy unit
16649,CDM,PPD,SHP647-304,1-24J3X1T,,United_States,preferred health partners,new york,brooklyn,11217,,447 atlantic avenue
16656,CDM,PPD,SHP607-202,1-18ASHCM,,United_States,maimonides medical center,new york,brooklyn,11219,,4802 10th avenuek113
16658,CDM,PPD,MLN0002-3024,1-7JXXRBC,,United_States,brookdale university hospital and medical center,new york,brooklyn,11220,,1 bookdale place
16659,CDM,PPD,SHP647-301,1-ZGHKMH,,United_States,frank j lacqua md,new york,brooklyn,11228,,7513 fort hamilton pkwy
16661,CDM,PPD,SHP647-304,1-24J3X2J,,United_States,irina berlin medical pc,new york,brooklyn,11229,,40 west brighton avenuesuite 104
16668,CDM,PPD,SHP647-306,1-25TK5LX,,United_States,atlantic gastroenterology pc,new york,brooklyn,11235,,2797 ocean parkway1st floor
16675,CDM,PPD,SHP647-301,1-11164BA,,United_States,dr igor grosman  dr jay e weissbluth,new york,brooklyn,11235,,1517 voorhies avenue
16682,CDM,PRA,TAK-906-5006,58058,1-1SF31IR,United_States,ny scientific,ny,brooklyn,11235,,1517 voorhies avenueground and 1st floors
16684,CDM,PPD,SHP647-301,1-112J8K3,,United_States,new yorkpresbyterianqueens,new york,flushing,11355,,5645 main streetgastroenterology
16686,CDM,PPD,SHP647-303,1-2468BD4,,United_States,nyu langone medical center,new york,flushing,11355,,13221 41st avenue
16693,CDM,PPD,SHP647-301,1-1118O7Z,,United_States,sing chan md,new york,flushing,11355,,14241 41st avenuesuite p10
16695,CDM,PPD,SHP620-303,1-TJB5NT,,United_States,weill cornell medical college,new york,flushing,11355,,5645 main streetnew york hospital queens nyhq
16696,CDM,PPD,NSMM-5001,1-LECJKN,,United_States,queens medical associates pc,new york,fresh meadows,11365,,17660 union turnpike
16698,CDM,PPD,SHP465-308,1-1NWR87K,,United_States,dr david l hurwitz md,new york,flushing,11367,,14715 70th road
16699,CDM,PPD,SHP647-303,1-4NFZS6G,,United_States,smart medical research,new york,jackson heights,11372,,7013 37th avenue
16706,CDM,PPD,SHP647-303,1-2UESSTD,,United_States,forest hills gastroenterology,new york,forest hills,11375,,10840 queens blvd
16713,CDM,PPD,SHP647-301,1-1118OCA,,United_States,medex treatment and diagnostic center,new york,forest hills,11375,,11129 queen  boulevard
16715,CDM,PPD,SHP647-301,1-1116RXA,,United_States,ima medical research pc,new york,kew gardens,11415,,8002 kew gardens roadconcourse level
16717,CDM,IQVIA,161406,161406-103,1-1X3PDPH,United_States,montefiore medical center prime,bronx,new york,11501,,200 old country rd
16720,CDM,PPD,Pevonedistat-1016,1-3M8FDXT,,United_States,winthrop hospital nyu,new york,mineola,11501,,mineola boulevard
16721,CDM,PPD,Brigatinib-1003,1-628478V,,United_States,winthrop university hospital,new york,mineola,11501,,120 mineola boulevardsuite 210
16725,CDM,IQVIA,161406,161406-117,1-1VK6089,United_States,winthrop university,mineola,new york,11501,,222 station plaza northsuite 350a
16726,CDM,PPD,SHP647-302,1-22FSDEY,,United_States,gastroenterology associates pc,new york,garden city,11530,,1103 stewart avenuesuite 300
16733,CDM,PPD,NSMM-5001,58040,,United_States,saint francis hospital,new york,east hills,11548,,2200 northern blvdthe cancer insitute at st francis hospital  the heart centersuite 100a
16734,CDM,PPD,MLN0002-3024,1-7JXXRHW,,United_States,donald and barbara zucker school of medicine at hofstranorthwell,new york,hempstead,115490001,,500 hofstra boulevard9th tower manhasset
16742,CDM,ICON,C25003,,307985,United_States,memorial sloan kettering cancer center rockville centre,new york,rockville centre,11570,,1000 n village avenue
16743,CDM,PPD,P2002,1-67C52VI,,United_States,saint francis hospital,new york,roslyn,11576,,100 port washington boulevardcancer centersuite 100
16745,CDM,PPD,SHP620-303,1-TJ8NUM,,United_States,southside hospital,new york,bay shore,11706,,301 e main street
16746,CDM,ICON,C25003,,290727,United_States,memorial sloankettering cancer center,new york,commack,117255404,,650 commack rd
16747,CDM,PPD,Pevonedistat-3001,1-17QOV5H,,United_States,north shore hematology oncology association pc,new york,east setauket,11733,,235 north belle mead rd
16751,CDM,PPD,MLN0002-3025,3025-58020,,United_States,stony brook university medical center,new york,east setauket,11733,,33 research wayclinical research center
16753,CDM,PPD,SHP647-301,1-Y14RJ1,,United_States,suny stony brook university hospital,new york,east setauket,117339292,,3 technology drivedepartment of gastroenterologysuite 300
16755,CDM,PPD,SHP647-306,1-25TK5Q2,,United_States,west carver medical group a division of prohealth,new york,huntington,11743,,200 west carver street
16762,CDM,PPD,SHP647-302,1-22FSDIC,,United_States,huntington medical group,new york,huntington station,11746,,180 east pulaski road
16772,CDM,PPD,C16014,1-HCRY3,,United_States,northport va medical center  navref  ppds,new york,northport,11768,,79 middleville road
16773,CDM,PPD,TAK-079-1004,1-62KIMZL,,United_States,new york cancer  blood specialists,new york,port jefferson station,11776,,1201 route 112
16777,CDM,PPD,Brigatinib-1002,1-62CEKZP,,United_States,stoney brook university hospital,new york,stony brook,11794,,100 nicolls roadhelath science center pediatric hematolog and oncology
16779,CDM,PPD,P2002,58027,,United_States,stony brook medicine,new york,stony brook,11794,,101 nicolls roadhealth sciences center level 18 room 030
16780,CDM,PRA,TAK-954-2004,58027,1-1OYIQK3,United_States,stony brook university hospital,ny,stony brook,11794,,101 nicolls road
16781,CDM,PPD,SHP607-202,1-15NMR07,,United_States,stony brook university medical center,new york,stony brook,11794,,100 nicolls roadchildrens hospital
16783,CDM,IQVIA,161503,113,1-2YUEJVP,United_States,stony brook university hospital,stony brook,new york,117940001,,putnam hall south campus
16786,CDM,PRA,Ponatinib-3001,58022,1-1LYCX9I,United_States,stony brook university medical center,ny,stony brook,117949446,,3 edmond d pellegrino road2nd floor
16787,CDM,PPD,SHP620-303,1-TIJFEU,,United_States,beth israel medical center,new york,west islap,11795,,1145 monttauch hwy3rd floorbaird hall
16791,CDM,PPD,SHP647-302,302-766,,United_States,baystate medical center,massachusetts,springfield,1199,,759 chestnut streettolosky centersuite 3a  3b
16798,CDM,PPD,SHP647-305,1-ZWXQXT,,United_States,bfs gastroenterology,massachusetts,pittsfield,1201,,777 north streetsuite 203
16800,CDM,PPD,SHP647-302,1-22G0NKZ,,United_States,saratoga schenectady gastroenterology associates,new york,burnt hills,12027,,848 route 50pobox 569
16807,CDM,PPD,SHP647-301,1-ZGHKAX,,United_States,advanced gastroenterology,new york,troy,12180,,147 hoosick street
16809,CDM,PPD,SHP647-305,1-112AVAO,,United_States,samaritan hospital,new york,troy,12180,,2215 burdett avenue
16811,CDM,PPD,SHP647-301,1-XE26Q3,,United_States,research foundation of state university of new york,new york,albany,12201,,post office box 9
16813,CDM,PPD,SHP647-301,1-ZGHK9J,,United_States,jerffrey gerson md,new york,albany,12203,,112 great oaks boulevardsuite 300
16815,CDM,ICON,C25003,,278859,United_States,us oncology,new york,albany,12205,,400 patroon creek blvd
16818,CDM,PPD,SHP607-202,1-15NMQXE,,United_States,albany medical center,new york,albany,12208,,43 new scotland avenue
16824,CDM,PRA,Brigatinib-3001,58015,1-1PKH0EC,United_States,new york oncology hematology  albany medical center,ny,albany,12208,,43 new scotland avenuemail code 7
16825,CDM,PPD,SHP647-301,1-205DH34,,United_States,digestive disease associates of schemedady,new york,schemedady,12309,,2147 eastern parkway
16832,CDM,PPD,P2002,58017,,United_States,medical college of wisconsin,wisconsin,milwaukee,12345,,9200 west wisconsin avenue
16833,CDM,PPD,TAK-981-1502,1-6TY38NO,,United_States,the medical college of wisconsin inc,wisconsin,milwaukee,12345,,9200 west wisconsin avenuehematology and oncology
16834,CDM,PPD,SHP647-304,1-24J3WYR,,United_States,hudson valley gastroenterology pc,new york,kingston,124014522,,26 pearl street
16841,CDM,PPD,SHP647-306,1-4BE6SEL,,United_States,digestive disease center of the hudson valley,new york,fishkill,12524,,400 westage business center drivesuite 209
16848,CDM,PPD,SHP647-301,1-1113FC7,,United_States,mid hudson medical research pllc,new york,new windsor,12553,,448 temple hill road
16850,CDM,PPD,C16014,58100,,United_States,hudson valley hematology oncology  usor,new york,poughkeepsie,12601,,159 barnegat road
16853,CDM,PPD,SHP647-301,1-XE2706,,United_States,premier medical group,new york,poughkeepsie,12601,,243 north road
16855,CDM,PPD,SHP647-305,1-XG2TJT,,United_States,premier medical group of the hudson valley,new york,poughkeepsie,12601,,243 north roadgi divisionsuite 304
16857,CDM,IQVIA,Vedolizumab-4014,58096,1-2WL9JOV,United_States,premier medical group of the hudson valley pc,poughkeepsie,new york,12601,,1 columbia streetsuite 390
16859,CDM,PPD,C16014,1-F9G47,,United_States,vasser brothers medical center,new york,dutchess,12601,,7 fox streetsuite 204
16861,CDM,PPD,SHP647-302,1-22FSD7V,,United_States,associated gastroenterologists of cny pc township 5 plaza,new york,camillus,13031,,260 township boulevardsuite 20
16868,CDM,PPD,C16014,1092,,United_States,hematology oncology associates of central new york,new york,east syracuse,13057,,5008 brittonfield parkway
16869,CDM,PPD,TAK-007-2001,1-7EY4W5O,,United_States,suny upstate medical center,new york,east syracuse,13057,,7277 snowball run
16870,CDM,PPD,SHP647-301,1-109GCMS,,United_States,medical research associates of cny pllc,new york,liverpool,13088,,5112 west taft roadsuite h
16872,CDM,PPD,MLN0002-3024,3024-58018,,United_States,suny upstate medical center,new york,syracuse,132022240,,90 presidential plz rm 4064
16874,CDM,PPD,SHP607-202,1-15NMR0K,,United_States,crouse hospital,new york,syracuse,13210,,736 irving avenue
16882,CDM,PPD,SHP634-404,118,,United_States,state university of new york upstate medical center suny,new york,syracuse,13210,,505 irving avenueinstitute for human performance clinical research unit
16887,CDM,PPD,HOS,148,,United_States,suny upstate medical center,new york,syracuse,13210,,725 irving avenuecenter for development behavior and geneticssuite 112
16891,CDM,PPD,SHP647-301,1-ZUUUMT,,United_States,syracuse gastroenterological,new york,syracuse,13210,,739 irving avenuesuite 400
16894,CDM,PPD,SHP647-301,1-ZUUUPW,,United_States,digestive disease medicine,new york,utica,13502,,110 business park drive
16896,CDM,PPD,C16014,1-HDKP5,,United_States,faxtonst lukes healthcare,new york,oneida,13502,,807 newell stclinical trials
16899,CDM,PRA,Zik-101,58002,1-1GGKKHM,United_States,regional clinical research,ny,endwell,13760,,415 hooper road
16902,CDM,PPD,C16014,1-FDPHH,,United_States,broome oncology  usor,new york,johnson city,13790,,30 harrison streetsuite 100
16903,CDM,PPD,SHP621-301,1-H3LR1W,,United_States,binghamton gastroenterology associates pc,new york,binghamton,13903,,40 mitchell avenue
16904,CDM,PPD,NSMM-5001,1-LECJI8,,United_States,broome oncology  usor,new york,binghamton,13905,,169 riverside drivesuite 100
16905,CDM,PPD,SHP607-202,1-15NMQYS,,United_States,brooks memorial hospital,new york,dunkirk,14048,,529 central avenue
16906,CDM,PPD,SHP647-301,1-14GB659,,United_States,circuit clinical,new york,newfane,14108,,2658 main street
16908,CDM,PPD,SHP647-305,1-ZWXGPP,,United_States,buffalo gastroenterology associates llp,new york,orchard park,14127,,260 red tail road
16910,CDM,PPD,SHP647-301,1-1KK449V,,United_States,circuit clinical,new york,orchard park,14127,,3065 southwestern boulevardsuite 100
16912,CDM,PPD,TAK-079-1005,1-6HJR5F8,,United_States,dent neurologic institute,new york,orchard park,14127,,200 sterling drneuropharmacologysuite 500
16913,CDM,PPD,SHP647-307,307-779,,United_States,southtowns gastroenterology pllc,new york,orchard park,14127,,310 sterling drivesuite 100
16918,CDM,PPD,SHP620-303,1-TJ8O0Z,,United_States,buffalo general hospital,new york,buffalo,14203,,100 high streetjacobs school of medicine and biomedical sciences
16919,CDM,PPD,TAK-079-1005,1-5D61DRW,,United_States,buffalo general medical center,new york,buffalo,14203,,100 high street
16920,CDM,PPD,C16014,58042,,United_States,roswell park cancer institute,new york,buffalo,14203,,1 elm and carlton street
16925,CDM,PPD,TAK-079-1005,1-5D8IUZ7,,United_States,sunybuffalo jacobs neurological institute,new york,buffalo,14203,,100 high streetalzheimers disease and memory disorders centersuite 405
16926,CDM,IQVIA,161503,114,1-2XGG48X,United_States,women  childrens hospital of buffalo,buffalo,new york,14203,,1001 main st
16927,CDM,PPD,MLN0002-3024,1-7JXXRK0,,United_States,john r oishei childrens hospital,new york,buffalo,142031021,,818 ellicott st
16935,CDM,PPD,C16014,1-ARAIX,,United_States,buffalo va medical center  navref  ppds,new york,buffalo,14215,,3495 bailey avenue
16936,CDM,PPD,C16029,1-YQM9CB,,United_States,va western new york healthcare system  navref  ppds,new york,buffalo,14215,,3495 bailey avenueoncology department
16938,CDM,PPD,C16014,1-AGGB2,,United_States,zale bernstein md pc,new york,buffalo,14215,,462 grider street
16939,CDM,PPD,SHP647-301,1-ZUUUKF,,United_States,buffalo medical group pc,new york,williamsville,14221,,9 limestone drive
16943,CDM,PPD,SHP647-305,1-ZUXXNM,,United_States,gastroenterology associates llp,new york,williamsville,14221,,60 maple roadsuite 1
16945,CDM,PPD,SHP647-301,1-ZUUUO6,,United_States,main gastroenterology,new york,williamsville,14221,,8201 main streetsuite 4
16947,CDM,PPD,MLN0002-3025,1-8V4LY7K,,United_States,center for digestive diseases,new york,buffalo,142212644,,1000 youngs rd ste 205
16949,CDM,PPD,SHP647-304,1-24J3X14,,United_States,gastroenterology associates llp,new york,buffalo,142212917,,60 maple road
16955,CDM,PPD,SHP647-305,1-10NKVV0,,United_States,university at buffalo,new york,buffalo,14222,,219 bryant streetdigestive diseases and nutrition center
16959,CDM,PPD,SHP647-305,1-24SWYMQ,,United_States,crouse hospital,new york,west seneca,14224,,3050 orchard park road
16966,CDM,PPD,TAK-071-2002,1-65R9SEE,,United_States,dent neurologic institute,new york,amherst,14226,,3980 sheridan driveneurologysuite 304
16982,CDM,PRA,Ponatinib-3001,58014,1-1KR0CT3,United_States,roswell park cancer institute,ny,buffalo,14263,,cancer cell centerelm  carlton streetsroom 506
16985,CDM,PPD,TAK-007-2001,1-6ZX3V4U,,United_States,roswell park comprehensive cancer center,new york,buffalo,14263,,elm and carlton streetshealth research inc
16986,CDM,PRA,Vedolizumab-3035,58040,1-1OZBSGZ,United_States,roswell park comprehensive cancer center,ny,buffalo,14263,,665 elm street
16987,CDM,PPD,SHP647-305,1-ZVDS6F,,United_States,north worcester gastroenterology center pc,massachusetts,leominster,1453,,105 erdman way
16989,CDM,PPD,SHP647-305,1-1118OB7,,United_States,rochester institute for digestive diseases,new york,rochester,14607,,222 alexander street
16991,CDM,PRA,Zik-101,58005,1-1GIH3BA,United_States,rochester clinical research,ny,rochester,14609,,500 helendale roadsuite l20
16992,CDM,PPD,C16014,1-HCRTA,,United_States,unity health system,new york,rochester,14611,,89 genesee streetkearney building  attn barbara porter
16993,CDM,IQVIA,TAK-831-2002,58021,1-4N3EVUW,United_States,finger lakes clinical research,rochester,new york,14618,,885 winton road south
16994,CDM,PPD,SHP647-301,1-ZWXR40,,United_States,gastroenterology group of rochester,new york,rochester,14618,,2080 clinton avenue south
16996,CDM,PPD,SHP647-305,1-109GCS9,,United_States,university of rochester medical center  ppds,new york,rochester,14618,,1065 senator keating boulevardsuite 220
16998,CDM,PPD,TAK-071-2002,1-B8X39SX,,United_States,university of rochester medicine  movement disorders unit,new york,rochester,146182628,,919 westfall rd ste 220
17001,CDM,PPD,NSMM-5001,1-LECJJY,,United_States,university of rochester  rochester general hospital  ppds,new york,rochester,14621,,1425 portland avenue
17004,CDM,PPD,SHP607-202,1-15NMQZU,,United_States,university of rochester medical center  ppds,new york,rochester,14621,,601 elmwood avenue
17006,CDM,PPD,C16019,1-CIZIEG,,United_States,interlakes foundation inc,new york,rochester,14623,,211 white spruce boulevard
17010,CDM,PPD,TAK-007-2001,1-7EZ4UFS,,United_States,james p wilmot cancer center,new york,rochester,14642,,601 elmwood aveuniversity of rochester medical center
19059,CDM,PPD,C16014,1-HFD4Z,,United_States,new bern cancer care,north carolina,new bern,28560,,1915 trent boulevard
19060,CDM,PPD,SHP647-307,1-15VSGE7,,United_States,southern gastroenterology associates,north carolina,new bern,28562,,3100 wellons boulevard
19067,CDM,PPD,C16014,1-DX4HQ,,United_States,eastern carolina internal medicine pa,north carolina,pollocksville,28573,,137 medical lane
17020,CDM,ICON,C25003,,84503,United_States,university of rochester,new york,rochester,14642,,james p wilmot cancer center601 elmwood avenue box 704
19069,CDM,IQVIA,TAK-994-1501,58037,1-52MHIK1,United_States,research carolina elite llc,hickory,north carolina,28601,,36 14th avenue ne suite 103suite 250
17022,CDM,IQVIA,NOR-213,204-01003,1-2XU6CPG,United_States,university of rochester,rochester,new york,14642,,601 elmwood avenue box 677room 35021
19071,CDM,PPD,C16029,1-YQMPVL,,United_States,carolina oncology specialists pa,north carolina,hickory,28602,,225 18th street southeast
19074,CDM,PPD,TAK-071-2002,1-B8X39XI,,United_States,neurology associates,north carolina,hickory,286021433,,1985 tate blvd se ste 600
19075,CDM,PPD,SHP647-305,1-114L1PQ,,United_States,medispect llc,north carolina,boone,28607,,870 state farm road
19077,CDM,PPD,SHP647-306,1-25THN67,,United_States,piedmont healthcare,north carolina,statesville,28625,,208 old mocksville roadnorthlake digestive caresuite b
19084,CDM,PPD,SHP647-305,1-111XYI6,,United_States,statesville research institute,north carolina,statesville,28625,,208 old mocksville road
17037,CDM,PPD,Pevonedistat-3001,1-16PZHFP,,United_States,university of rochester medical center  ppds,new york,rochester,146420001,,601 elmwood avenuelaboratory medicine and pathology
19086,CDM,PPD,SHP647-301,1-1113EUT,,United_States,burke research associates,north carolina,rutherford college,28671,,560 malcolm boulevard
19088,CDM,PPD,SHP647-304,304-406,,United_States,piedmont healthcare,north carolina,statesville,28677,,633 brookdale drive
17041,CDM,IQVIA,161406,161406-107,1-1VK507G,United_States,corning center for clinical research,corning,new york,14830,,88 tioga avenuesuite 102
17042,CDM,PPD,SHP647-305,1-ZWZNSS,,United_States,arnothealth gastroenterology,new york,elmira,14901,,571 saint josephs boulevard
17044,CDM,PPD,SHP647-305,1-ZVCYQS,,United_States,south hills gastroenterology associates,pennsylvania,jefferson hills,15025,,1200 brooks lanesuite g10
19093,CDM,PPD,SHP647-302,1-2UFOETM,,United_States,gastrointestinal medicine associates,rhode island,wakefield,2879,,360 kingstown rd suite 202
17046,CDM,PPD,NSMM-5001,58056,,United_States,veterans affairs pittsburgh healthcare system  navref  ppds,pennsylvania,pittsburgh,15040,,university drive c
17047,CDM,PPD,SHP647-301,1-2057UQC,,United_States,associates in gastroenterology,pennsylvania,wexford,15090,,5500 brooktree roadsuite 201
19100,CDM,PPD,SHP647-302,1-4GAXIQW,,United_States,asheville gastroenterology associates pa,north carolina,asheville,28801,,191 biltmore avenueresearch department
17054,CDM,PPD,SHP647-305,1-ZH8TXA,,United_States,center for digestive healh  nutritionthree rivers endoscopy center,pennsylvania,moon township,15108,,725 cherrington parkwaysuite 100
17056,CDM,PPD,SHP647-301,1-XZH9NT,,United_States,allegheny general hospital,pennsylvania,pittsburgh,15143,,490 east north avenue
17058,CDM,PPD,HGT-HIT-046,006,,United_States,childrens hospital of pittsburgh,pennsylvania,pittsburgh,15201,,45th street and penn avenue
19112,CDM,PPD,TAK-788-2001,1-74VXS28,,United_States,cancer care of wnc pa,north carolina,asheville,28801,,21 hospital drive
19120,CDM,PPD,TAK-071-2002,1-65RA3A9,,United_States,asheville neurology specialists pa,north carolina,asheville,28806,,1200 ridgefield boulevardsuite 250
19121,CDM,PPD,SHP647-305,1-43I9SA6,,United_States,care access research,rhode island,warwick,2886,,215 toll gate roadsuite 309
19128,CDM,PPD,Brigatinib-1003,1-61FGWEZ,,United_States,hasbro childrens hospital,rhode island,providence,2903,,593 eddy street
19139,CDM,PPD,SHP647-303,1-1KKX5SH,,United_States,ocean state research institute  navref  ppds,rhode island,providence,2908,,830 chalkstone avenueresearch 151
19146,CDM,PPD,C16029,1-YQMMIS,,United_States,santee hematology oncology,south carolina,sumter,29150,,1105 north lafayette drivesuite a
19150,CDM,PPD,SHP647-305,1-ZH6ZNL,,United_States,consultants in gastroenterology  the south carolina endoscopy center,south carolina,west columbia,29169,,131 summerplace drivewest columbia main campus
19152,CDM,PPD,C16014,1-BKAAZ,,United_States,south carolina oncology associates pa,south carolina,west columbia,29169,,120 west hospital drive
19153,CDM,IQVIA,TAK-994-1501,58001,1-4QYNB47,United_States,bogan sleep consultants llc,columbia,south carolina,29201,,1333 taylor street suite 6b
15059,CDM,PPD,SHP621-301,301-118,,United_States,tufts medical center  ppds,massachusetts,boston,211,,800 washington street
19156,CDM,PPD,SHP647-301,1-114L1FM,,United_States,consultants in gastroenterology,south carolina,columbia,29203,,11 gateway corners park
15061,CDM,PRA,Zik-101,44002,1-1GIN0K8,United_States,ponce medical school foundation,pr,ponce,716,,280 monterrey street
15062,CDM,PPD,C16029,1-1AUNVZP,,United_States,ponce medical school foundation inc,puerto rico,ponce,716,,280 monterrey streetcaimed center
15063,CDM,PPD,C16029,1-1AUNVZ0,,United_States,fundacion de investigacion de diego fdi clinical research,puerto rico,humacao,792,,355 calle font marteloryder memorial hospital  nursing home rmhc
15064,CDM,IQVIA,SHP643-403,102,1-4AJMNO1,United_States,rafael h zaragozaurdaz,san juan,puerto rico,918,,317 ave manuel domenech
19161,CDM,IQVIA,071301,105,1-2ETIA56,United_States,palmetto health richland,columbia,south carolina,29203,,5 richland medical park
15065,CDM,PPD,C16029,1-1AUNVXY,,United_States,hospital auxilio mutuo cancer center,puerto rico,san juan,919,,avenida ponce de leon 725 edificio nino jesus pda 3712 piso 4internal medicine
19163,CDM,PPD,Brigatinib-1002,1-619XIVT,,United_States,palmetto health richland,south carolina,columbia,29203,,7 richland medical park drpediatric hematologyoncology
15066,CDM,PPD,C16029,1-1AUNVYB,,United_States,san juan va medical center  navref  ppds,puerto rico,san juan,921,,10 casia street
19165,CDM,PPD,SHP647-301,1-Y0ZAVG,,United_States,columbia gastroenterology associates,south carolina,columbia,29204,,2739 laurel street
15067,CDM,PPD,C16029,1-1AUNVXL,,United_States,san juan community oncology group,puerto rico,san juan,9221965,,735 ponce de león
19167,CDM,PPD,C16019,1-CJ0OT0,,United_States,south carolina oncology associates pa,south carolina,columbia,29210,,166 stoneridge drive
15068,CDM,PRA,Zik-101,44001,1-1GIN07M,United_States,puerto rico clinical and translational research consortium,pr,san juan,936,,1st floor university hospitalpo box 365067
15069,CDM,PPD,C16029,1-1AUNVZD,,United_States,pr hematology oncology group,puerto rico,bayamon,961,,100 paseo san pablosuite 510
19170,CDM,PPD,SHP647-301,1-ZGYE6M,,United_States,associates in gastroenteroloy,south carolina,columbia,29229,,1072 wildwood centre drive
15070,CDM,PPD,SHP647-304,1-24D0UH7,,United_States,hampshire gastroenterology associates,massachusetts,florence,1062,,10 main street
19172,CDM,PPD,C16029,1-193V7P1,,United_States,gibbs cancer center  research institute,south carolina,spartanburg,29303,,101 east wood street
19173,CDM,PPD,C16021,1-8MV48H,,United_States,medical group of the carolinas – hematology spartanburg,south carolina,spartanburg,29303,,380 serpentine drive
15078,CDM,PPD,SHP607-202,1-15MY454,,United_States,bay state medical associates,massachusetts,springfield,1199,,759 chestnut street
19175,CDM,PPD,C16021,1-CIP06O,,United_States,spartanburg regional healthcare system,south carolina,spartanburg,29303,,101 east wood streetspartanburg regional medical center
19176,CDM,PPD,VDZ-5034,58024,,United_States,medical university of south carolina  ppds,south carolina,charleston,29403,,114 doughty streetms 702
19177,CDM,PPD,C16014,1-F4IF8,,United_States,charleston cancer center,south carolina,charleston,29406,,2910 tricom street
19179,CDM,PPD,SHP647-306,1-24GQ0LI,,United_States,clinical trials of south carolina   clinedge  ppds,south carolina,charleston,29406,,2695 elms plantation boulevardsuite d
15087,CDM,PPD,SHP647-305,1-25B4FTU,,United_States,berkshire gastroenterology pc,massachusetts,pittsfield,1201,,24 charles street
19186,CDM,PPD,SHP621-301,1-HI0JOD,,United_States,southeast medical research pa,south carolina,charleston,29406,,2671 elms plantation boulevardendoscopy center
19187,CDM,PPD,SHP647-305,1-112AV8Y,,United_States,coastal gastroenterology and hepatology llc,south carolina,charleston,29407,,1606 ashley river road
19189,CDM,PPD,SHP647-307,1-15SMJRJ,,United_States,pharmacorp clinical trials incorporated,south carolina,charleston,29412,,418 folly road
15094,CDM,PPD,C16014,1-E46RV,,United_States,berkshire hematology oncology,massachussets,north adams,1247,,77 hospital avenue
15096,CDM,PPD,C16014,58147,,United_States,university of massachusetts memorial health care,massachusetts,fitchburg,1420,,275 nichols roadhealth alliance
15097,CDM,PPD,Pevonedistat-2001,1-D8Y2U0,,United_States,umass memorial medical center,massachusetts,worcester,1605,,55 lake avenue northdepartment of hematology oncology
15098,CDM,PPD,Pevonedistat-3001,1-16QRYJP,,United_States,university of massachusetts,massachusetts,worcester,1605,,55 lake avenue north
15099,CDM,PPD,C16014,58047,,United_States,university of massachusetts medical school,massachusetts,worcester,1605,,281 lincoln street
19196,CDM,PPD,SHP647-305,1-112J8JQ,,United_States,charleston gi specialists,south carolina,charleston,29414,,1962 charlie hall boulevardaccr cgc research department
19197,CDM,PPD,C16014,1-E46YH,,United_States,charleston oncology pa,south carolina,charleston,29414,,2085 henry tecklenburg drive2nd floor
19198,CDM,PPD,SHP465-308,115,,United_States,coastal pediatric associates,south carolina,charleston,29414,,2051 charlie hall boulevard
19199,CDM,PPD,SHP647-305,1-24UHI2O,,United_States,palmetto digestive disease pa,south carolina,charleston,294145733,,2093 henry tecklenburg drivesuite 30
15100,CDM,PPD,SHP607-202,1-17HMXX9,,United_States,university of massachusetts memorial childrens medical center,massachusetts,worcester,1605,,119 belmont street
15102,CDM,PPD,NSMM-5001,1-LECJLC,,United_States,reliant medical group,massachusetts,worcester,1608,,123 summer street
19206,CDM,IQVIA,161406,161406-124,1-23L8ZI7,United_States,national allergy asthma  urticaria centers of charleston pa,north charleston,south carolina,294204211,,7555 northside drive
19207,CDM,IQVIA,SHP655-101,116,1-4J7GP74,United_States,medical university of south carolina,charleston,south carolina,29425,,135 rutledge ave msc561
19210,CDM,PRA,Vedolizumab-3035,58035,1-1OQXJQS,United_States,medical university of south carolina,sc,charleston,29425,,135 rutledge avenue
15114,CDM,PPD,SHP620-302,022,,United_States,umass memorial medical center,massachussets,worcester,1655,,55 lake ave norths7715
19213,CDM,ICON,C25003,,87092,United_States,medical university of south carolina,south carolina,charleston,29425,,173 ashley ave
15118,CDM,PPD,MLN0002-3024,1-7JSVWIQ,,United_States,umass memorial medical center,massachusetts,worcester,16550002,,55 lake ave n
15120,CDM,PPD,SHP647-301,1-203PCDF,,United_States,greater boston gastroenterology pc,massachusetts,framingham,1702,,475 franklin streetsuite 110
15129,CDM,PPD,SHP647-305,1-1444GKV,,United_States,bedford va research corporation inc  navref  ppds,maryland,bedford,1730,,200 springs road
15136,CDM,PPD,SHP647-305,1-ZGYDYW,,United_States,emerson hospital,massachusetts,concord,1742,,131 old road to 9 acre corsuite 530
15138,CDM,PPD,SHP647-301,1-1119K7O,,United_States,community clinical research networks,massachusetts,marlborough,1752,,79 mosher lane
15140,CDM,PPD,SHP621-301,1-HI0JKA,,United_States,lahey clinic,massachusetts,burlington,1805,,41 mall roadtransplantation
15142,CDM,PPD,C16014,58103,,United_States,lahey clinic,massachussets,burlington,1805,,41 mall road lahey clinichematology
15143,CDM,PPD,TAK-788-2001,1-74VZMQW,,United_States,lahey hospital and medical center,massachusetts,burlington,1805,,41 burlington mall road
15145,CDM,PPD,SHP647-305,1-YJYSX0,,United_States,lahey outpatient center,massachusetts,burlington,1805,,41 mall road3rd floor
15147,CDM,PPD,SHP647-301,1-203PCDR,,United_States,pentucket medical associates,massachusetts,haverhill,1830,,1 park waygastroenterology  merrimack valley endoscopy center
19248,CDM,IQVIA,TAK-101-2001,58001,1-4Z3EVD1,United_States,musc department of gastroenterology,charleston,south carolina,29425,,25 courtenay drivesuite 7019
19249,CDM,PPD,TAK-007-2001,1-DE6Q2CF,,United_States,medical university of south carolina  hollings cancer center  ppds,south carolina,charleston,294258900,,96 jonathan lucas sthollings cancer centersuite 251
15154,CDM,PPD,SHP607-202,1-15NMR6W,,United_States,beverly hospital,massachusetts,beverly,1915,,85 herrick street
15155,CDM,PPD,TAK-788-2001,1-74VZMR9,,United_States,north shore cancer center,massachusetts,peabody,1960,,17 centennial drive
15156,CDM,PPD,SHP647-301,1-ZGYX0E,,United_States,sw gastroenterological associates,massachusetts,norwood,2062,,886 washington streetsuite 1
15158,CDM,PPD,SHP647-301,1-XFVQYJ,,United_States,bluetheory clinical trials,massachusetts,boston,2110,,137a lewis wharf
19255,CDM,PPD,SHP647-305,1-114L1DW,,United_States,coastal carolina research center,south carolina,mount pleasant,29464,,1156 bowman roadsuite 102
19258,CDM,PPD,SHP465-308,133,,United_States,coastal pediatric associates,south carolina,mt pleasant,29464,,1952 long grove drive
15162,CDM,PRA,C34005,58012,1-1CZ7Z10,United_States,tufts medical center,ma,boston,2111,,800 washington streetmailbox 245
15163,CDM,ICON,C16007,,62201,United_States,tufts medical center,massachusetts,boston,2111,,800 washington streetproger building
15165,CDM,PPD,Pevonedistat-2001,1-D901XE,,United_States,tufts medical center  ppds,massachusetts,boston,2111,,750 washington st
19263,CDM,PPD,SHP647-305,1-12S97P9,,United_States,pmg research of charleston llc,south carolina,mount pleasant,29464,,180 wingo way
19265,CDM,PPD,TAK-981-1503,1-D42TQUL,,United_States,medical university of south carolina  ppds,south carolina,mount pleasant,294643771,,1600 midtown ave
19266,CDM,PPD,SHP647-306,1-1670VXR,,United_States,florence gastroenterology,south carolina,florence,29506,,901 e cheves streetsuite 430
15175,CDM,PPD,SHP607-202,1-15MUJQO,,United_States,tufts university  boston  ppds,massachusetts,boston,2111,,136 harrison avenue
15176,CDM,PPD,SHP607-202,1-15MUJR1,,United_States,floating hospital for children,massachusetts,boston,21111552,,800 washington streettuftsnew england medical center
19273,CDM,PPD,SHP647-304,1-24Q902B,,United_States,mcleod seacost,south carolina,little river,29566,,3980 highway 9 eastsuite 320
15177,CDM,IQVIA,TED-R13-002,0528,1-15SKCZG,United_States,massachusetts general hospital,boston,massachusetts,2114,,165 cambridge st 9th floor
15181,CDM,PRA,TAK-018-2001,58003,1-1MZT64F,United_States,massachusetts general hospital,ma,boston,2114,,55 fruit street
19280,CDM,PPD,SHP647-307,1-26DTI06,,United_States,tidelands health gastroenterology at murrells inlet,south carolina,murrells inlet,29576,,4040 highway 17 bypasssuite 302
19287,CDM,PPD,SHP647-305,1-12S2BIC,,United_States,family medicine of sayebrook,south carolina,myrtle beach,29588,,106 lansford courtsuite 100
19289,CDM,ICON,C25003,,84593,United_States,saint francis hospital,south carolina,greenville,29601,,1 saint fancis dr
19290,CDM,PPD,C16029,1-YQFWNV,,United_States,cancer centers of the carolinas,south carolina,greenville,29605,,3 butternut drivesuite a
19291,CDM,PPD,Pevonedistat-1016,1-3S3FX7S,,United_States,greenville health system,south carolina,greenville,29605,,900 w faris roadinstitute for translational oncology research itor
19292,CDM,PRA,Pevonedistat-1015,58004,1-1KFU4C4,United_States,greenville health system  institute for translational oncology research,sc,greenville,29605,,900 west faris roadclinical trials center3rd floor
19293,CDM,PPD,Brigatinib-1002,1-61KU6QW,,United_States,greenville health system childrens hospital,south carolina,greenville,29605,,900 west faris roadbilo charities children’s cancer center  main office
19295,CDM,PPD,SHP621-303,303-169,,United_States,greenville hospital system,south carolina,greenville,29605,,890 west faris road
19297,CDM,PPD,HOS,116,,United_States,greenwood genetic  center,south carolina,greenville,29605,,14 edgewood drive
19299,CDM,PPD,MLN0002-3024,1-7JXXRED,,United_States,greenville health system,south carolina,greenville,296054210,,701 grove rd
19300,CDM,PPD,TAK-788-2001,1-87D1ATT,,United_States,prisma health cancer institute,south carolina,greenville,296054255,,900 w faris rd
19302,CDM,PRA,Ponatinib-3001,58007,1-1KRDM2U,United_States,saint francis hospital cancer center,sc,greenville,29607,,104 innovation drive
19303,CDM,PPD,SHP607-202,1-15MWYGK,,United_States,greenville hospital system,south carolina,greenville,29614,,200 c patewood drive
19305,CDM,PPD,SHP647-301,1-ZVCYGM,,United_States,gastroenterology associates pa,north carolina,greenville,29615,,200 patewood drivesuite b200
15224,CDM,PPD,SHP647-305,1-2HVHGDV,,United_States,massgeneral hospital for children,massachusetts,boston,2114,,175 cambridge st 5th floor5th floor
19323,CDM,PPD,SHP647-305,1-109773B,,United_States,anmed health,south carolina,anderson,29621,,2000 east greenville streetsuite 2900
19325,CDM,PPD,SHP647-301,1-ZWUD4A,,United_States,manjakkollai p veerabagu md,south carolina,anderson,29621,,130 perpetual square
19328,CDM,PPD,TAK665-4003,1-GO0XDD7,,United_States,greenwood genetic  center,south carolina,greenwood,296462315,,106 gregor mendel cir
19329,CDM,PPD,SHP647-301,1-114L1LK,,United_States,hillcrest clinical research llc,south carolina,simpsonville,29681,,717 southeast main streetsuite b
19331,CDM,PPD,SHP647-304,1-2UEZ0BI,,United_States,catawba gastroenterology,south carolina,lancaster,29720,,108 healthcare dr
15238,CDM,IQVIA,TAK-375SL_203,2055,1-1HONKRE,United_States,st louis clinical trials llc,boston,ma,2114,,55 fruit streetwhite building floor 12
19338,CDM,PPD,C16014,1-HHSVE,,United_States,tri county oncology,south carolina,rock hill,29732,,1583 health care drive
19340,CDM,PPD,SHP465-308,159,,United_States,rainbow research inc,south carolina,barnwell,29812,,71 trebor road
19341,CDM,PPD,C16021,1-8IWLIX,,United_States,south carolina cancer specialists,south carolina,hilton head island,29926,,45 hospital center common
19342,CDM,PPD,SHP647-305,1-ZWZNLY,,United_States,east atlanta gastroenterology associates,georgia,conyers,30012,,1269 wellbrook circle ne
15246,CDM,IQVIA,SHP643-403,106,1-49S7LKL,United_States,massachusetts general hospital,boston,massachusetts,21142752,,165 cambridge street suite 302
19344,CDM,PPD,P2002,1-5J4N4LI,,United_States,agile clinical research trials llc,georgia,alpharetta,30022,,10945 state bridge rd
19345,CDM,PPD,SHP647-305,1-109771X,,United_States,advanced gastroenterology associates llc,georgia,suwanee,30024,,4275 johns creek parkwaysuite a
15247,CDM,IQVIA,SHP633-304,0409,1-2RJW11M,United_States,boston childrens hospital,boston,massachusetts,2115,,21 autumn street3rd floor  rm 3302
15252,CDM,PPD,MLN0002-3024,3024-58010,,United_States,boston childrens hospital,massachusetts,boston,2115,,300 longwood avenuedivision of gastroenterology and nutritionhunnewell ground
19357,CDM,IQVIA,TAK-994-0001,58028,1-4YG1Z2E,United_States,iresearch atlanta llc,decatur,georgia,30030,,125 clairemont avenue suite 470iresearch atlanta llc
19359,CDM,PPD,SHP647-302,302-762,,United_States,atlanta center for gastroenterology pc,georgia,decatur,30033,,2665 north decatur roadsuite 430
15269,CDM,IQVIA,SHP633-303,0409,1-2QTCUGC,United_States,boston childrens hospital division of endocrinology,boston,massachusetts,2115,,300 longwoodfarley 4
19370,CDM,PPD,SHP-GCB-402,104,,United_States,emory healthcare systems,georgia,decatur,30033,,2165 north decatur road
19371,CDM,PPD,HOS,049,,United_States,emory university school of medicine,georgia,atlanta,30033,,1365 clifton roadbuilding bsuite 301
19372,CDM,PPD,GOS,107,,United_States,emory university school of medicine,georgia,decatur,30033,,2165 north decatur roaddepartment of human geneticssuite 301
19374,CDM,PPD,SHP647-305,1-1117TST,,United_States,soapstone center for clinical research,georgia,decatur,30034,,4201 rainbow drive
19375,CDM,PPD,SHP647-301,1-ZH2G1G,,United_States,atlanta gastroenterology associates,georgia,cumming,30041,,1505 northside boulevardsuite 2000a0118 mcn
19377,CDM,PPD,SHP647-304,1-24OSZF8,,United_States,gi north,georgia,cumming,30041,,1505 northside boulevardsuite 1800
15282,CDM,PPD,SHP621-301,301-164,,United_States,brigham and womens hospital,massachussets,boston,2115,,75 francis streetallergyimmunologysuite 540 and suite 301
19384,CDM,PPD,C16029,1-YQMMI3,,United_States,suburban hematology oncology associates,georgia,lawrenceville,30045,,600 professional drivesuite 210
19385,CDM,PPD,SHP647-306,1-166S3SD,,United_States,gastroenterology specialists of gwinnett pc,georgia,lawrenceville,30046,,721 wellness waysuite 100
15290,CDM,PPD,TAK-079-1004,1-6H9O60P,,United_States,dana farber cancer institute,massachussets,boston,2115,,450 brookline avenue
15291,CDM,PPD,TAK-951-2001,1-70OOVKP,,United_States,harvard medical school,massachusetts,boston,2115,,1340 boylston street
15293,CDM,IQVIA,AskBio009-101,19,1-1UUTY31,United_States,boston childrens hospital,boston,massachusetts,21155724,,300 longwood ave farley 4 room 4943
19392,CDM,ICON,C25003,,86964,United_States,gwinnett hospital system inc center for cancer care ,georgia,lawrenceville,30046,,631 professional drive
19393,CDM,PPD,TAK-079-2001,58002,,United_States,north georgia rheumatology group pc,georgia,lawrenceville,30046,,500 medical center boulevardsuite 210
15296,CDM,IQVIA,TED-R13-002,0517,1-15AERWL,United_States,boston medical center,boston,massachusetts,2118,,820 harrison avenuefgh building 1st floor
19395,CDM,PPD,SHP647-306,1-25ZAGIL,,United_States,alcovy gastroenterology associates,georgia,loganville,30052,,3869 hwy 81 south
15297,CDM,PPD,SHP607-202,1-15NMR79,,United_States,boston medical center,massachusetts,boston,2118,,1 boston medical center place
15311,CDM,ICON,C25001,,69807,United_States,boston university,massachusetts,boston,2118,,boston  university820 harrison avenuefgh building  2nd floor
15312,CDM,PPD,TAK-079-1004,1-FN0T8EI,,United_States,boston medical center,massachusetts,boston,21182905,,820 harrison ave bldg fgh
15313,CDM,PPD,TAK-079-1005,1-5D7PW31,,United_States,caritas st elizabeths medical center,massachusetts,boston,2135,,736 cambridge streetmultiple sclerosis center
15315,CDM,PPD,SHP647-301,1-114L1SW,,United_States,promedica clinical research center inc,massachusetts,brighton,2135,,77 warren streetbuilding 6
15319,CDM,PPD,SHP647-303,1-4NHR4SS,,United_States,digestive health associates pc,massachusetts,stoneham,2180,,3 woodland roadsuite 306
15324,CDM,PPD,SHP647-301,1-ZX0BAB,,United_States,harbor medical associates,massachusetts,braintree,2184,,1681 washington sthighland medical center
15333,CDM,PPD,SHP647-305,1-XFVQZL,,United_States,atrius health inc,massachusetts,boston,2215,,133 brookline ave
15335,CDM,IQVIA,TAK-101-2001,58022,1-4YNINA9,United_States,beth israel deaconess medical center,boston,massachusetts,2215,,330 brookline avenuecls bldg room 615
15337,CDM,PRA,TAK-906-2002,58020,1-1JYIVGV,United_States,beth israel deaconess medical center,ma,boston,2215,,330 brookline avenuerabb rose 1room 501
15343,CDM,PPD,SHP647-301,1-XFTFZ4,,United_States,beth israel deaconess medical center,massachusetts,boston,2215,,185 pilgrim road
15373,CDM,ICON,C25003,,86864,United_States,dana farberharvard cancer center,massachusetts,boston,2215,,450 brookline av po box 849168
15376,CDM,PPD,TAK-341-1001,1-8DOV77W,,United_States,beth israel deaconess medical center,massachusetts,boston,22155324,,185 pilgrim rd palmer 111center for autonomic and peripheral nerve disorderspalmer building111
15381,CDM,PPD,SHP647-303,303-829,,United_States,commonwealth clinical studies llc,massachusetts,brockton,2302,,189 quincy street
15390,CDM,PPD,TAK-981-1002,58002,,United_States,massachusetts general hospital,massachusetts,lexington,2421,,1 maguire roadlurie center for autism  department of pediatrics
15391,CDM,PPD,SHP647-301,1-10TILFY,,United_States,bay state clinical trials,massachusetts,watertown,2472,,521 mount auburn streetsuite 209
15393,CDM,PRA,TAK-041-2001,Ongur,1-1KTCE9T,United_States,mclean hospital,ma,belmont,24781064,,schizophrenia and bipolar disorder clinic115 mill street
15394,CDM,PPD,SHP647-305,1-112AV54,,United_States,phase iii clinical research,massachusetts,fall river,2720,,1030 president avenue
15396,CDM,PPD,SHP647-303,1-25ETRBZ,,United_States,ocean state clinical research partners,rhode island,lincoln,2865,,2 wake robin road
15403,CDM,PPD,SHP647-305,1-1117NN7,,United_States,velocity clinical research  providence  ern  ppds,rhode island,warwick,2886,,400 bald hill road
15406,CDM,PPD,SHP647-307,1-15Y7YN6,,United_States,kent hospital,rhode island,warwick,2888,,1050 warwick avenue
15413,CDM,PPD,SHP647-306,1-25X1Z0R,,United_States,gastroenterology specialists inc,rhode island,westerly,2891,,45 wells streetsuite 103
15420,CDM,PPD,TAK-981-1503,1-BAJ2GTN,,United_States,brown university oncology research group,rhode island,providence,2903,,233 richmond streetthe fain health centerroom 377
15421,CDM,IQVIA,C26002,58001,1-19938EM,United_States,h lee moffitt cancer center and research institute inc,providence,ri,2903,,593 eddy stlifespan oncology clinical research department
15423,CDM,PPD,Pevonedistat-2001,1-D8Y2GI,,United_States,rhode island hospital,rhode island,providence,2903,,593 eddy streethematology oncology george building
15434,CDM,PPD,SHP647-301,1-ZK5DPZ,,United_States,gastroenterology associates,rhode island,providence,2904,,44 west river street
15436,CDM,PPD,SHP647-301,1-ZWXQTR,,United_States,university gastroenterology llc,rhode island,providence,2904,,148 w river streetsuite 3
15437,CDM,PPD,SHP607-202,1-15MY41X,,United_States,women  infants hospital,rhode island,providence,2905,,100 dudley street
15441,CDM,PPD,TAK-981-1503,1-BO97IAJ,,United_States,miriam hospital,rhode island,providence,2906,,164 summit avenuethe fain health center
15444,CDM,PPD,SHP620-303,1-TIF985,,United_States,university medicine,rhode island,providence,2906,,1125 north main streetdivision of infection diseases
15445,CDM,PPD,C16029,1-YQMMF1,,United_States,roger williams medical center,rhode island,providence,2908,,825 chalkstone avenue
15447,CDM,PPD,C16014,1-FQZPH,,United_States,pharma resource,rhode island,east providence,2915,,2 hemingway drive
15448,CDM,PPD,SHP647-305,1-25EUVV0,,United_States,dartmouth hitchcock nashua east,new hampshire,nashua,3060,,21 e hollis street
15455,CDM,PPD,C16029,1-Y49D5Q,,United_States,new hampshire oncology hematology,new hampshire,exeter,3106,,200 technology drive
15456,CDM,PPD,SHP647-301,1-ZI69GK,,United_States,dartmouth hitchcock medical center,new hampshire,lebanon,3756,,1 medical center drivesuite 200
15471,CDM,PRA,TAK-041-2001,Green A,1-1KTCE5L,United_States,dartmouthhitchcock medical center,nh,lebanon,37661488,,psychiatric research center46 centerra parkway
15472,CDM,PPD,SHP647-301,1-XEX59C,,United_States,activmed practices  research inc,new hampshire,newington,3801,,2299 woodbury avenue2nd floor
15474,CDM,PPD,SHP647-307,1-269ZLYD,,United_States,gastroenterology professional association,new hampshire,portsmouth,3801,,330 borthwick avenueatlantic digestive specialistssuite 311jackson gray medical bldg
15481,CDM,PPD,C16014,1-LTWXA,,United_States,portsmouth regional hospital,new hampshire,portsmouth,3801,,155 borthwick avenuesuite 303
15483,CDM,PPD,C16014,58105,,United_States,maine center for cancer medicine and blood disorders,maine,scarborough,4074,,100 campus drivesuite 108
15491,CDM,PPD,SHP647-302,1-21GAO4E,,United_States,portland gastroenterology center,maine,portland,4101,,161 marginal way
15498,CDM,PPD,SHP607-202,1-15NMR5H,,United_States,maine medical center scarborough,maine,portland,4102,,22 bramhall street
15500,CDM,PPD,NSMM-5001,58047,,United_States,central maine medical center,maine,lewiston,4240,,12 high streetsuite 205
15501,CDM,PPD,C16014,1-QTRTH,,United_States,maine va medical center  navref  ppds,maine,augusta,4330,,1 va center
15502,CDM,PPD,SHP647-301,1-110ZJPK,,United_States,acadia clinical research llc,maine,bangor,4401,,792 stillwater avenue
15504,CDM,PPD,SHP607-202,1-15NMR54,,United_States,eastern maine medical center,maine,bangor,4401,,489 state street
15505,CDM,PPD,C16014,1-HHSUD,,United_States,eastern maine medical center,maine,brewer,4412,,33 whiting hill roadsuite 21
15506,CDM,PPD,C16014,1-HHSTE,,United_States,white river junction veterans affairs medical center  navref  ppds,vermont,white river junction,50090001,,215 north main street
15511,CDM,PPD,SHP647-301,1-ZWUDDV,,United_States,dr ronald s mensh md,vermont,bennington,5201,,140 hospital drive
15513,CDM,PPD,MLN0002-3024,1-7JXXRC0,,United_States,fletcher allen health care,vermont,burlington,5401,,199 main streetcourthouse plaza
15514,CDM,PPD,TAK-079-1005,1-5D8IV2Y,,United_States,university of vermont,vermont,burlington,5401,,1 south prospect streetarnold level 2
15535,CDM,PPD,C16011,58018,,United_States,mayo clinic  ppds,minnesota,rochester,5590,,200 1st street southwesttransplant center
15536,CDM,PPD,SHP621-301,301-139,,United_States,connecticut clinical research foundation,connecticut,bristol,6010,,39 brewster road
15542,CDM,PPD,SHP621-301,1-LUTH05,,United_States,connecticut gi,connecticut,farmington,6032,,21 south road
15543,CDM,PPD,SHP621-303,303-160,,United_States,connecticut gi pc  research division,connecticut,farmington,6032,,21 south roadsuite 1000
15546,CDM,PPD,VDZ-5034,58080,,United_States,connecticut gastroenterology,connecticut,glastonbury,6033,,300 western boulevardsuite 716
15547,CDM,PPD,TAK-071-2002,1-65R9S8X,,United_States,eastern connecticut neurology specialists llc,connecticut,manchester,6040,,394 west center street
15548,CDM,PPD,SHP647-301,1-ZNUS6Y,,United_States,ct gastroenterology and associates,connecticut,hartford,6105,,1000 asylum ave3212
15555,CDM,PPD,C16014,58045,,United_States,saint francis hospital and medical center,connecticut,hartford,6105,,114 woodland street
15558,CDM,PPD,Pevonedistat-2001,1-IPEJPJ,,United_States,saint francis hospital and medical center,connecticut,hartford,61051208,,114 woodland streetsaint francismount sinai regional cancer center
15559,CDM,PPD,SHP647-301,1-XZL2S9,,United_States,connecticut childrens medical center,connecticut,hartford,6106,,123 address
15565,CDM,PRA,Vedolizumab-2005,58010,1-1BUYDSD,United_States,connecticut childrens medical center,ct,hartford,6106,,282 washington streetsuite 2k
15570,CDM,PPD,SHP647-304,1-24Q9X3U,,United_States,connecticut gi,connecticut,hartford,6106,,85 seymour street
15579,CDM,PPD,TAK-071-2002,1-65RA3AL,,United_States,coastal connecticut research llc  clinedge  ppds,connecticut,new london,6320,,342 montauk avenue
15582,CDM,PPD,C16021,1-8JW0J0,,United_States,oncology and hematology associates pc,connecticut,new london,6320,,3 shaws covesuite 201
15584,CDM,PPD,C16014,1-DX4GV,,United_States,eastern ct hematology and oncology associates,connecticut,norwich,6360,,330 washington streetsuite 220
15588,CDM,PPD,SHP647-305,1-ZI69K4,,United_States,connecticut gastroenterology,connecticut,guilford,6437,,111 goose lane2nd floor
15590,CDM,PPD,TAK-079-1004,1-5QGG605,,United_States,smilow cancer hospital care center at guilford,connecticut,guilford,6437,,111 goose lane
15591,CDM,PPD,SHP647-306,1-167WPRA,,United_States,midstate gastroenterology specialists,connecticut,meriden,6451,,455 lewis avenuesuite 105
15598,CDM,PPD,NSMM-5001,1-SY84YL,,United_States,connecticut oncology group,connecticut,middletown,6457,,536 saybrook roadconnecticut oncology group
15600,CDM,IQVIA,MLN0002SC-3030,58117,1-2Q8753I,United_States,middlesex gastroenterology associates,middletown,connecticut,6457,,410 saybrook roadsuite 201
15602,CDM,PPD,SHP647-305,1-24QTFKI,,United_States,danbury internal medicine associates,connecticut,newtown,64702791,,153 south main streetsuite 8
15609,CDM,PPD,C16029,1-Y5U6BH,,United_States,cancer center of central connecticut,connecticut,southington,6489,,55 meriden avenuesuite 1a
15611,CDM,PPD,SHP607-202,1-15MX1GK,,United_States,yalenew haven childrens hospital,connecticut,new haven,6504,,1 park street
15613,CDM,PPD,TAK-071-2002,1-65RA3BA,,United_States,institute for neurodegenerative disorders,connecticut,new haven,6510,,60 temple streetsuite 8b
15615,CDM,PPD,Pevonedistat-1016,58002,,United_States,smilow cancer hospital at yale new haven,connecticut,new haven,6510,,20 york street
15622,CDM,PPD,C16021,1-8JF3RH,,United_States,yale new haven hospital,connecticut,new haven,6510,,20 york street7th floor
15624,CDM,PPD,SHP647-305,1-Y14R7L,,United_States,yale university school of medicine,connecticut,new haven,6510,,135 college streetinternal medicinedigestive diseases1a
15626,CDM,PRA,SYR-322_309,58016,1-1JRF7ZN,United_States,yale new haven hospital,ct,new haven,6511,,1 long wharf drivesuite 503
15628,CDM,PPD,VDZ-5034,58078,,United_States,gastroenterology center of connecticut,connecticut,hamden,6518,,2200 whitney avespring glen medical centersuite 300
15629,CDM,PPD,SHP647-301,1-XE0L01,,United_States,medical research center of connecticut llc,connecticut,hamden,6518,,2200 whitney avenuesuite 300
15633,CDM,IQVIA,TAK-831-2002,58014,1-45LRUDA,United_States,connecticut mental health center  yale university,new haven,connecticut,6519,,34 park st
15634,CDM,PPD,TAK-079-2001,58019,,United_States,yale university,connecticut,new haven,6519,,2 church st southyale center for clinical investigationsuite 525b
15635,CDM,IQVIA,SHP643-403,104,1-49SEY56,United_States,yale university school of medicine,new haven,connecticut,6519,,789 howard ave fitkin building 2nd floor
15636,CDM,PPD,C16021,1-E5U6XM,,United_States,yale cancer center,connecticut,new haven,6520,,310 cedar street
15652,CDM,IQVIA,Vedolizumab-4014,58048,1-2R9E4TM,United_States,gastroenterology associates of fairfield county,bridgeport,connecticut,6606,,2660 main streetsuite 203
15656,CDM,PPD,SHP647-301,1-ZGYX1F,,United_States,bridgeport hospital,connecticut,bridgeport,6610,,267 grant street
15658,CDM,PPD,C16029,1-10W6Y25,,United_States,trumbull care center,connecticut,trumbull,6611,,5520 park avenuesmilow cancer caresuite 203
15659,CDM,PPD,SHP647-301,1-Y0ZAS0,,United_States,chase medical research llc,connecticut,waterbury,6708,,500 chase parkway
15661,CDM,PPD,C16014,1-E0ITJ,,United_States,medical oncology and hematology pc,connecticut,waterbury,6708,,1075 chase parkwaysuite b
15663,CDM,PPD,SHP647-301,1-204NMCK,,United_States,naugatuck valley gastroenterology,connecticut,waterbury,6708,,1312 w main street101
15671,CDM,PPD,SHP465-308,1-1B15795,,United_States,supreme clinical research management,connecticut,newtown,6740,,20 church hill road
15673,CDM,PPD,TAK-079-1004,1-5QH85EP,,United_States,davita inc clinical research unit,connecticut,middlebury,6762,,850 sraits turnpikesuite 300
15674,CDM,PPD,SHP647-305,1-10B2OOD,,United_States,danbury hospital,connecticut,danbury,6810,,24 hospital avenue
15676,CDM,PPD,NSMM-5001,ON-HOLD,,United_States,praxair cancer center at danbury hospital,connecticut,danbury,6810,,95 locust avenuepraxair cancer center
15677,CDM,PPD,SHP647-301,1-204NM9I,,United_States,gastroenterology associates of fairfield county,connecticut,fairfield,6824,,425 post road
15685,CDM,PPD,TAK-071-2002,1-67NFXFU,,United_States,yale university school of medicine,connecticut,fairfield,6824,,75 kings highway cutoffdepartment of neurology5th floor
15686,CDM,PPD,C16014,1-EE673,,United_States,whittingham cancer center at norwalk hospital,connecticut,norwalk,6850,,30 stevens street
15687,CDM,PPD,SHP620-303,1-TIJF4D,,United_States,stamford hospital,connecticut,stamford,6902,,166 w broad streetstamford health integrated practices  stamford infectious diseases
15691,CDM,PPD,SHP647-301,1-14GQV4O,,United_States,stamford therapeutics consortium  clinedge  ppds,connecticut,stamford,6905,,47 oak street
15698,CDM,PPD,SHP647-305,1-25EUVVO,,United_States,summit medical group,new jersey,clifton,7012,,6 brighton road
15705,CDM,PPD,C16029,1-YQM9BL,,United_States,veterans affairs new jersey health care system  navref  ppds,new jersey,east orange,7018,,385 tremont avenue
15707,CDM,IQVIA,SHP633-304,0426,1-2QT691Z,United_States,columbia university medical center,new york,new york,7024,,622 west 168th streetph 17
15708,CDM,PPD,SHP620-303,1-TJB5QP,,United_States,hoboken university medical center humc,new jersey,hoboken,7030,,308 willow avenue
15709,CDM,PPD,C16029,1-YQMM7P,,United_States,saint barnabas medical center,new jersey,livingston,7039,,200 south orange avenue
15713,CDM,PPD,C16014,1-C26DH,,United_States,oncology and hematology specialists pa,new jersey,mountain lakes,7046,,420 boulevard
15714,CDM,PPD,SHP647-305,1-1117O5L,,United_States,gastroenterology medical associates,new jersey,north berger,7047,,9223 kennedy boulevard
15716,CDM,PPD,TAK-071-2002,1-B8W5L62,,United_States,the cognitive and research center of new jersey  erg  ppds,new jersey,springfield,70811755,,195 mountain ave
15717,CDM,PPD,SHP620-303,1-TIF9BC,,United_States,prime healthcare services – st michael’s llc dba saint michael’s medical center,new jersey,newark,71021909,,111 central avenuepeter ho memorial clinic
15718,CDM,IQVIA,161403,514,1-4GTM0FF,United_States,rutgers new jersey medical school,newark,new jersey,7103,,185 s orange avenuerm uh f189
15719,CDM,PPD,SHP620-303,1-TIJF52,,United_States,rutgers the state university of new jersey,new jersey,newark,7103,,150 bergen streetuniversity hospital
15720,CDM,PPD,SHP647-305,1-112D97O,,United_States,umdnj,new jersey,newark,7103,,90 bergen street
15722,CDM,PPD,C16014,1-E7UP5,,United_States,essex hematology oncology group pa,new jersey,belleville,7109,,36 newark avenuesuite 214
15723,CDM,PPD,SHP643-301,643301-109,,United_States,hudsonessex allergy,new jersey,belleville,7109,,5 franklin avenuesuite 102
15725,CDM,PPD,C16014,1-HCR97,,United_States,newark beth israel medical center,new jersey,newark,7112,,201 lyons avenue
15727,CDM,IQVIA,SHP643-303,104,1-4RYCI8S,United_States,jay m kashkin md allergy asthma and immunology,fair lawn,new jersey,7410,,2300 route 208south suite 21
15730,CDM,PPD,SHP647-305,1-XZL2PR,,United_States,holt institute of medicine,new jersey,little falls,7424,,47 center avenue
15732,CDM,PPD,SHP647-307,1-163XC74,,United_States,joseph shamis private practice,new jersey,west paterson,7424,,205 browertown roadsuite 206
15739,CDM,PPD,SHP647-301,1-112J5AJ,,United_States,arysmed clinical research solutions,new jersey,ridgewood,7450,,562 barnett place
15741,CDM,PPD,SHP647-301,1-1119KE6,,United_States,jeffrey b danzig md pc,new jersey,ridgewood,7450,,127 union street
15743,CDM,PRA,SYR-322_309,58025,1-1JRFQRP,United_States,saint josephs regional medical center  paterson,nj,paterson,7503,,703 main street
15746,CDM,PPD,SHP609-302,201,,United_States,hackensack university medical center,new jersey,hackensack,7601,,30 prospect avenuejoseph m sanzari childrens hospital
15775,CDM,IQVIA,C34001,58004,1-1GB32UI,United_States,regional cancer care associates,hackensack,new jersey,7601,,100 first streetsuite 301
15777,CDM,PPD,C16029,1-YQM99I,,United_States,drs forte schleider  attas pa,new jersey,englewood,7631,,25 rockwood place
15780,CDM,PPD,SHP647-301,301-394,,United_States,englewood hospital and medical center  clinical research center,new jersey,englewood,7631,,350 engle streetnorth annex 3rd floorsuite 101
15781,CDM,PPD,SHP647-302,1-21XXSVY,,United_States,the gastroenterology group of northern nj llc,new jersey,englewood cliffs,7632,,140 sylvan avesuite 101a
15788,CDM,PPD,C16014,1-FWGJI,,United_States,hematology oncology associates of nj pa,new jersey,paramus,7652,,one valley health plaza
15790,CDM,PPD,SHP620-303,1-TIF96Q,,United_States,holy name hospital,new jersey,teaneck,7666,,718 teaneck roadthe institute for clinical research
15791,CDM,PPD,TAK-079-1005,1-5D8IV18,,United_States,progressive neurology,new jersey,westwood,7675,,260 old hook roadsuite 200
15792,CDM,PPD,SHP647-301,1-1113F2J,,United_States,prometrix clinical studies,new jersey,wall,7719,,3350 highway 138building 2suite 128
15794,CDM,PPD,NSMM-5001,1-T7RG0Z,,United_States,american oncology partners of maryland  pa,new jersey,little silver,7739,,180 white road
15795,CDM,PPD,SHP607-202,1-15NMQMK,,United_States,monmouth medical center,new jersey,long branch,7740,,300 second avenue
15796,CDM,PRA,C31004,58011A,1-1N7YN2W,United_States,memorial sloan kettering cancer center  monmouth,nj,middletown,7748,,480 red hill road
15797,CDM,IQVIA,Vedolizumab-4014,58093,1-2WL9JNW,United_States,atlantic gastroenterology associates,neptune,new jersey,7753,,1944 corlies avesuite 205
15798,CDM,PPD,SHP620-303,1-TIJFHW,,United_States,jersey shore university medical center,new jersey,neptune,7753,,1945 route 33
15802,CDM,PPD,SHP647-301,1-205DFZ2,,United_States,monmouth gastroenterology,new jersey,oakhurst,7755,,1912 state route 35a division of allied digestive health201
15809,CDM,PPD,SHP647-303,1-15MO4VK,,United_States,wellness and research center,new jersey,belvidere,7823,,526 water street
15816,CDM,PPD,C16014,1-C0N3X,,United_States,oncology  hematology associates pa,new jersey,denville,7834,,23 pocono roadsuite 201
15817,CDM,PPD,C16021,1-8K3AW3,,United_States,oncology and hematology specialists pa,new jersey,denville,7834,,23 pocono road
15818,CDM,PPD,SHP465-308,1-1FNGP2X,,United_States,the neurocognitive institute,new jersey,mt arlington,7856,,111 howard blvd
15819,CDM,PPD,C16029,1-YQMPAM,,United_States,sparta cancer center,new jersey,sparta,7871,,89 sparta avenuesuite 203
15820,CDM,PPD,NSMM-5001,1-T7RG1C,,United_States,overlook medical center,new jersey,summit,7901,,99 beauvoir avenue
15821,CDM,PPD,P2002,1-5IZYBGU,,United_States,summit medical group,new jersey,summit,7901,,33 overlook roadcarol g simon cancer center2nd floor
15822,CDM,ICON,C25003,,307986,United_States,memorial sloankettering cancer center  basking ridge,new jersey,basking ridge,7920,,136 mountain view blvd
15823,CDM,PPD,C16014,1-KNHUE,,United_States,summit medical group,new jersey,berkeley heights,7922,,1 diamond hill road
15832,CDM,PPD,SHP647-305,1-XFUBY3,,United_States,gastroenterology research associates llc,new jersey,cedar knolls,7927,,65 ridgedale avenue
15834,CDM,PPD,SHP647-301,1-ZK5DH1,,United_States,florham park endoscopy center,new jersey,florham park,7932,,195 columbia turnpikesuite 201
15836,CDM,IQVIA,TED-R13-002,0518,1-1E7YTFJ,United_States,saint barnabas health care system,mendham,new jersey,7945,,15 white oak ridge court
15837,CDM,PRA,AP32788-15-101 Extension Study,58267,1-1N43N45,United_States,atlantic health  morristown medical center,nj,morristown,7960,,100 madison avenue
15845,CDM,PPD,Pevonedistat-2001,1-D8Y267,,United_States,hematology oncology associates of northern new jersey,new jersey,morristown,79601089,,100 madison avenuecarol g simon cancer center
15854,CDM,IQVIA,TED-R13-002,0525,1-1A1YYU3,United_States,metabolic medicine  weight control center,morristown,new jersey,7962,,435 south streetsuite 310
15857,CDM,PPD,SHP647-305,1-ZK5DPB,,United_States,hanover endoscopy center,new jersey,whippany,7981,,91 s jefferson road
15859,CDM,PPD,SHP647-302,1-167WFXD,,United_States,professional gastroenterology,new jersey,cherry hill,8003,,1939 marlton pike e
15866,CDM,PPD,C16014,1-E62N1,,United_States,the center for cancer and hematologic disease,new jersey,camden,8003,,1930 route 70 eastsuite v107
15867,CDM,PPD,C16014,1-HGPAH,,United_States,cinj at cooper hospital,new jersey,voorhees,8043,,900 centennial boulevardsuite m
15868,CDM,PPD,TAK-071-2002,1-65R9S87,,United_States,cooper university hospital,new jersey,voorhees,8043,,900 centennial boulevardmovement disorders centersuite 104
15869,CDM,PPD,SHP647-305,1-111646J,,United_States,sunset road professional building south,new jersey,willingboro,8046,,218 c sunset roadcooper university physicians
15876,CDM,PPD,SHP621-301,301-134,,United_States,south jersey gastroenterology,new jersey,marlton,8053,,406 lippincott drivesuite e
15880,CDM,PPD,SHP647-306,1-25TK5I5,,United_States,the gastroenterology group pa,new jersey,mount laurel,8054,,15000 midlantic drivesuite 110
15887,CDM,PPD,SHP647-301,1-ZGYEDS,,United_States,dimarino kroop prieto gastro intestinal associates,new jersey,woodbury,8096,,26 e red bank avenuesuite 101
15889,CDM,PPD,SHP607-202,1-15NMQLV,,United_States,cooper university hospital,new jersey,camden,8103,,1 cooper plazadepartment of neonatology
15891,CDM,IQVIA,MLN0002SC-3031,58063,1-213IFNP,United_States,aga clinical research associates llc,egg harbor township,new jersey,8234,,3205 fire road
15900,CDM,PPD,SHP647-305,1-1113ESB,,United_States,gastroenterology group of south jersey,new jersey,vineland,8360,,602 west sherman avenueresearch department
15909,CDM,IQVIA,TED-R13-002,0509,1-13YHNIJ,United_States,the gastroenterology group of south jersey,vineland,new jersey,8360,,602 w sherman ave
15910,CDM,PPD,SHP647-307,1-26BIRLT,,United_States,princeton road medical bldg,new jersey,east windsor,8520,,254  princetonhightstown road
15917,CDM,PPD,SHP647-307,1-26BIRNH,,United_States,capital health center for digestive health,new jersey,pennington,8534,,two capital waysuite 380
15924,CDM,IQVIA,Vedolizumab-4014,58087,1-3J4V7RN,United_States,capital health system inc,pennington,new jersey,8534,,2 capital way
15925,CDM,PPD,SHP647-303,1-2468B7L,,United_States,princeton medicine,new jersey,plainsboro,8536,,5 plainsboro roadsuite 300
15932,CDM,PPD,SHP647-304,1-24J3WUD,,United_States,princeton gastroenterology associates pa,new jersey,princeton,8540,,731 alexander roadsuite 100
15939,CDM,PPD,Brigatinib-1002,1-615RB31,,United_States,rutgers cancer institute of new jersey,new jersey,hamilton,8690,,2575 klockner road
15941,CDM,PPD,P2002,1-5J4N4PO,,United_States,new jersey hematology oncology associates llc,new jersey,brick,8724,,1608 route 88 west
15944,CDM,PPD,TAK-071-2002,1-65RE4HB,,United_States,shore neurology,new jersey,toms river,8755,,633 route 37 westresearch department
15945,CDM,PPD,SHP465-308,151,,United_States,children specialized hospital,new jersey,toms river,87551490,,94 stevens rd
15946,CDM,PPD,P2002,1-5J4N4W1,,United_States,clinical research alliance inc,new jersey,east brunswick,8816,,j 2 brier hill ct
15947,CDM,PPD,SHP647-305,1-ZH2FRX,,United_States,gastroenterology associates of centeral jersey pa,new jersey,edison,8820,,1921 oak tree roadsuite 250
15949,CDM,PPD,TAK-341-1001,1-8DOV7A5,,United_States,new jersey neuroscience institute,new jersey,edison,88203947,,65 james st
15950,CDM,PPD,SHP647-302,1-21XXSWA,,United_States,hunterdon digestive health specialists pa,new jersey,flemington,8822,,1100 wescott drivesuite 106 doctors office bldg
15957,CDM,PPD,NSMM-5001,58058,,United_States,hunterdon hematology oncology,new jersey,fleming,8822,,2100 wescott drhunterdon hematology oncology
15958,CDM,PPD,TAK-788-2001,1-74VXRZE,,United_States,hunterdon regional cancer center,new jersey,flemington,8822,,2100 wescott drive
15959,CDM,PPD,SHP647-305,1-ZH2FVS,,United_States,gastroenterology consultants pa,new jersey,edison,8837,,205 may streetsuite 101
15961,CDM,PPD,SHP647-301,1-1118OD0,,United_States,digestive health care center pa,new jersey,hillsborough,8844,,511 courtyard drivebuilding 500
15963,CDM,PPD,SHP647-305,1-11164FC,,United_States,pharma trials inc,new jersey,hillsborough,8844,,401 omni drive
15965,CDM,PPD,TAK-071-2002,1-B8T8JD6,,United_States,rutgers university robert wood johnson medical school,new jersey,piscataway,8854,,33 knightsbridge road2 east
15966,CDM,PPD,C16021,1-8IWLJZ,,United_States,somerset hematology oncology associates,new jersey,somerville,8876,,30 rehill avenuesuite 2500
15967,CDM,PPD,C16029,1-Y4814K,,United_States,cancer institute of new jersey,new jersey,new brunswick,8901,,195 little albany street
15971,CDM,PPD,SHP607-202,001,,United_States,robert wood johnson medical school,new jersey,new brunswick,8901,,1 robert wood johnson place
15974,CDM,PPD,SHP647-301,1-YBATHK,,United_States,robert wood johnson university hospital,new jersey,new brunswick,8901,,1 robert wood johnson placepost office box 19
15976,CDM,IQVIA,071301,116,1-2ET1D50,United_States,rutgers  robert wood johnson medical school,new brunswick,new jersey,8901,,125 paterson stroom 6218
15982,CDM,PPD,TAK-007-2001,1-7EYM68C,,United_States,rutgers cancer institute of new jersey,new jersey,new brunswick,89011914,,195 little albany stmain facility location
15994,CDM,PPD,C16014,1-LP5Z5,,United_States,beth israel comprehensive cancer center,new york,new york,10003,,10 union square east
15995,CDM,PPD,C16021,1-8INZ66,,United_States,beth israel medical center,new york,new york,10003,,10 union square eastcancer center
15996,CDM,PPD,C16014,1-HG2JM,,United_States,beth israel new york,new york,new york,10003,,10 union square eastphillips ambulatory care center
16004,CDM,PPD,SHP647-302,1-22FSDJ1,,United_States,jerome h siegel md pc,new york,new york,10003,,305 second avenuesuite 3
16012,CDM,PPD,Pevonedistat-3001,1-16PZHKN,,United_States,crescent city research consortium llc,louisiana,metairie,10006,,4228 houma boulevardeast jefferson hematology oncologysuite 130
16013,CDM,PPD,SHP647-301,1-Y14RB2,,United_States,nyu bluestone center for clinical research,new york,new york,10010,,421 first avenue
16020,CDM,PPD,TAK-079-1501,58102,,United_States,mount sinai hospitalthe donald h ruttenberg cancer treatment center,new york,new york,10011,,325 west 15th streetbox 1128
16021,CDM,PPD,C16021,1-8IVGEZ,,United_States,st vincents comprehensive cancer center,new york,new york,10011,,325 west 15th street
16022,CDM,PPD,SHP647-301,1-ZWXGIU,,United_States,murray orbuch md,new york,new york,10012,,202 spring streetfl 2
16029,CDM,PPD,SHP647-306,1-25ZAG3B,,United_States,bellevue hospital,new york,new york,10016,,1st avenue 27th street
16036,CDM,IQVIA,TED-R13-002,0561,1-3A9TF7Y,United_States,concord medical group pllc,new york,new york,10016,,40 park avenue
16043,CDM,PPD,TAK-981-1502,58013,,United_States,laura and isaac perlmutter cancer center,new york,new york,10016,,160 east 34th streetnyu medical oncology associatesfloor 8
16045,CDM,PPD,SHP647-303,1-15G647V,,United_States,manhattan medical research practice pllc,new york,new york,10016,,215 lexington avenue21st floor
16054,CDM,PRA,C34005,58010,1-1BRNLB7,United_States,new york university langone medical center,ny,new york,10016,,160 east 34th streetroom 936
16059,CDM,IQVIA,Vedolizumab-4014,58057,1-2YOZXJD,United_States,new york university school of medicine,new york,new york,10016,,240 east 38th street 23rd floor
16060,CDM,PPD,TAK-788-1502,1-6W6QJX6,,United_States,nyu cancer institute,new york,new york,10016,,160 east 34th street
16064,CDM,PPD,SHP647-301,1-XZL2QT,,United_States,nyu langone long island clinical research associates,new york,new york,10016,,240 e 38th street
16066,CDM,PPD,C16014,58030,,United_States,nyu langone medical center,new york,new york,10016,,160 east 32nd streetthe fink childrens ambulatory care center
16074,CDM,PPD,SHP-GCB-402,101,,United_States,nyu school of medicine,new york,new york,10016,,240 east 38th streetdepartment of neurology4th floor
16076,CDM,IQVIA,161503,101,1-2X95WFP,United_States,parikh institute for research llc,new york,new york,10016,,35 east 35th streetsuite 202
16086,CDM,PPD,TAK-676-1003,58002,,United_States,laura and isaac perlmutter cancer center,new york,new york,100164744,,160 e 34th st
16091,CDM,PPD,TAK-341-1001,1-8DOV777,,United_States,nyu langone health,new york,new york,100166402,,550 1st ave
16099,CDM,PPD,SHP647-301,1-ZGHKKH,,United_States,gotham gastroenterology,new york,new york,10017,,535 5th avenuesuite 1b
16101,CDM,PPD,C16021,1-E5TKJ2,,United_States,memorial sloan kettering cancer center,new york,new york,10017,,633 3rd avenueclinical trials office
16117,CDM,PPD,TAK-007-2001,1-7EY4W0D,,United_States,columbia university medical center,new york,new york,10019,,51 west 51st streetsmilow room 1120
16118,CDM,PPD,C16014,1-HFCW5,,United_States,mount sinai and roosevelt hospital,new york,new york,10019,,1000 10th avenue
16120,CDM,ICON,C25003,,2568,United_States,st lukes roosevelt hospital center,new york,new york,10019,,1000 10th ave suite 11c
16122,CDM,PPD,TAK-981-1503,1-BAJ2GQ7,,United_States,columbia university medical center,new york,new york,10021,,1275 york avenuememorial sloankettering cancer center
16123,CDM,PPD,SHP647-305,1-ZWXGJV,,United_States,gotham gastroenterology,new york,new york,10021,,1317 3rd avefl 7
16125,CDM,IQVIA,161403,502,1-1JFDTF9,United_States,hospital for special surgery,new york,new york,10021,,525 east 71st street5th floor
16128,CDM,PPD,SHP647-305,1-YBB3A6,,United_States,jill roberts center for inflammatory bowel disease,new york,new york,10021,,1315 york avenuenew york presbyterian hospitalweill medical college of cornell university
16130,CDM,PPD,SHP620-302,023,,United_States,joan and sandford i weill medical college of cornell university clinic,new york,new york,10021,,520 east 70th streetstarr 3
16131,CDM,ICON,C25002,,69929,United_States,memorial sloan  kettering cancer center,new york,new york,10021,,1275 york avenue
16146,CDM,PPD,C16021,58106,,United_States,new york presbyterian hospital  weillcornell,new york,new york,10021,,428 east 72nd streetsuite 300
16152,CDM,PPD,TAK-079-1004,1-5QH8587,,United_States,stony brook university physicians,new york,east setauket,10021,,37 research way
16154,CDM,PPD,C16027,1-RZQ4EE,,United_States,weill cornell medical center,new york,new york,10021,,1305 york avenuepayson pavailion 3
16165,CDM,PPD,Pevonedistat-1016,1-3SBUO6Z,,United_States,memorial sloan kettering cancer center,new york,new york,100210005,,1275 york avepo box 113
16171,CDM,PPD,Pevonedistat-1016,1-3SBUQVX,,United_States,weill cornell medical college,new york,new york,100210005,,525 e 68th st
16173,CDM,PPD,VDZ-5034,58082,,United_States,gotham medical associates pllc,new york,new york,10022,,60 east 56th st7th floor
16175,CDM,PPD,SHP647-301,1-ZWXGDO,,United_States,westside gastroenterology,new york,new york,10024,,620 columbus avenuesuite 2
16185,CDM,PPD,SHP647-304,1-24J3WX2,,United_States,manhattan gastroenterology,new york,new york,10028,,983 park avenuesuite 1d
16196,CDM,PPD,SHP620-303,1-TIJF33,,United_States,icahn school of medicine at mount sinai,new york,new york,10029,,1 gustave l levy placemount sinai hospitalroom 558
16211,CDM,PPD,Brigatinib-1002,1-6185EGD,,United_States,icahn school of medicine at mount sinai  mount sinai ruttenberg treatment center,new york,new york,10029,,1470 madison avenuepediatric blood and marrow transplantation program3rd floor
16233,CDM,PPD,MLN0002-3024,1-7M6NFDB,,United_States,susan and leonard feinstein inflammatory bowel disease clinical center,new york,new york,10029,,17 east 102 street
16246,CDM,PPD,SHP647-305,1-49V7MQ7,,United_States,susan and leonard feinstein inflammatory bowel disease clinical center,new york,new york,100295204,,17 e 102nd street5th floor5th floor
16249,CDM,PPD,SHP634-404,111,,United_States,columbia university medical center,new york,new york,1003,,180 fort washington avenuedivision of endocrinology
16252,CDM,ICON,C25003,,87083,United_States,columbia university,new york,new york,10032,,161 fort washington avehervert irving pavilion garden level
16255,CDM,PRA,TAK-018-2001,58021,1-1PYRW6F,United_States,columbia university irving medical center,ny,new york,10032,,161 fort washington avenue8th floor
16282,CDM,PRA,Vedolizumab-3035,58013,1-1N4K8CW,United_States,columbia university medical center  the columbia center for translational immunology,ny,new york,10032,,650 west 168th streetbb1701c
16283,CDM,PRA,AP26113-13-301,038,1-1F5B7QA,United_States,montefiore medical center,ny,new york,10032,,622 west 168th street18th floorroom 200
16284,CDM,PPD,SHP607-202,1-15MY43P,,United_States,morgan stanley childrens hospital of new york presbyterian chony  pin,new york,new york,10032,,3959 broadway
16285,CDM,PRA,TAK-041-2001,Lieberman J,1-1KTCE6T,United_States,new york state psychiatric institute,ny,new york,10032,,1051 riverside drive
16286,CDM,PPD,TAK620-5004,009,,United_States,columbia university medical center,new york,new york,100323720,,622 w 168th st rm 876
16289,CDM,PPD,SHP647-301,1-111645V,,United_States,new york center for womens health research,new york,new york,10038,,90 maiden lane
16304,CDM,PPD,TAK-079-1501,58105,,United_States,new york presbyterian hospital  weillcornell,new york,new york,10065,,425 east 61st streethematology  medical oncology departmentsuite 800
16308,CDM,IQVIA,C16008PH2,58019,1-3IT5BK,United_States,university of chicago medical center,new york,ny,10065,,407 e 61st street2nd floor
16309,CDM,PPD,SHP647-303,303-777,,United_States,weill cornell medical college,new york,new york,10065,,1283 york avenue9th floor
16328,CDM,IQVIA,261203,128,1-1XQW8RK,United_States,weill cornell medical college wcmc  judith jaffe multiple sclerosis center jjmsc,new york,new york,10065,,525 e 68th strm p695
16334,CDM,PRA,AP24534-14-203,078,1-1FBKODB,United_States,memorial sloankettering cancer center  new york,ny,new york,100656007,,dept of hematology and oncology1275 york avenue
16335,CDM,PRA,C31004,58011,1-1C1OLVF,United_States,memorial sloan kettering cancer center,ny,new york,100656094,,department of internal medicine1275 york avenue
16336,CDM,PPD,SHP647-301,1-YBATP1,,United_States,new york gastroenterology associates,new york,new york,10075,,311 e 79th stsuite 2a
16340,CDM,PPD,SHP647-305,1-YBB39H,,United_States,kornbluth legnani and george mds,new york,new york,10128,,1150 fifth avenue
16342,CDM,PPD,MLN0002-3024,1-7JXXRHJ,,United_States,university of connecticut,new york,staten island,10301,,263 farmington avenue
16343,CDM,PPD,C16014,1-E7UPL,,United_States,staten island university hospital,new york,staten island,10305,,256 mason avenue nalitt center
16348,CDM,PPD,SHP647-305,1-ZGYX13,,United_States,sottile megna md pc,new york,staten island,10306,,360 edison street
16350,CDM,PPD,C16029,1-YQMMDN,,United_States,richmond university medical center,new york,staten island,10310,,355 bard avenuesuite 625
16352,CDM,PPD,SHP647-301,1-ZUUUQ8,,United_States,dr joseph w roberts md,new york,staten island,10312,,3700 richmond avenue
16354,CDM,IQVIA,TAK-831-2002,58022,1-4P7Q6TH,United_States,erg clinical research  new york pllc richmond behavioral associates,staten island,new york,10312,,4349 hylan boulevard
16355,CDM,PPD,SHP647-305,1-25FHE73,,United_States,bronx care,new york,bronx,10457,,1650 selwyn avenue10th floor
16362,CDM,PPD,SHP620-303,1-TJB5JK,,United_States,saint barnabas hospital sbh,new york,bronx,10457,,4422 3rd avenue
16363,CDM,PPD,Pevonedistat-2001,1-D901XR,,United_States,albert einstein college of medicine,new york,bronx,10461,,1300 morris park avenuedevelopmental and molecular biologysuite 802
16366,CDM,PPD,SHP647-306,1-25TK5L7,,United_States,bronx gastroenterology,new york,bronx,10461,,1842 wiliamsbridge road3rd floor
16373,CDM,PPD,TAK-981-1502,58007,,United_States,montefiore einstein cancer center,new york,bronx,10461,,1695 eastchester roadmontefioreeinstein center for cancer care2nd floor
16375,CDM,IQVIA,161403,524,1-4K8WSPM,United_States,montefiore medical center,bronx,new york,10461,,1525 blondell avenue suite 101
16376,CDM,PPD,SHP647-304,1-4NH3JOS,,United_States,montefiore medical center,new york,bronx,10461,,1250 waters placethe university hospital for albert einstein college of medicine
16383,CDM,IQVIA,161503,128,1-3SU446T,United_States,montefiore medical center prime,bronx,new york,10461,,1695 eastchester rdsuite 505
