SR_NUM,SOURCE_IDENTIFIER,DATA_SOURCE_NAME,PROTOCOL_NUMBER,SITE_NUM,UNIQUE_SITE_ID,COUNTRY,SITE_NAME,STATE,CITY,POSTAL_CODE,SITE_STATUS,CONCAT_ADDRESS
14339,CDM,PPD,FEB-1008,1-D1V3PB,,Canada,montreal childrens hospital,quebec,montreal,h3h 1p3,Disqualified,2300 rue tupper
4,CDM,ICON,C16007,,,Canada,imi contact address  tbd,,,,ACTIVE,
14340,CDM,PPD,FEB-1008,1-D1V3PO,,Canada,sainte justine hospital,quebec,montreal,h3t 1c5,Disqualified,3175 ch de lane côtesaintecatherine pediatrics
6152,CDM,IQVIA,TAK-883-3001,203,1-4RTU1EU,Canada,institut universitaire de cardiologie et de pneumologie de quebec,quebec,quebec,g1v 4g5,Dropped,2725 chemin stefoy u1771
16398,CDM,PPD,C16029,1-YWQSNZ,,Canada,windsor regional hospital,ontario,windsor,n8w 1l9,Disqualified,1995 lens avenue
36887,CDM,PRA,TAK-981-1501,07001,8180,Canada,jewish general hospital,quebec,montreal,h3t 1e2,Active Enrolling,3755 chemin de la ctesaintecatherine
8215,CDM,PPD,C14023,1-41ZL995,,Canada,tom baker cancer centre,alberta,calgary,ab t2n 2t9,Disqualified,1403 29 street northwest
34843,CDM,PPD,TMX-67_301,3519,,Canada,alpha clinical research llc,quebec,quebec,g3k 2p8,Closed,1147 boul pie xi n
18460,CDM,PPD,HGT-FIR-096,1-1KV34O,,Canada,mcgill university health center,quebec,montreal,h3g 1a4,Disqualified,1650 cedar avenue
34844,CDM,PPD,TMX-67_301,3520,,Canada,groupe de recherche en maladies osseuses inc,quebec,quebec city,g1v 3m7,Closed,1200 avenue germains des pres
8221,CDM,PPD,C14023,1-4204N9J,,Canada,cancer care manitoba,manitoba,winnipeg,r3e 0v9,Void,675 mcdermot avenue
38945,CDM,PPD,Vedolizumab-4005,1-V6HALX,,Canada,vancouver general hospital,british columbia,vancouver,v5z 1m9,Disqualified,855 west 12th avenue
12321,CDM,PPD,C16014,1-E8Q6N,,Canada,memorial university of newfoundland,newfoundland,saint johns,a1b 3v6,Disqualified,300 prince philip drive
45091,CTMS,PRA,AP26113-13-201,,,Canada,,,,,,
36908,CDM,PRA,AP26113-13-301,083,1-1F5KUQG,Canada,princess margaret cancer centre,on,toronto,m5g 2m9,Activated,610 university avenuefloor 5207
2099,CDM,IQVIA,C14018,7101,1-14CAU66,Canada,centre de santé et de services sociaux champlaincharlesle moyne,,,,,
41012,CTMS,PPD,C21005,07003,,Canada,centre hospitalier universitaire de sherbrookehospital fleurimont,,,,Closed,
41013,CTMS,PPD,C21005,07010,,Canada,southern interior medical research incorporated,,,,Closed,
38968,CTMS,,C14005,07002,,Canada,hopital maisonneuve  rosemont,,,,Closed,
38971,CTMS,,C14005,AML11,,Canada,northwest alabama cancer center,,,,Under Consideration,
38972,CTMS,,C14005,AML15,,Canada,rush university medical center,,,,Under Consideration,
45117,CTMS,PPD,C21012,1-1IDB9UG,,Canada,urology resource centre,,,,Withdrawn,
16446,CDM,PPD,HGT-FIR-096,1-1FOO0R,,Canada,rockyview general hospital,,calgary,t2v 1,Disqualified,7007 14th street southwest
41028,CTMS,PPD,C21004,07004,,Canada,london health sciences centreuniversity hospital,,,,Closed,
41029,CTMS,PPD,C21004,07006,,Canada,guelph urology associates,,,,Closed,
41030,CTMS,PPD,C21004,07008,,Canada,dr ken jansz,,,,Closed,
41031,CTMS,PPD,C21004,07026,,Canada,sinkaf incorporated,,,,Withdrawn,
45127,CTMS,Quintiles,AALL07P1,11001,,Canada,montreal childrens hospital,,,,Active,
12358,CDM,PPD,C16029,07002,,Canada,lakeridge health center,ontario,oshawa,l1g 2b9,Closed,1 hospital courtlakeridge health
77,CDM,ICON,C16007,,,Canada,laboratory shipment address  princess margaret hospital,ontario,toronto,m5g 2c1,ACTIVE,620 university ave8th floorroom 206
28758,CDM,PPD,SPD489-347,200,,Canada,center for pediatric excellence,ontario,ottawa,k2g 1w2,Withdrawn,1647 woodroffe avenue
28759,CDM,PPD,SPD489-347,202,,Canada,foothills medical centre,alberta,calgary,t2n 4z6,Withdrawn,3280 hospital drive northwest
92,CDM,ICON,C25001,07001,,Canada,bc cancer agency,british columbia,vancouver,v5z 1h6,ACTIVE,600 west 10th avenue
22632,CDM,PPD,Pevonedistat-3001,07003,,Canada,university of alberta,alberta,edmonton,t6g 2b7,Close-Out Ready,8440 112th street
16491,CDM,PPD,HGT-FIR-096,1-1EIP3W,,Canada,montreal heart institute,,montreal,h1t1,Disqualified,5000 east belair
16492,CDM,PPD,HGT-FIR-096,1-1EIP4D,,Canada,chest clinic,british columbia,maple ridge,v2x 2l5,Disqualified,30822230 north avenue
16493,CDM,PPD,HGT-FIR-096,1-1EIP70,,Canada,royal victoria regional health centre,quebec,montreal,h3a 1a1,Disqualified,687 pine avenue west
4207,CDM,IQVIA,161403,107,1-4IMEH40,Canada,ecogene21,chicoutimi,quebec,g7h 7k9,Dropped,930 jacquescartier est bureau b210
28785,CDM,PPD,SYR-322-309,1-IQE7VC,,Canada,clinical research consultant group,quebec,pointe claire,h9r 3j1,Disqualified,269 boulevard saint jean
28786,CDM,PPD,SYR-322-309,1-IQE7WC,,Canada,the university of western ontario,ontario,london,n6a 5c1,Disqualified,clinical skills building
118,CDM,ICON,C25003,,,Canada,queen elizabeth ii health science centre,nova scotia,halifax,b3h 2y9,ACTIVE,1276 south park street
22647,CDM,PPD,Pevonedistat-3001,1-16Q6DBF,,Canada,queen elizabeth ii health sciences center,nova scotia,halifax,b3h2e2,Disqualified,5909 jubilee road ce ii  co laura magennis
12409,CDM,PPD,C16027,1-1X1YAXV,,Canada,princess margaret cancer centre,ontario,toronto,m5g 1x5,Disqualified,700 university avenue2nd floor
43130,CTMS,PPD,C21012,07025,,Canada,british columbia cancer agency,,,,Closed,
10362,CDM,PPD,C16014,1-E3N6O,,Canada,grand river hospital,ontario,kitchener,n2g1g3,Disqualified,835 king street west
39037,CTMS,,C14005,AML17,,Canada,hopital de brabois adultes,,,,Not Selected,
2176,CDM,ICON,C25003,07005,,Canada,sir mortimer b davis jewish general hospital,quebec,montreal,h3t 1e2,ACTIVE,3755 rue cote stecatherine
2177,CDM,ICON,C25003,07010,,Canada,saskatchewan cancer agency sca  saskatoon cancer centre scc,saskatchewan,saskatoon,s7n4h4,ACTIVE,20 campus drive
39042,CTMS,,C14006,TBD-300288643,,Canada,london health sciences centreuniversity hospital,,,,Under Consideration,
39043,CTMS,,C14006,TBD-300288932,,Canada,bc cancer agency,,,,Under Consideration,
10370,CDM,PPD,C16014,1-E8Q9H,,Canada,pierre whitlocks private practice,new brunswick,moncton,e1c 8x3,Disqualified,37 providence street
10371,CDM,PPD,C16014,1-E8Q9X,,Canada,london east medical centre,ontario,london,n5w6a2,Disqualified,295 saskatoon street
43142,CTMS,PPD,C21012,1-1IDB9YO,,Canada,hopital notredame,,,,Withdrawn,
43143,CTMS,PPD,C21012,1-1IDBA3I,,Canada,centre hospitalier universitaire de sherbrookehospital fleurimont,,,,Withdrawn,
41096,CTMS,PPD,C21005,1-12J8GGW,,Canada,canmed clinical research incorporated,,,,Declined Participation,
41097,CTMS,PPD,C21005,1-12J913O,,Canada,princess margaret hospital university health network,,,,Declined Participation,
26755,CDM,PPD,SHP625-306,1-1K5S1Y5,,Canada,university of alberta,alberta,edmonton,t6g 1c9,Disqualified,11405 87 avenue northwest
16521,CDM,PPD,HGT-FIR-096,1-ZBZ8C,,Canada,jbn medical diagnostic services inc,ontario,burlington,l7m 4y1,Disqualified,2951 walkers line
8332,CDM,PPD,C14023,1-41ZL9A8,,Canada,university of alberta,alberta,edmonton,t6g 2g3,Disqualified,11350  83 avenue
41104,CTMS,PPD,C21005,1-12K2JHO,,Canada,male health centres,,,,Declined Participation,
41105,CTMS,PPD,C21005,1-12K2P4G,,Canada,dr ken jansz,,,,Declined Participation,
41106,CTMS,PPD,C21005,1-12K30E2,,Canada,joseph brant memorial hospital,,,,Declined Participation,
41108,CTMS,PPD,C21004,1-12J1SB7,,Canada,william osler health centre,,,,Declined Participation,
39064,CDM,PPD,Vedolizumab-4005,1-V6HAKT,,Canada,centre hospitalier de luniversite de montreal,quebec,montreal,h2x 0a9,Disqualified,900 rue stdenis bureau r05630
39065,CDM,PPD,Vedolizumab-4005,1-V6HALK,,Canada,royal university hospital,saskatchewan,saskatoon,s7n 0w8,Disqualified,103 hospital drive
10395,CDM,PPD,C16014,07001,,Canada,muhcglen site,quebec,montreal,h4a 3j1,Active - No Longer Recruiting,1001 boulevard décarie
10396,CDM,PPD,C16014,1-1693N0,,Canada,sault area hospitals,ontario,sault ste marie,p6b 0a8,Disqualified,750 great northern roadalgoma district cancer program
10397,CDM,PPD,C16014,1-1693YF,,Canada,northeast cancer centre,ontario,sudbury,p3e 5j1,Disqualified,41 ramsey lake road
2208,CDM,IQVIA,M1-1188_203,2004,1-17LKNQM,Canada,stratica medical,,,,,
2209,CDM,IQVIA,M1-1188_203,2008,1-17LKNSY,Canada,north bay dermatology centre inc,,,,,
43169,CTMS,PPD,C21012,1-1IDB9N2,,Canada,london health sciences centreuniversity hospital,,,,Withdrawn,
14497,CDM,PPD,C16021,07104,,Canada,royal victoria regional health centre,ontario,barrie,l4m 6m2,Closed,201 georgian drive
41124,CTMS,PPD,C21004,1-12YEYJT,,Canada,uro laval,,,,Declined Participation,
8361,CDM,PPD,C14023,1-43XI3QZ,,Canada,hopital charles le moyne,quebec,greenfield park,j4v 2h1,Disqualified,charles lemoyne hospital 3120 taschereau boulevard
37036,CDM,PPD,TMX-67_301,1-4GKE55,,Canada,skds research inc,ontario,newmarket,l3y 5g8,Disqualified,221679 davis drive
39084,CDM,PPD,Vedolizumab-4005,1-WW16L5,,Canada,mcmaster university medical centre,ontario,hamilton,l8n 3z5,Disqualified,1280 main street west
41134,CTMS,PPD,C21004,1-15ANFAR,,Canada,british columbia cancer agency,,,,Declined Participation,
37042,CDM,PPD,TMX-67_301,1-4GKWFJ,,Canada,university of calgary medicine,alberta,calgary,t2n 4n1,Disqualified,3330 hospital drive northwest
6325,CDM,IQVIA,TAK-994-1501,07003,1-4V575IU,Canada,toronto sleep institute,toronto,ontario,m4p 1p2,Ready for Initiation,586 eglington avenue eastsuite 208
182,CDM,ICON,C25003,07005,,Canada,mcgill university  jewish general hospital,quebec,montreal,h2w 1s6,ACTIVE,546 pine west
183,CDM,ICON,C25003,07006,,Canada,manna research inc,ontario,toronto,m9w 4l6,ACTIVE,2291 kipling avenue
28856,CDM,PPD,SPD489-347,201,,Canada,the kids clinic,ontario,ajax,l1z 0m1,Withdrawn,300 rossland road
8395,CDM,PPD,Brigatinib-1002,1-62G3ZII,,Canada,jewish general  hospital,quebec,montreal,h3t 1e2,Disqualified,3755 ch de la cotesaintecatherinelady davis institute for medical research
6360,CDM,IQVIA,Vedolizumab-4014,07007,1-2ZJMPIJ,Canada,dr jesse siffledeen,edmonton,alberta,t6l 6k3,Enrollment Closed,6203 28 avenue suite 333
4312,CDM,IQVIA,SHP643-403,200,1-49SZBYD,Canada,clinique specialisee en allergie de la capitale,québec,quebec,g1v 4w2,Enrollment Open,2600 boul laurierunit 880
28893,CDM,PPD,SHP616-300,1-FE1XQK,,Canada,halifax allergy and asthma associates,nova scotia,halifax,b3j 3r4,Disqualified,5657 spring garden road
2273,CDM,IQVIA,MLN0002-3026,7006,1-1S8ZZIV,Canada,royal university hospital,,,,,
2274,CDM,IQVIA,MLN0002-3026,7009,1-1S8ZZPY,Canada,hotel dieu hospital,,,,,
2277,CDM,IQVIA,MLN0002-3028,7024,1-1G0KPAL,Canada,giri gi research institute,,,,,
28915,CDM,PPD,SHP616-302,,,Canada,university of western ontario,,,,Disqualified,
16627,CDM,PPD,C21015,1-1B3PA8,,Canada,urology south shore research,quebec,greenfield park,j4v 2h3,Disqualified,3234 boulevard taschereau
43255,CTMS,PPD,C21012,1-1IDBA8K,,Canada,centre hospitalier universitaire de quebec hotel dieu,,,,Withdrawn,
12536,CDM,PPD,C16021,1-Y08DIW,,Canada,centre intégré de la santé et des services sociaux de loutaouais,quebec,gatineau,j8p 7h2,Disqualified,909 boulevard de la vérendrye
41210,CDM,PRA,Ponatinib-3001,07001,1-1LY1KJY,Canada,hopital maisonneuverosemont,qc,montreal,h1t 2m4,Activated,5415 boulevard de lassomption
41211,CDM,PRA,Ponatinib-3001,07003,1-1LY1K9R,Canada,cancercare manitoba,mb,winnipeg,r3e 0v9,Activated,675 mcdermot avenue
30972,CDM,PPD,TAK-079-1005,1-5D7EOVO,,Canada,centre hospitalier universitaire de quebec,quebec,quebec city,g1l3,Disqualified,pavillion saintfrancois dassise 10 rue de lespinay
4355,CDM,IQVIA,261203,190,1-29B50YS,Canada,mcmaster university health sciences center,hamilton,ontario,l8n 3z5,Enrollment Open,1200 main st westroom 1k4
43268,CTMS,INC Research,AP24534-10-201,,,Canada,,,,,,
33027,CDM,PPD,SYR-322-309,1-JLZ84C,,Canada,university of calgary medicine,alberta,calgary,t2n 4z6,Disqualified,3280 hospital drive northwest
8459,CDM,PPD,Brigatinib-1002,1-62I0K31,,Canada,stollery childrens hospital university of alberta,alberta,edmonton,t6g 2b7,Disqualified,8440 112 st nw
8460,CDM,PPD,Brigatinib-1002,1-62I0K3R,,Canada,centre hospitalier de luniversité laval,quebec,quebec,g1v 4g2,Disqualified,2705 boul laurier
18707,CDM,PPD,HOS,091,,Canada,british columbia childrens hospital,,vancouver,v6h 3n1,Active - Recruiting,4500 oak streetuniv of british columbia medical genetics
41236,CTMS,,M120204-063,Legacy Enrollment Site,,Canada,legacy,,,,Closed,
30995,CDM,PPD,SHP647-222,1-5ZPJE8W,,Canada,mcgill university health centre muhc  the montreal,quebec,montreal,h4a 3j1,Potential,1001 decarie blvd
39199,CTMS,,C14004,TBD-300284913,,Canada,vancouver general hospital,,,,Declined Participation,
8479,CDM,PPD,C14023,1-41ZQ9WI,,Canada,hôpital maisonneuverosemont,quebec,montreal,h1t 2m4,Disqualified,5415 boulevard de lassomption
2338,CDM,IQVIA,MLN0002SC-3030,07007,1-2A1W6LT,Canada,hopital maisonneuverosemont dba ciusss de lestdelîledemontréal,montreal,quebec,h1t 2m4,Dropped,5415 boulevard lassomption
39205,CTMS,,C14005,AML03,,Canada,institut de cancérologie de la loire,,,,Not Selected,
39206,CTMS,,C14005,AML21,,Canada,hopital necker  enfants malades,,,,Not Selected,
39207,CTMS,,C14005,NHL/AML27,,Canada,virginia commonwealth university,,,,Declined Participation,
39208,CTMS,,C14005,NHL/AML28,,Canada,center for cancer and blood disorders  fort worth tx,,,,Under Consideration,
45353,CTMS,Univ. California San Diego,Vedolizumab-5001,,,Canada,,,,,,
39209,CTMS,,C14005,NHL/AML31,,Canada,burnaby hospital regional cancer centre,,,,Not Selected,
37169,CDM,PPD,TMX-67_301,1-4GYMZU,,Canada,arun nayar md,saskatchewan,saskatoon,s7k 3h3,Disqualified,750 spadina crescent east
45368,CTMS,Quintiles,AALL07P1,11101,,Canada,childrens hospital of eastern ontario,,,,Active,
8508,CDM,IQVIA,SHP633-304,0433,1-2RGQHMD,Canada,the hospital for sick children,toronto,ontario,m5g 1x8,Enrollment Closed,555 university avenueroom 4534 hill
14656,CDM,PPD,FEB-1008,1-D1V3QE,,Canada,royal university hospital,saskatchewan,saskatoon,s7n 0w8,Disqualified,103 hospital drive
33100,CDM,PPD,TAK-981-1501,07002,,Canada,centre hospitalier de luniversite de montreal,quebec,montreal,qc h2w,Active - Not Yet Recruiting,3981 saint laurent comite dethique de recherche du pavillion cooper
2382,CDM,IQVIA,MLN0002SC-3030,07004,1-2A1W6MP,Canada,mcgill university health centreglen site  royal victoria hospital,montreal,quebec,h4a 3j1,Dropped,1001 boul decarie room c040119research institute mcgill university health center glen site
335,CDM,ICON,C25003,07001,,Canada,ubc bcca research ethics board,british columbia,vancouver,v5z ij3,ACTIVE,fairmont medical building750 west broadway ste 1315
334,CDM,ICON,C25003,07001,,Canada,bc cancer agency vancouver centre,british columbia,vancouver,v5z 4e6,ACTIVE,600 west 10th ave
29009,CDM,PPD,SYR-322-309,1-JLZ7YL,,Canada,cheema research inc,ontario,mississauga,l5a 3v4,Disqualified,110  470 hensall circle
338,CDM,ICON,C25003,07005,,Canada,mcgill uhccenter for applied ethics,quebec,montreal,h3h 2r9,ACTIVE,2155 guy st room 231
339,CDM,ICON,C25003,07005,,Canada,royal victoria hospital rvh  mcgill university health centre muhc,quebec,montreal,h3a 1a1,ACTIVE,687 av des pins o
16723,CDM,PPD,HGT-FIR-096,1-1EIPD6,,Canada,hypertension research unit,quebec,sainte foy,g1v 4g2,Disqualified,2705 blv laurier cs1201
341,CDM,ICON,C25003,07006,,Canada,princess margaret cancer centre,ontario,toronto,m5g 2m9,ACTIVE,department of medical oncology and hematology620 university avenue 6606
2383,CDM,IQVIA,MLN0002SC-3030,07005,1-2A1W6NJ,Canada,zeidler ledcor centre  university of alberta,edmonton,alberta,t6g 2x8,Enrollment Open,8440  112 streetzeidler ledcor centre
336,CDM,ICON,C25003,07003,,Canada,cross cancer institute,alberta,edmonton,t6g 1z2,ACTIVE,11560 university avenue
337,CDM,ICON,C25003,07005,,Canada,jewish general hospital  oncology pharmacy,quebec,montreal,h3t 1e2,ACTIVE,3755 côte stecatherine pavillion e 8th floor
340,CDM,ICON,C25003,07005,,Canada,royalvictoria hospital study coordinators office,quebec,montreal,h3a 1a1,ACTIVE,687 pine avenue pavillion a 3rd floor
342,CDM,ICON,C25003,07006,,Canada,university health network uhn  princess margaret cancer centre  myeloma clinic,ontario,toronto,m5g 2m9,ACTIVE,610 university avenue
16727,CDM,PPD,HGT-FIR-096,1-1FLN2L,,Canada,mcgill university royal institution for the advancement of learning,quebec,montreal,h3g1a4,Disqualified,1650 avenue cedar
16732,CDM,PPD,HGT-FIR-096,1-1EIPGH,,Canada,victoria general hospital,british columbia,victoria,v8z 6r5,Disqualified,1 hospital way
41308,CTMS,PPD,C21005,07015,,Canada,urology south shore research,,,,Closed,
41309,CTMS,PPD,C21005,07022,,Canada,male and females health and research centres,,,,Withdrawn,
41310,CTMS,PPD,C21005,07027,,Canada,prostate centre at vgh,,,,Withdrawn,
16731,CDM,PPD,HGT-FIR-096,1-1EIPF2,,Canada,saint pauls hospital,british columbia,vancouver,v6z 1y6,Disqualified,1081 burrard street
353,CDM,ICON,C16007,,,Canada,pharmacy  university health network,ontario,toronto,m5g 2m9,ACTIVE,610 university averoom 4115
354,CDM,ICON,C16007,,,Canada,princess margaret cancer centre,ontario,toronto,m5g 2m9,ACTIVE,610 university avenue
355,CDM,ICON,C16007,,,Canada,university health network,ontario,toronto,m5g 2m9,ACTIVE,610 university ave
4453,CDM,IQVIA,SHP633-304,0440,1-2RGQHQA,Canada,british columbia childrens  womens hospital center,vancouver,british columbia,v6h 3v4,Dropped,k4218 4480 oak street
31083,CDM,PPD,SHP643-301,1-2XB5EYG,,Canada,clinique spécialisée en allergie de la capitale,quebec,quebec city,g1v 4m6,Disqualified,2600 boulevard laurierresearch transition facility 4016 rtf
26990,CDM,PPD,SHP621-302,1-H5VDZ9,,Canada,william osler health centre,ontario,etobicoke,m9v 1r8,Void,101 humber college boulevard
16753,CDM,PPD,HGT-FIR-096,1-ZC5CS,,Canada,mount sinai hospital,ontario,toronto,m5g 1x5,Disqualified,600 university avenue
16754,CDM,PPD,HGT-FIR-096,1-ZC69D,,Canada,grace hospital,manitoba,winnepeg,r3j 3m7,Disqualified,300 booth drive
4467,CDM,IQVIA,C14012,7002,1-AAHGJM,Canada,mcgill university  dept oncology clinical research program,,,,,
4468,CDM,IQVIA,C14012,7003,1-LCVB9,Canada,princess margaret cancer centre,,,,,
41333,CTMS,,TAK-875_306,,,Canada,,,,,,
10616,CDM,PPD,C16014,1-G0BR3,,Canada,medical oncology and hematology associates,iowa,des moines,50314,Disqualified,411 laurel street
45435,CTMS,Quintiles,MLN0002-3029,,,Canada,,,,,,
6524,CDM,IQVIA,C27002,7205,1-15SGASX,Canada,lhsc  victoria hospital,,,,,
6525,CDM,IQVIA,C27002,7206,1-15VB5N6,Canada,capital district health authority,,,,,
10619,CDM,PPD,C16014,1-GUV5J,,Canada,ultra medical inc,quebec,pointe claire,h9r 4s3,Disqualified,175 stillview road
2439,CDM,ICON,C25003,,,Canada,nova scotia health authority research ethics board,nova scotia,halifax,b3h 1v7,ACTIVE,57090 university ave
37256,CDM,PRA,C34005,07002,1-1CZEW77,Canada,nova scotia health authority,ns,halifax,b3h 2y9,Closed,department of diagnostic imaging1276 south park streetroom 3016 south victoria building
6540,CDM,IQVIA,SHP655-201,803,1-44X78CA,Canada,university health network,toronto,ontario,m5g 2n2,Dropped,585 university avenuenc 11c1256
8603,CDM,PPD,C14023,1-4OE7525,,Canada,university of calgary medicine,alberta,calgary,t2n 4n2,Disqualified,1331 29th st nw
22939,CDM,PPD,P2002,1-5J5J4VG,,Canada,mount sinai hospital  canada,ontario,toronto,m5g 1x5,Void,445660 university avenue
29093,CDM,PPD,SYR-322-309,1-JLX00H,,Canada,joanne f liutkus medicine professional corporation,ontario,cambridge,n1r 7l6,Disqualified,73 water street north vascular risk modification clinic
423,CDM,ICON,C25003,,,Canada,odette cancer centersunnybrook health sciences centre,ontario,toronto,m4n 3m5,ACTIVE,2075 bayview avenue 2nd floor
424,CDM,ICON,C25003,,,Canada,queen elizabeth ii health sciences centre,nova scotia,halifax,b3h 2y9,ACTIVE,1276 south park st bethune building
29098,CDM,PPD,SYR-322-309,1-JMFXGH,,Canada,markham stouffville,ontario,markham,l6b 1a1,Disqualified,381 church street
25008,CDM,PPD,ROPP-2008-01,1-F01XCW,,Canada,royal alexandra hospital,alberta,edmonton,t5h 3v9,Disqualified,10240 kingsway avenue
41399,CTMS,PPD,C21005,1-13J5LT5,,Canada,urotec,,,,Declined Participation,
41408,CTMS,PPD,C21005,1-16U6AEL,,Canada,london health sciences centreuniversity hospital,,,,Declined Participation,
2499,CDM,ICON,C25003,,,Canada,sunnybrook health sciences centre,ontario,toronto,m4n 3m5,ACTIVE,odette cancer centre2075 bayview ave
33229,CDM,PPD,TAK-007-2001,1-8DCY640,,Canada,queens university,ontario,kingston,k7l 3w6,Disqualified,fleming hall
33230,CDM,PPD,TAK-007-2001,1-8DCY650,,Canada,queen elizabeth ii health sciences center,ontario,hamilton,l8n 4a6,Disqualified,50 charlton southeastdepartment of medicine
16858,CDM,PPD,HGT-FIR-096,1-ZC3XN,,Canada,queen elizabeth hospital,prince edward island,charlottetown,c1a 8t5,Disqualified,60 riverside drive
6618,CDM,IQVIA,TAK-101-2001,07003,1-51H1MPB,Canada,chum centre de recherche,montreal,quebec,h2l 4m1,Selected,pavillon simard 6e étage 2065alexandre de seve
10716,CDM,PPD,C16014,1-E3FKK,,Canada,british columbia cancer agency,british columbia,victoria,v8r 6v5,Disqualified,2410 lee avenuevancouver island cancer centre
16868,CDM,PPD,HGT-FIR-096,1-ZC4VY,,Canada,university of ottawa heart institute,ontario,ottawa,k1y 4w7,Disqualified,40 ruskin street
41445,CTMS,PPD,C21005,1-13I2SOZ,,Canada,quest clinical trials  scarborough on,,,,Declined Participation,
10728,CDM,PPD,Brigatinib-1002,1-62IQFA9,,Canada,mcgill university health center,quebec,montreal,h4a 3j1,Disqualified,1001 decarie boulevardhematologyoncology division
16872,CDM,PPD,HGT-FIR-096,1-ZC5DJ,,Canada,toronto general hospital,ontario,toronto,m5g 2c4,Disqualified,200 elizabeth street
16874,CDM,PPD,HGT-FIR-096,1-ZC68M,,Canada,health sciences centre  winnepeg,manitoba,winnepeg,r3a 1r9,Disqualified,820 sherbrooke street
494,CDM,IQVIA,071102,190,1-2IMJ9WI,Canada,childrens  womens health centre of british columbia,vancouver,british columbia,v6h 3v4,Dropped,4480 oak street rm b315
43503,CTMS,PPD,C21004,07011,,Canada,mor urology incorporated,,,,Closed,
6639,CDM,IQVIA,MLN0002-3026,7011,1-1QTGVWX,Canada,mcmaster university health sciences center,,,,,
41459,CTMS,PPD,C21004,07012,,Canada,urology resource centre,,,,Closed,
41460,CTMS,PPD,C21004,07013,,Canada,mahoney medicine professional corporation,,,,Closed,
14836,CDM,PPD,FOS,159,,Canada,bc women’s hospital and health centre,british columbia,vancouver,v6z 2k5,Disqualified,1190 hornby streetfacility of medicine
43513,CTMS,PPD,C21004,1-12J1SF5,,Canada,chuq pavillon hoteldieu,,,,Declined Participation,
506,CDM,ICON,C25003,07001,,Canada,bcca centre for lymphoid cancer,british columbia,vancouver,v5z 4e6,ACTIVE,600 west 10th ave
25083,CDM,PPD,SHP607-202,1-15MWYPI,,Canada,university of calgary medicine,alberta,calgary,t2n 4,Disqualified,2953 health sciences center
508,CDM,ICON,C25003,07005,,Canada,gerald bronfman center for clinical research in oncology,qc,montreal,h2w 1s6,ACTIVE,546 pine avenue w
509,CDM,ICON,C25003,07005,,Canada,royal victoria hospital,quebec,montreal,h3a 1a1,ACTIVE,687 pine ave west
29193,CDM,PPD,SYR-322-309,1-IV8BMX,,Canada,richmond hill childrens clinic,ontario,richmond hill,l4c 9m7,Disqualified,250 harding boulevard west
41482,CTMS,PPD,C21005,1-12J8GAM,,Canada,prostate cancer institute,,,,Declined Participation,
41483,CTMS,PPD,C21005,1-12J90SW,,Canada,guelph urology associates,,,,Declined Participation,
12813,CDM,PPD,C16014,07006,,Canada,centre hospitalier universitaire de sherbrooke chus,quebec,sherbrooke,j1h 5n4,Active - No Longer Recruiting,3001 12e avenue north
12815,CDM,PPD,C16014,07009,,Canada,fraser health authority,british columbia,surrey,v3v 1z2,Active - No Longer Recruiting,13750 96th avenue
528,CDM,IQVIA,161403,103,1-29B10V8,Canada,university of alberta hospital,edmonton,alberta,t6g 2b7,Enrollment Open,8440 112th street nw2c242 wmc
529,CDM,IQVIA,161403,106,1-2SP6T5I,Canada,lhsc  university hospital,london,ontario,n6a 5a5,Enrollment Open,339 windemere road room b7140
33298,CDM,PPD,SYR-322-309,1-JLZ85F,,Canada,medical arts health research group,british columbia,penticton,v2a 5c8,Disqualified,626 main street
23068,CDM,PPD,P2002,07009,,Canada,centre integre de sante et de services sociaux cisss de la monteregiecentre,quebec,greenfield park,j4v 2h1,Qualified,monteregie centre3120 boul taschereau
29010,CDM,PPD,SYR-322-309,1-JLZ82N,,Canada,clinic source unique,ontario,hawkesbury,k6a 1a1,Disqualified,219 main street
2598,CDM,ICON,C25003,,,Canada,capital district health authority qeii hsc,nova scotia,halifax,b3h 1v7,ACTIVE,capital health centre for clinical research5790 university avenuerm 135
41521,CDM,PRA,Vedolizumab-2005,07002,1-1BTOY06,Canada,alberta childrens hospital,ab,calgary,t2n 1n7,Closed,2503 university drive northwestcalgary regional health authority
10803,CDM,PPD,C16014,1-E8QAD,,Canada,southlake regional health centre,ontario,newmarket,l3y 2p9,Disqualified,596 davis drive
41531,CTMS,PPD,C21004,1-12J1RSL,,Canada,brantford urology research,,,,Declined Participation,
41533,CTMS,PPD,C21004,1-12J2MKH,,Canada,alberta urology institute research centre,,,,Declined Participation,
41534,CTMS,PPD,C21004,1-12J3AOH,,Canada,quest clinical trial  markham on,,,,Declined Participation,
35399,CDM,PPD,TAK-788-3001,07004,,Canada,princess margaret hospital,ontario,ontario,m5g 2m9,Active - No Longer Recruiting,610 university avenueprincess margaret cancer centre
19015,CDM,PPD,MACS-2014-100795,1-F0RXCX,,Canada,anapharm,quebec,montreal,h3x 2h9,Potential,5160 decarie boulevard
43600,CTMS,Quintiles,AALL07P1,11084,,Canada,janeway childrens health  rehabilitation hospital,,,,Active,
43601,CTMS,Quintiles,AALL07P1,11147,,Canada,chu sainte justine,,,,Active,
12880,CDM,PPD,C16019,07902,,Canada,gordon  leslie diamond health care center  hematology administration,british columbia,vancouver,v5z 1m9,Withdrawn,2775 laurel streetroom 10149
41557,CTMS,PPD,C21004,1-14E9JLI,,Canada,peter vlaovic medical professional corporation,,,,Declined Participation,
8794,CDM,PPD,C14023,1-43XI2QN,,Canada,sir mortimer b davis jewish general hospital,quebec,pointe claire,h9r 4s3,Disqualified,175 stillview
8797,CDM,PPD,C14023,1-46CW0CE,,Canada,cancer care manitoba,ontario,london,n6h 1e5,Disqualified,201 riverside drive
2663,CDM,ICON,C25003,07005,,Canada,clinical research program mc gill university,quebec,montreal,h2w 1s6,ACTIVE,546 pine avenue west  2nd floor rm 212
2665,CDM,ICON,C25003,07010,,Canada,univ of saskatchewan bioreb,saskatchewan,saskatoon,s7n 4j8,ACTIVE,1607110 gymnasium placenrcplant biotech research institute
6762,CDM,IQVIA,C27002,7202,1-15SGAS3,Canada,bc cancer agency vancouver centre,,,,,
21101,CDM,PPD,P2002,1-5J5J4P3,,Canada,university of calgary medicine,alberta,calgary,t2n 4z6,Void,3280 hospital dr nwarnie charbonneau cancer institute
41582,CTMS,PPD,C21004,1-1D96C7G,,Canada,the scarborough hospital,,,,Declined Participation,
17007,CDM,PPD,MACS-2014-100795,1-F0O9NA,,Canada,lmc clinical research inc  diabetes and endocrinology  ppds,quebec,saint laurent,h4t 1z9,Potential,6363 transcanadienne
43632,CTMS,PPD,TAK-935-2005,,,Canada,,,,,,
21102,CDM,PPD,P2002,1-5J5J4PG,,Canada,university of alberta,alberta,edmonton,t6g 2b7,Void,8440112 street northwestwalter c mackenzie health sciences centre
21104,CDM,PPD,P2002,1-5J5J4QJ,,Canada,hamilton health sciences corporation,ontario,hamilton,l8v 5c2,Disqualified,699 concession streetjuravinski cancer centre
19060,CDM,PPD,HGT-FIR-096,1-152GES,,Canada,alder medical centre,british columbia,campbell river,v9w 5y4,Disqualified,277 evergreen road
12916,CDM,PPD,C16014,1-1623VZ,,Canada,kingston general hospital,ontario,kingston,k7l5p9,Disqualified,25 king street westcancer centre of southeastern ontario
17023,CDM,PPD,MACS-2014-100795,1-F0O9NN,,Canada,medicentres canada incorporated,alberta,edmonton,t5a 4l8,Potential,1274750th street
17024,CDM,PPD,MACS-2014-100795,1-F0O9OQ,,Canada,victoria clinical research inc,,,,Potential,
27265,CDM,PPD,SHP647-221,1-57RSQ5R,,Canada,liver care centre corporation,ontario,toronto,m6h 3m1,Disqualified,1664 dufferin street
27266,CDM,PPD,SHP647-221,1-57RSQ76,,Canada,university of manitoba,manitoba,winnepeg,r3a 1r9,Eligible for Participation,820 sherbrook street
17028,CDM,PPD,MACS-2014-100795,1-F0RXED,,Canada,lmc clinical research inc  diabetes and endocrinology  ppds,ontario,thornhill,l4j 8l7,Potential,531 atkinson avenue
41605,CDM,PRA,TAK-981-1501,07002,14602,Canada,centre de recherche du centre hospitalier de luniversite de montreal,quebec,montreal,h2x 0a9,Activated,900 rue saint denis
6796,CDM,IQVIA,C34002,7001,1-1DBIPAN,Canada,queen elizabeth ii health sciences centre,,,,,
6797,CDM,IQVIA,C34002,7002,1-1DBIPBE,Canada,princess margaret cancer centre,,,,,
2702,CDM,ICON,C25003,07003,,Canada,hrebacancer committee,alberta,edmonton,t5j 4a7,ACTIVE,10104103 street ste 1500
12940,CDM,PPD,C16029,1-Y3GEZL,,Canada,chum notre dame hospital,quebec,montreal,k1h 8l6,Disqualified,1560 sherbrooke street east
2704,CDM,ICON,C25003,07009,,Canada,cancer care manitoba,manitoba,winnipeg,r2h 2a6,ACTIVE,409 tache avenue
17042,CDM,PPD,MLN0002-3024,1-7JU6LUO,,Canada,toronto digestive disease associates inc,ontario,toronto,m3n 2v7,Disqualified,2065 finch ave w
35476,CDM,PPD,Vedolizumab-4005,1-RTS42Q,,Canada,london health sciences centre,ontario,london,n6a 4,Disqualified,gi associatesvictoria campus 375 south streetpo box 5375
19093,CDM,PPD,MLN0002-3024,1-7JU6LV1,,Canada,childrens and womens health centre of british columbia,british columbia,vancouver,v6h 3v4,Void,b3214480 oak st
19092,CDM,PPD,MLN0002-3024,1-7JU6LUD,,Canada,university of montreal,quebec,montreal,h2x 0c2,Disqualified,1100 rue sanguinet
6809,CDM,IQVIA,MLN0002-3028,7026,1-1G0KPEH,Canada,queen elizabeth ii health sciences centre,,,,,
23196,CDM,PPD,P2002,1-5JAO1I6,,Canada,london health sciences centre,ontario,london,n6a 5a5,Disqualified,339 windermere road
37533,CDM,PRA,Ponatinib-3001,07005,1-1QDXFJK,Canada,vancouver general hospital,bc,vancouver,v5z 1m9,Sponsor Approved,855 west 12th avenueblackmore pavilion6th floor lb6
4766,CDM,IQVIA,M1-1188_202,5023,1-1A6DVO2,Canada,lmc clinical research dba manna research inc toronto,,,,,
27293,CDM,PPD,SHP634-101,402,,Canada,bone research and education centre,,oakville,l6m 1m1,Closed,3075 hospital gate
41637,CDM,PRA,Vedolizumab-3035,07002,1-1LLB2E7,Canada,cancercare manitoba,mb,winnipeg,r3e 0v9,Activated,820 sherbrook street
27303,CDM,PPD,SHP634-404,401,,Canada,nova scotia health authority capital district health authority,nova scotia,halifax,b3h 1v7,Withdrawn,5790 universtiy avenuecentre for clinical research
27304,CDM,PPD,SHP634-404,403,,Canada,chu de quebecuniversite laval,quebec,quebec,g1v 4g2,Closed,2705 boulevard laurier
4780,CDM,IQVIA,M1-1188_203,2003,1-17LKNPK,Canada,probity medical research inc,,,,,
17069,CDM,PPD,MACS-2020-08401,1-AIHNGAU,,Canada,unity health,ontario,toronto,m5c 2c5,Potential,36 toronto streetsuite 700
25270,CDM,PPD,SHP616-300,1-FDP0JE,,Canada,clinique sp�cialis�e en allergie de la capitale,quebec,quebec city,g1v 4m6,Disqualified,2590 boulevard laurier 2e étage bureau 225
25271,CDM,PPD,SHP616-300,1-FDP0JR,,Canada,vancouver allergy clinic,,vancouver,v6h 3k2,Disqualified,3195 granville street
25272,CDM,PPD,SHP616-300,1-FDP0LD,,Canada,gordon sussman clinical research inc,,toronto,m4v 1r2,Withdrawn,202 st clair avenue west
41655,CTMS,,60129,60129,,Canada,the hospital for sick children,,,,Active,
37562,CDM,PRA,Brigatinib-2002,07001,1-1KA60NJ,Canada,toronto university health network,on,toronto,m5g 2m9,Activated,610 university avenuefloor 5207
17085,CDM,PPD,MLN0002-3024,1-7K3BL7M,,Canada,university of calgary,alberta,calgary,t3m 1m4,Disqualified,4448 front streetsouth health campus pulmonary diagnostics clinic
19135,CDM,PPD,MACS-2014-100795,1-F0RXDN,,Canada,lmc clinical research inc  diabetes and endocrinology  ppds,alberta,calgary,t2h 2g4,Potential,5940 macleod trail southwest
19143,CDM,PPD,MACS-2020-08401,1-AIHNGBU,,Canada,alberta health services,alberta,calgary,t2n 4n1,Disqualified,33303330 hospital dr nw
17097,CDM,PPD,MLN0002-3024,1-7JU6M1Z,,Canada,university of ottawa health services,ontario,ottawa,k1h 8l6,Disqualified,501 smyth roaduniversity of ottawa eye institute
29390,CDM,PPD,SHP620-303,112,,Canada,st josephs healthcare hamilton,ontario,hamilton,l8n 4a6,Close-Out Ready,50 charlton avenue east
25298,CDM,PPD,SHP616-302,203,,Canada,university of toronto,,toronto,,Withdrawn,585 university avenue
37589,CDM,PPD,TMX-67_301,1-4GKKZQ,,Canada,medical arts health research group,british columbia,kelowna,v1y 3g8,Disqualified,1605 gordon drive
726,CDM,ICON,C16007,,,Canada,data coordinator including safety reports address,ontario,toronto,m5g 1z6,ACTIVE,700 university ave2nd floor north sidework station  27
728,CDM,ICON,C16007,,,Canada,university health network research ethics board,ontario,toronto,m5g 1z5,ACTIVE,research ethics board700 university ave
33497,CDM,PPD,TAK-079-1004,1-5QGG75Y,,Canada,moncton hospital,new brunswick,moncton,e1c 4b7,Void,100 arden street
37593,CDM,PPD,TMX-67_301,1-4GN4RY,,Canada,scimed research inc,british columbia,kelowna,v1y 9l8,Disqualified,757 klo road
37594,CDM,PPD,TMX-67_301,1-4GN4Y5,,Canada,nova scotia health authority capital district health authority,nova scotia,halifax,b3h 3a7,Disqualified,1796 summer street
31456,CDM,PPD,TAK-079-1005,1-5DAYTRH,,Canada,kingston general hospital,ontario,ontario,k7m 3j7,Potential,62 barrie streetcenter for applied urological research
10978,CDM,PPD,C16014,1-HB6WL,,Canada,cancer center for the southern interior,british columbia,kelowna,v1y 5l3,Disqualified,399 royal avenue
43747,CTMS,Quintiles,AALL07P1,11021,,Canada,kingston general hospital,,,,Active,
27373,CDM,PPD,SHP647-221,1-57RSQDZ,,Canada,university of alberta,alberta,edmonton,t6g 2x8,Eligible for Participation,130 university campus
752,CDM,IQVIA,161403,100,1-1JFCCM5,Canada,toronto general hospital,toronto,ontario,m5g 2c4,Enrollment Open,200  elizabeth streeteaton north 10th floor room 243
19185,CDM,PPD,MACS-2020-08401,1-AIQN96C,,Canada,university of british columbia ubc hospital,british columbia,vancouver,v6t 2b5,Potential,2211 wesbrook mall
41719,CTMS,PPD,C21005,1-13JAVHR,,Canada,brantford urology research,,,,Declined Participation,
8951,CDM,PPD,Brigatinib-1003,1-62H56KF,,Canada,university of western ontario,ontario,london,n6a 5w9,Disqualified,800 commissioners road east
2809,CDM,ICON,C25003,07005,,Canada,cedars cancer centre mcgill university health centre,quebec,montreal,h4a 3j1,ACTIVE,1001 decarie boulevard
8954,CDM,PPD,Brigatinib-1003,1-62I0K6Y,,Canada,saskatoon cancer center,saskatchewan,saskatoon,s7n 4h4,Disqualified,20 campus drive
13047,CDM,PPD,C16014,07007,,Canada,london health sciences centre,ontario,london,n6a 4g5,Active - No Longer Recruiting,post office box 5375 station center scs
17148,CDM,PPD,MLN0002-3024,1-D2H7LAO,,Canada,centre hospitalier universitaire saintejustine,quebec,montreal,,Disqualified,3175  chemin cote saintecatherine
35587,CDM,PPD,Vedolizumab-4005,1-V9AV5M,,Canada,ciusssdel�estdel��ledemontréal,quebec,montreal,h1t 2m4,Disqualified,5415 boulevard de lassomption
33541,CDM,PPD,TMX-67_301,1-4GN4RE,,Canada,hydrostone medical centre,,,,Disqualified,
17164,CDM,PPD,MLN0002-3024,1-7NFKZ04,,Canada,hospital for sick children,,toronto,m5g 1x8,Disqualified,555 university avenuedepartment of gastroenterology and nutrition
4884,CDM,IQVIA,MLN0002-3028,7025,1-1GISIJA,Canada,lhsc  university hospital,,,,,
13078,CDM,PPD,C16014,07016,,Canada,chu lhotel dieu de quebec,quebec,quebec city,g1r 3s3,Active - No Longer Recruiting,10 macmahon street
791,CDM,ICON,C25003,,,Canada,sunnybrook health sciences centre ethics board,ontario,toronto,m4n 3m5,ACTIVE,2075 bayview ave room c819
13079,CDM,PPD,C16014,07018,,Canada,lakeridge health center,ontario,ottawa,l1g 2b9,Closed,1 hospital courtdurham regional cancer centre
8983,CDM,PPD,C14023,1-41ZL9AL,,Canada,vancouver general hospital,british columbia,vancouver,v5z 1m9,Void,2775 laurel street
4890,CDM,IQVIA,161403,105,1-2D7ZOX9,Canada,health sciences centre winnipeg,winnipeg,manitoba,r3a 1r9,Dropped,820 sherbrook street
43803,CTMS,PPD,C21004,1-13I3ZA3,,Canada,uro services incorporated,,,,Declined Participation,
37661,CDM,PRA,C31004,07006,1-1C5M3UW,Canada,juravinski cancer centre,on,hamilton,l8v 5c2,Dropped,699 concession streetroom 393
17182,CDM,PPD,MLN0002-3025,3025-07003,,Canada,university of alberta hospital,alberta,edmonton,ab t6g 2b7,Qualified,8440  112 street nwwalter c mackenzie health sciences centre wmc
39719,CDM,PRA,AP24534-14-203,227,1-1FC7U29,Canada,saskatchewan cancer agency,sk,regina,s4t 7t1,Closed,4101 dewdney avenue
31534,CDM,PPD,TAK-788-3001,1-4YSAK0C,,Canada,institut universitaire de cardiologie et de pneumologie,quebec,quebec city,g1v 4g5,Disqualified,2725 chemin sainte foy
27439,CDM,PPD,SHP643-301,1-2XB5EY3,,Canada,mcmaster university medical centre,ontario,west hamilton,l8n 3z5,Disqualified,1200 main streethealth sciences centre hsc3h1d
27440,CDM,PPD,SHP643-301,1-2XB5EYT,,Canada,university of alberta hospital,alberta,edmonton,t6g 2v2,Disqualified,8308 114 street
41785,CTMS,PPD,C21005,07007,,Canada,ultramed inc,,,,Closed,
41786,CTMS,PPD,C21005,07014,,Canada,centre hospitalier universitaire de quebec hotel dieu,,,,Closed,
31550,CDM,PPD,SPD489-347,1-WEM2EA,,Canada,true north clinical research,nova scotia,halifax,b3s 1m7,Disqualified,362 lacewood drive
39743,CTMS,,TAK-875_310,,,Canada,,,,,,
31555,CDM,PPD,SPD489-348,1-17YU2QO,,Canada,the kids clinic,ontario,whitby,l1n 2l1,Withdrawn,1615 dundas street east
41801,CTMS,PPD,C21005,1-12J90M0,,Canada,anthony skehan medicine professionals corporation,,,,Declined Participation,
4938,CDM,IQVIA,MLN0002SC-3027,7007,1-1YW1EHE,Canada,hopital maisonneuverosemont dba ciusss de lestdelîledemontréal,,,,,
4939,CDM,IQVIA,MLN0002SC-3027,7008,1-1SHF522,Canada,toronto digestive disease associates inc,,,,,
4940,CDM,IQVIA,MLN0002SC-3027,7010,1-1RZC1WH,Canada,percuro clinical research ltd,,,,,
845,CDM,ICON,C25003,07009,,Canada,manitoba cancer treatment and research foundation,manitoba,winnipeg,r3e 0v9,ACTIVE,675 mcdermot avenue
29516,CDM,PPD,SHP620-303,1-MCPQEK,,Canada,centre hospitalier de luniversite de montreal hospital notre dame,quebec,montreal,h3c 1j4,Disqualified,2950 chemin de polytechniquemarcellecoutu pavilion
15182,CDM,PPD,HGT-FIR-096,1-152GIS,,Canada,corcare centenary,ontario,scarborough,m1e 5e9,Disqualified,2863 ellesmere road
843,CDM,ICON,C25003,07006,,Canada,princess margaret hospital,ontario,toronto,m5g 2m9,ACTIVE,610 university avenue
844,CDM,ICON,C25003,07006,,Canada,princess margaret hospital,ontario,toronto,m5g 1z6,ACTIVE,700 bay street lucliff place
11083,CDM,PPD,C16017,1-FRLJYP,,Canada,cambridge memorial hospital,ontario,cambridge,n1r 3g2,Disqualified,700 coronation boulevard
31571,CDM,PPD,SYR-322-309,1-IQE7X1,,Canada,lmc clinical research inc  diabetes and endocrinology  ppds,ontario,etobicoke,m9r 4e1,Disqualified,2b  1723 kipling avenue
19282,CDM,PPD,MLN0002-3024,1-D2RHNCO,,Canada,mcgill university health center,quebec,montreal,h4a 3j1,Disqualified,1001 decarie boulevardblock e
9046,CDM,IQVIA,SHP643-403,203,1-49SKPXB,Canada,chum hôteldieu,montreal,quebec,h2w 1r7,Ready for Initiation,110 avenue des pins
11094,CDM,PPD,C16019,07905,,Canada,university health network,ontario,toronto,m5g 2n2,Closed,585 university avenue toronto general hospital
13146,CDM,PPD,C16029,1-Y3GF1R,,Canada,mcgill university health center,quebec,montreal,v5z 1m9,Disqualified,1001 boulevard décariemuhc glen site cedars cancer center
2911,CDM,ICON,C25003,07005,,Canada,jewish general hospital,quebec,montreal,h3t 1e2,ACTIVE,3755 chemin de la cotesaintecatherine
2912,CDM,ICON,C25003,07005,,Canada,villemarie nuclear imaging and petct,qc,montreal,h3h 2l9,ACTIVE,2345 guy street
2914,CDM,ICON,C25003,07009,,Canada,univ of manitoba biomedical research ethics board,manitoba,winnipeg,r3e 0w3,ACTIVE,p126770 bannatyne ave
27494,CDM,PPD,SHP647-221,1-57RSQFC,,Canada,centre hospitalier de luniversite de montreal,quebec,montreal,h2x 3j4,Eligible for Participation,1058 stdenis
31597,CDM,PPD,SPD489-347,1-WEM2DX,,Canada,skds research inc,ontario,newmarket,l3y 5g8,Disqualified,221679 davis drive
31598,CDM,PPD,SPD489-347,1-WEM2FO,,Canada,atlantic adhd center,nova scotia,dartmouth,b2y 1h6,Disqualified,245 pleasant street
21358,CDM,PPD,P2002,07003,,Canada,ottawa hospital,ontario,ottawa,k1y 4e9,Active - Not Yet Recruiting,1503 carling avenue
23412,CDM,PPD,SHP-001-801,1-3YX8B7,,Canada,sainte justine hospital,quebec,montreal,h3t 1c5,Disqualified,3175 chemin cote stecatherine
13176,CDM,PPD,C16014,1-FEX9P,,Canada,nova scotia cancer centre,nova scotia,halifax,b3h 1,Disqualified,5820 university avenue
33659,CDM,PPD,TMX-67_301,1-4GYN8L,,Canada,centre hospitalier pierre le gardeur,quebec,terrebonne,j6v 2h2,Disqualified,911 montee des pionniers
13183,CDM,PPD,C16014,1-FVD9M,,Canada,sudbury regional hospital,ontario,sudbury,p3e 5j1,Disqualified,41 ramsey lake road
27525,CDM,PPD,SHP607-202,1-15NL02B,,Canada,queens university,ontario,kingston,k7l3n6,Disqualified,427 princess streetethgrington hall
29575,CDM,PPD,SYR-322-309,1-JLX016,,Canada,heart health research,alberta,calgary,t2e 7c5,Disqualified,803 1st avenue north east
29576,CDM,PPD,SYR-322-309,1-JLX01I,,Canada,centre medical des halles,quebec,quebec city,g1v 4p9,Disqualified,2880 chemin des quatre bourgeois
37767,CDM,PPD,TMX-67_301,3538,,Canada,topsail road medical clinic,newfoundland,saint johns,a1e2e2,Closed,644 topsail road
29577,CDM,PPD,SYR-322-309,1-JLX01U,,Canada,hamilton general hospital,ontario,hamilton,l8l 2x2,Disqualified,237 barton street east mcmaster clinic
29579,CDM,PPD,SYR-322-309,1-JLX038,,Canada,arun nayar md,saskatchewan,saskatoon,s7k 3h3,Disqualified,750 spadina crescent east
29580,CDM,PPD,SYR-322-309,1-JLZ7XL,,Canada,keele medical place,ontario,north york,m3m 3e5,Disqualified,2830 keele street
29578,CDM,PPD,SYR-322-309,1-JLX02J,,Canada,topsail road medical clinic,newfoundland,saint johns,a1e2e2,Disqualified,644 topsail road
11159,CDM,PPD,C16021,07102,,Canada,mcgill university health center,quebec,montreal,h4a 3j1,Active - No Longer Recruiting,1001 boulevard décarie
5025,CDM,IQVIA,MLN0002SC-3031,07009,1-20BQUOJ,Canada,hotel dieu hospital,kingston,ontario,k7l 5g2,,166 brock street
5026,CDM,IQVIA,MLN0002SC-3031,07010,1-1RZCC14,Canada,percuro clinical research ltd,victoria,british columbia,v8v 3m9,Closed,3051120 yates street
13237,CDM,PPD,C16014,1-E8Q8V,,Canada,saint pauls hospital,british columbia,vancouver,v6k 2e1,Disqualified,2184 west  broadway
23479,CDM,PPD,ROPP-2008-01,16,,Canada,university of western ontario,,london,n6a 5w9,Withdrawn,800 commissioners rd e
9145,CDM,PPD,C16014,07005,,Canada,alberta cancer board,alberta,calgary,t2n 4n2,Active - No Longer Recruiting,1331  29th street northwest alberta health services
37817,CDM,PRA,C31005,07001,1-1BVRRYB,Canada,cancercare manitoba,mb,winnipeg,r3e 0v9,Closed,675 mcdermot avenue
37818,CDM,PRA,C31005,07005,1-1BVRS81,Canada,centre integre de sante et de services sociaux de la monteregiecentre,qc,greenfield park,j4v 2h1,Closed,3120 boulevard taschereausuite hs0054
43967,CTMS,Quintiles,TAK-062-2001,,,Canada,,,,,,
29635,CDM,PPD,SYR-322-309,1-UI77AS,,Canada,university of alberta,alberta,edmonton,t6g 2j3,Disqualified,11402 university avenue
23495,CDM,PPD,ROPP-2008-01,1-F01XD8,,Canada,alberta childrens hospital,alberta,calgary,t2n 1n4,Disqualified,2500 university drive north west
968,CDM,IQVIA,161505,104,1-384KPKV,Canada,vancouver general hospital,vancouver,british columbia,v5z 3p1,Dropped,2647 willow street room 100
5075,CDM,IQVIA,MLN1117-1501,7002,1-1KQU27A,Canada,the ottawa hospital cancer centre,,,,,
17365,CDM,PPD,MACS-2014-100795,1-F0RXEQ,,Canada,hotel dieu de st jerome,,saint jerome,jzz 5,Potential,hotel  dieu de street jerome 290 rus montigny street local d040
19414,CDM,PPD,MLN0002-3024,1-ELP4FZ7,,Canada,seashell medical centre,ontario,milton,l9t 7x1,Potential,330 bronte street south
29656,CDM,PPD,SYR-322-309,1-KLM0UW,,Canada,medical arts health research group,,kelowna,viy 3g8,Disqualified,1605 gordon drive
9182,CDM,PPD,C16014,1-DX47H,,Canada,eastern health  health sciences center general hospital,newfoundland,saint johns,a1b 3v6,Disqualified,300 prince philip drive
29664,CDM,PPD,SYR-322-309,1-TNAW0N,,Canada,infant child and adolescent nutrition clinic,ontario,toronto,m2k 2w1,Disqualified,301 1100 sheppard ave east
39906,CDM,PRA,C31004,07002,1-1C5M41G,Canada,centre hospitalier de luniversite de montreal  hopital notredame,qc,montreal,h2x 3e4,Closed,1051 sanguinet street
9187,CDM,PPD,C16014,1-E3FXA,,Canada,cape breton regional hospital,nova scotia,sydney,b1p 1p3,Disqualified,1482 george street
7145,CDM,IQVIA,Vedolizumab-4014,07001,1-2QRVTML,Canada,chum centre de recherche,montreal,quebec,h2x 0a9,Dropped,chum tour viger900 rue stdenis
7146,CDM,IQVIA,Vedolizumab-4014,07006,1-2YAGJDH,Canada,taunton surgical centre,oshawa,ontario,l1h 7k4,Enrollment Closed,1300 keith ross court
7158,CDM,IQVIA,TAK-883-3001,201,1-4REWDB7,Canada,inspiration research limited,toronto,ontario,m5t 3a9,Dropped,340 college streetsuite 250
44026,CTMS,Quintiles,C13008,,,Canada,,,,,,
41979,CTMS,PPD,C21005,1-1D97OI0,,Canada,the scarborough hospital,,,,Declined Participation,
39932,CDM,PRA,C34005,07001,1-1BRJR99,Canada,jewish general hospital,qc,montreal,h3t 1e2,Closed,3755 chemin de la ctesaintecatherinee1031
9219,CDM,PPD,C14023,1-4NASDCU,,Canada,cancer care manitoba,alberta,edmonton,t6g2c8,Disqualified,8215112 street
35844,CDM,PPD,Vedolizumab-4005,1-WW16KS,,Canada,mcmaster university medical centre,ontario,hamilton,l8n 3z5,Disqualified,1200 main street wes
27664,CDM,PPD,SHP607-202,1-15MWYP5,,Canada,university of calgary medicine,alberta,calgary,t2n 2t9,Disqualified,1403 29th street northwestcumming school of medicine
44049,CTMS,PRA,TAK-954-2002,,,Canada,,,,,,
27668,CDM,PPD,SHP647-221,1-5L92AMR,,Canada,lmc research org,ontario,london,n6a 5a5,Eligible for Participation,339 windermere road
15382,CDM,PPD,C16021,1-8AYRKC,,Canada,medical cabinet drotiman gabriela,ontario,london,n6a 4l6,Disqualified,790 commissioners road
9244,CDM,PPD,C16014,07014,,Canada,hopital du sacre coeur de montreal,quebec,montreal,h4j 1c5,Active - No Longer Recruiting,5400 gouin boulevard west intensive care unit
9246,CDM,PPD,C16014,1-1623RZ,,Canada,ottawa hospital,ontario,ottawa,k1h 8l6,Disqualified,501 smyth road
33824,CDM,PPD,TMX-67_301,1-4GN9FO,,Canada,clinique sante cardio mc,quebec,montreal,h1t 3y7,Disqualified,5700 east sainte zotique
7200,CDM,IQVIA,M1-1188_203,2006,1-17LKNS6,Canada,the centre for dermatology,,,,,
23586,CDM,PPD,ROPP-2008-01,1-8RKQKU,,Canada,regina general hospital,,regina,s4p 0w5,Disqualified,1440 14th avenue
13347,CDM,PPD,C16029,1-Y3GEZ8,,Canada,centre hospitalier universitaire de quebec,quebec,quebec city,n6a 5w9,Disqualified,10 de lespinay
13349,CDM,PPD,C16029,1-Y3GF3K,,Canada,queen elizabeth ii health sciences center,nova scotia,halifax,b3h 2y9,Disqualified,1278 tower road
23590,CDM,PPD,ROPP-2008-01,1-F01XCJ,,Canada,sainte justine hospital,quebec,montreal,h3t 1c5,Disqualified,3175 cote saintecatherine
27690,CDM,PPD,SHP675-301,071,,Canada,queen elizabeth ii health sciences center,nova scotia,halifax,b3h 1v7,Qualified,5820 university avenue
15408,CDM,PPD,HGT-FIR-096,1-1EIPG0,,Canada,toronto western hospital,ontario,toronto,m5t 2s8,Disqualified,399 bathurst street fell wing 6b
15411,CDM,PPD,HGT-FIR-096,1-1FKR4O,,Canada,dr saul vizel cardiac research office,ontario,cambridge,n1r 7r1,Disqualified,715 coronation boulevard
17467,CDM,PPD,MLN0002-3024,1-D2RHNNB,,Canada,windsor regional hospital,ontario,windsor,n9a 1e1,Potential,1030 ouellette avenueouellette campus
37956,CDM,PRA,MLN0002-2003,07009,1-1BTRCXP,Canada,iwk health centre,ns,halifax,b3k 6r8,Closed,5850 university avenue
9288,CDM,PPD,C16014,1-DX455,,Canada,cha quebec hospital,quebec,quebec city,g1j 1z4,Disqualified,1401 18ieme rue
40009,CTMS,Parexel,Cx601-0303,,,Canada,,,,,,
9289,CDM,PPD,C16014,1-E0IUM,,Canada,chum notre dame hospital,quebec,montreal,h2l 4m1,Disqualified,1560 sherbrooke east
9290,CDM,PPD,C16014,1-E3NKA,,Canada,kingston regional cancer centre,ontario,kingston,k7l 5p9,Disqualified,25 king street west
7244,CDM,IQVIA,M1-1188_203,2007,1-17LKNTQ,Canada,ultranova skincare,,,,,
7245,CDM,IQVIA,M1-1188_203,2010,1-181FBNG,Canada,institute for skin advancement inc,,,,,
42063,CTMS,PPD,C21004,07019,,Canada,cross cancer institute,,,,Withdrawn,
25680,CDM,PPD,SHP616-302,1-PPY5QE,,Canada,pacific nephrology group,british columbia,vancouver,v6t1z4,Void,1160 burrard street
44113,CTMS,Quintiles,C13006,,,Canada,,,,,,
27732,CDM,PPD,SHP675-301,1-3NF2FFS,,Canada,medical consultants of western newfoundland,newfoundland and labrador,corner brook,a2h 7e5,Disqualified,345 oconnell drive
17498,CDM,PPD,MACS-2014-100795,1-F0RXAT,,Canada,lmc clinical research inc  diabetes and endocrinology  ppds,ontario,barrie,l4m 7g1,Potential,306  5 quarry ridge road
42075,CTMS,PPD,C21004,1-12J2M43,,Canada,dr bernard goldfarb,,,,Declined Participation,
29787,CDM,PPD,SHP620-303,1-TI7BGD,,Canada,child and family research institute,british columbia,vancouver,v5z 4h4,Disqualified,950 28th ave w
17499,CDM,PPD,MACS-2014-100795,1-F0RXBJ,,Canada,aggarwal and associates ltd,ontario,brampton,l6t 0g1,Potential,490 bramalea road
17500,CDM,PPD,MACS-2014-100795,1-F0RXCL,,Canada,diabetes research group,manitoba,winnepeg,r3c 0n2,Potential,425 saint mary avenue
29786,CDM,PPD,SHP620-303,1-TI7B7H,,Canada,general hospital health sciences centre,newfoundland and labrador,st johns,a1b 3v6,Disqualified,300 prince philip drive
44134,CTMS,Quintiles,C13011,,,Canada,,,,,,
42088,CTMS,PPD,C21004,1-13J5LRP,,Canada,urotec,,,,Declined Participation,
25706,CDM,PPD,SHP620-303,1-TI7BG0,,Canada,vancouver id research  care centre society,british columbia,vancouver,v6z 2c7,Disqualified,1200 burrard streetvancouver infectious diseases centre
25707,CDM,PPD,SHP620-303,1-TI7BHC,,Canada,hematology research  clinical trials unit  thrombosis program,british columbia,vancouver,v5z 1m9,Disqualified,855 west 12th avenuecentennial pavillion
25708,CDM,PPD,SHP620-303,1-TI7BHO,,Canada,university of manitoba,manitoba,winnipeg,r3e 3p5,Disqualified,727 mcdermot avenue
25709,CDM,PPD,SHP620-303,1-TI7BQY,,Canada,brampton civic hospital,ontario,brampton,l6r 3j7,Disqualified,2100 bovaird drive east
38004,CDM,PRA,Ponatinib-3001,07002,1-1KRADRQ,Canada,hopital charleslemoyne,qc,greenfield park,j4v 2h1,Activated,3120 boulevard taschereau
31865,CDM,PPD,SYR-322-309,1-JLX00U,,Canada,oxford aim clinic,ontario,london,n6a 5r9,Disqualified,300 140 oxford street east
31866,CDM,PPD,SYR-322-309,1-JLX02W,,Canada,moran medical centre,ontario,collingwood,l9y 1w3,Disqualified,344 hume street
31868,CDM,PPD,SYR-322-309,1-JLZ7WV,,Canada,centre medical acadie,,toronto,m4t 1,Disqualified,60 street clair avenue east
31869,CDM,PPD,SYR-322-309,1-JLZ82B,,Canada,anapharm,ontario,markham,l6c 1y9,Disqualified,9255 woodbine avenue
31870,CDM,PPD,SYR-322-309,1-JLZ83B,,Canada,recherches cliniques theradev,quebec,granby,j2g 8z9,Disqualified,4 robinson north
44161,CTMS,Quintiles,TAK-390MR_205,,,Canada,,,,,,
40067,CTMS,PPD,C21004,07001,,Canada,dr cal andreou research,,,,Closed,
40068,CTMS,PPD,C21004,07003,,Canada,centre hospitalier universitaire de sherbrookehospital fleurimont,,,,Closed,
40069,CTMS,PPD,C21004,07007,,Canada,ultramed inc,,,,Closed,
40070,CTMS,PPD,C21004,07014,,Canada,centre hospitalier universitaire de quebec hotel dieu,,,,Closed,
40071,CTMS,PPD,C21004,07018,,Canada,princess margaret hospital university health network,,,,Closed,
40074,CDM,PRA,MLN0002-2003,07001,1-1BTOXW1,Canada,london health sciences centre university hospital,on,london,n6a 5w9,Activated,800 commissioners raod eastroom b1161b
9355,CDM,PPD,C16014,07004,,Canada,saint john regional hospital,new brunswick,saint john,e2m 3w5,Closed,640 manawagonish road
38028,CDM,PRA,Vedolizumab-3035,07003,1-1LLB2AG,Canada,saskatchewan cancer agency,sk,saskatoon,s7n 4h4,Closed,20 campus drive
44189,CTMS,PPD,C21004,1-16U6AC1,,Canada,london health sciences centreuniversity hospital,,,,Declined Participation,
5279,CDM,IQVIA,C14012,7001,1-582E73,Canada,the ottawa hospital  general campus,,,,,
25760,CDM,PPD,Pevonedistat-3001,1-17QOUXF,,Canada,chu de quebec,quebec,quebec,g1j 1z4,Disqualified,1401 18e ruehopital de enfantjesus
38053,CDM,PPD,TMX-67_301,3513,,Canada,canadian centre for clinical trials,ontario,thornhill,l4j 1w3,Closed,8054 yonge street
38054,CDM,PPD,TMX-67_301,3517,,Canada,london road diagnostic clinic and medical centre,ontario,sarnia,n7t 4x3,Closed,481 london road
40103,CTMS,PPD,C21004,07002,,Canada,moncton hospital,,,,Declined Participation,
38056,CDM,PPD,TMX-67_301,3524,,Canada,alta clinical research inc,alberta,edmonton,t5a 4l8,Closed,1274750th street
38057,CDM,PPD,TMX-67_301,3527,,Canada,keele medical place,ontario,north york,m3m 3e5,Closed,2830 keele street
40104,CTMS,PPD,C21004,07005,,Canada,bramalea medical centre,,,,Closed,
40105,CTMS,PPD,C21004,07028,,Canada,cool comisión de investigación y etica región sanitaria 6,,,,Closed,
25773,CDM,PPD,SHP620-303,1-TI7B5P,,Canada,mcgill university health center,quebec,lachine,h8s 3n5,Disqualified,650 16e avenue
38062,CDM,PPD,TMX-67_301,3551,,Canada,glover medical clinic,british columbia,langley,v3a 4h9,Closed,5796 glover road
33968,CDM,PPD,TMX-67_301,3521,,Canada,alfred cividinos private practice,,hamilton,l8n 2b6,Closed,187 hughson street south
44211,CTMS,Quintiles,MLN0002-3023,,,Canada,,,,,,
40117,CTMS,PPD,C21004,1-12J2M5D,,Canada,sunnybrook and womens health sciences centre,,,,Declined Participation,
40118,CTMS,PPD,C21004,1-12J441H,,Canada,medical arts health research group,,,,Declined Participation,
21688,CDM,PPD,Pevonedistat-2001,,,Canada,ottawa hospital,,,,Disqualified,
11455,CDM,PPD,C16017,1-FRLK01,,Canada,royal victoria regional health centre,quebec,montreal,h3a1a1,Disqualified,687 avenue de pins ouest
5313,CDM,IQVIA,MLN0002SC-3031,07004,1-1TPLWPQ,Canada,mcgill university health centreglen site  royal victoria hospital,montreal,quebec,h3a 1a1,Dropped,687 pine avenue west r238
33987,CDM,PPD,TMX-67_301,3647,,Canada,centre de recherche musculosquelettique,quebec,troisrivieres,g8z 1y2,Closed,1119 stemarguerite
19654,CDM,PPD,MACS-2014-100795,1-F0O9OD,,Canada,st michaels hospital,ontario,toronto,m5c 2t2,Potential,61 queen street east
19656,CDM,PPD,MACS-2014-100795,1-F0RXBV,,Canada,cornwall medical centre,prince edward island,charlottetown,c1a 5y9,Potential,30 linden avenue
38090,CDM,PPD,TMX-67_301,3645,,Canada,victoria clinical research inc,,,,Closed,
33997,CDM,PPD,TMX-67_301,3636,,Canada,metropolitan clinical research center,quebec,montreal,h2p 2m1,Closed,8127 stlaurent
23764,CDM,PPD,Pevonedistat-3001,1-18QG59Y,,Canada,nova scotia health authority capital district health authority,nova scotia,halifax,b3h2y9,Disqualified,1276 south park streetqeii hscvg site bethune building
36058,CDM,PPD,TAK-981-1501,07001,,Canada,sir mortimer b davis jewish general hospital,quebec,montreal,h3t 1e2,Active - Recruiting,3755 cote sainte catherine road
44261,CTMS,Quintiles,Vortioxetine-3003,,,Canada,,,,,,
40174,CTMS,PPD,C21004,1-12J1S63,,Canada,prostate centre at ugh,,,,Declined Participation,
40176,CTMS,PPD,C21004,1-12J2M8H,,Canada,cape breton regional hospital,,,,Declined Participation,
11505,CDM,PPD,Brigatinib-1002,1-62GT8U6,,Canada,kingston general hospital,ontario,kingston,k7l 2v7,Disqualified,76 stuart street
40178,CTMS,PPD,C21004,1-12J43Y9,,Canada,ottawa,,,,Declined Participation,
38131,CTMS,,C05002 (BAC) (PEAK),Legacy Enrollment Site,,Canada,legacy,,,,Closed,
13564,CDM,PPD,C16017,1-FRLK21,,Canada,saskatoon cancer center,saskatchewan,regina,s4t7t1,Disqualified,4101 dewdney avenue
29951,CDM,PPD,SHP620-303,1-TI7B7T,,Canada,st josephs health centre,ontario,toronto,m6r 1b5,Disqualified,30 the queensway
38144,CTMS,,C05005  (POINT I),Legacy Enrollment Site,,Canada,legacy,,,,Closed,
34050,CDM,PPD,TAK-079-1004,1-61GGO73,,Canada,st michaels hospital,,ontario,m5b1w8,Void,30 bond street16 cardinal carter
36100,CDM,PRA,AP24534-14-203,083,1-1FC7U5G,Canada,princess margaret hospital  toronto,on,toronto,m5g 2m9,Activated,610 university avenuesuite 5106
9477,CDM,IQVIA,Vedolizumab-4014,07008,1-2YAELWS,Canada,brandon medical arts clinic,brandon,manitoba,r7a 0n7,Closed,339 princess avenue
29957,CDM,PPD,SHP620-303,1-TI7BRZ,,Canada,mcmaster university medical centre,ontario,hamilton,l8s 4l8,Disqualified,201280 main street westmichael g degroote institute for infectious disease research iidr
34060,CDM,PPD,TAK-079-1005,1-5VCYKQY,,Canada,university of saskatchewan,saskatchewan,saskatoon,s7n 4j8,Disqualified,co research services 5000 retail postal outlet university
5388,CDM,IQVIA,471101,203,1-2BQACEV,Canada,chum hôteldieu,montréal,quebec,h2w 1t8,Dropped,3840 rue saint urbainhôteldieu  pavillion vimont porte 3201
9487,CDM,IQVIA,SHP633-304,0436,1-2RGQHPL,Canada,walter c mackenzie health science centre,edmonton,alberta,t6g 1c9,Enrollment Closed,stollery childrens hospital8440112 st
15636,CDM,PPD,HGT-FIR-096,1-152HYS,,Canada,office of dr mpj senaratne,alberta,edmonton,t6k 4c1,Disqualified,2939 66th street millwoods cardiodiagnostics
11540,CDM,PPD,Brigatinib-1002,1-6EHNNYD,,Canada,stollery childrens hospital university of alberta,alberta,edmonton,t6g 2r7,Potential,8440 112 street northwest
1306,CDM,IQVIA,C14018,7102,1-17R6LHU,Canada,hamilton health sciences corporation,,,,,
5405,CDM,IQVIA,C27002,7204,1-15VB5MR,Canada,chu de québec –hôteldieu de québec,,,,,
5406,CDM,IQVIA,C27002,7207,1-15SGAXN,Canada,dr g vrabec md inc,,,,,
9503,CDM,PPD,Brigatinib-1003,1-62GT8QJ,,Canada,mcmaster childrens hospital,ontario,hamilton,l8n 3z5,Disqualified,1200 main street west
32036,CDM,PPD,TAK-079-1004,1-5QGG7AJ,,Canada,the university of british columbia,british columbia,vancouver,v6t 1z4,Void,2329 west mall
32037,CDM,PPD,TAK-079-1004,1-5QGG7BL,,Canada,shivinder jolly medicine,ontario,kitchener,n2h 5z8,Void,18 pine street
42280,CTMS,PPD,C21005,1-12K2CG4,,Canada,cape breton regional hospital,,,,Declined Participation,
42281,CTMS,PPD,C21005,1-12K2P22,,Canada,quest clinical trial  markham on,,,,Declined Participation,
36142,CDM,PPD,Vedolizumab-4005,1-WW16LI,,Canada,toronto digestive disease associates inc,ontario,vaughan,l4l 4y7,Void,4600 highway 7
36143,CDM,PPD,Vedolizumab-4005,1-WW16LV,,Canada,saint josephs healthcare system,ontario,london,n6a 4v2,Disqualified,268 grosvenor street
5427,CDM,IQVIA,161505,CPCAN,1-3ISYMOJ,Canada,bayshore specialty rx markham,markham,ontario,l3r 3w6,Enrollment Open,233 alden rd
7475,CDM,PPD,Brigatinib-1002,1-62IQFG2,,Canada,hospital for sick children,ontario,toronto,m5g 1x8,Potential,555 university avenue
11579,CDM,PPD,C16006,07003,,Canada,hopital de lenfant jesus,quebec,quebec city,g1j 1z4,Closed,1401 18e rue
42300,CTMS,PPD,C21005,1-14EA5JC,,Canada,peter vlaovic medical professional corporation,,,,Declined Participation,
25920,CDM,PPD,SHP620-303,1-TI7BFA,,Canada,north york general hospital,ontario,toronto,m2k 1e1,Disqualified,4001 leslie street
3399,CDM,IQVIA,281102,002,1-2W3VJ4W,Canada,chu saintejustine,montréal,quebec,h3t 1c5,Dropped,3175 chemin côte saintecatherine
15689,CDM,PPD,HGT-FIR-096,1-152HSD,,Canada,dalhousie university,nova scotia,halifax,b3h 3a7,Disqualified,1796 summer street
21834,CDM,PPD,Pevonedistat-2001,1-D87NFE,,Canada,vancouver general hospital,british columbia,vancouver,v5z 4e3,Disqualified,950 west 10th avenue
15691,CDM,PPD,HGT-FIR-096,1-152HVO,,Canada,walter c mackenzie health sciences centre wcm,alberta,edmonton,t6g 2b7,Disqualified,8440 112th street
32079,CDM,PPD,TAK-079-1005,1-5D7EP4J,,Canada,university of calgary medicine,alberta,calgary,t2n 4n1,Potential,3330 hospital drive northwest
15696,CDM,PPD,HGT-FIR-096,1-152I9Z,,Canada,university of alberta hospital,alberta,edmonton,t6g 2b7,Disqualified,8440 112 street northwest 471 msb division of hematologyoncology
17759,CDM,PPD,MACS-2014-100795,1-F0RXB6,,Canada,bailey clinic,alberta,red deer,t4n 6v7,Potential,394750 a avenue
23905,CDM,PPD,Pevonedistat-2001,1-D87NHX,,Canada,hamilton health sciences corporation,ontario,hamilton,l8v 1c3,Disqualified,711 concession streethenderson juravinski hospital
17765,CDM,PPD,MACS-2020-08401,1-AIHNGB5,,Canada,mcmaster university medical centre,ontario,hamilton,l8n 3z5,Disqualified,1280 main street west
7526,CDM,IQVIA,MLN0002-3026,7004,1-1S8ZZDL,Canada,mcgill university health centreglen site  royal victoria hospital,,,,,
7529,CDM,PPD,Brigatinib-1002,1-62IQFH0,,Canada,cancer care manitoba,manitoba,winnipeg,r3e 0v9,Disqualified,675 mcdermot averesearch institute in oncology and hematology
15723,CDM,PPD,HGT-FIR-096,1-1EIP4U,,Canada,st josephs health centre,ontario,london,n6a 4,Disqualified,2268 grosvenor street
15724,CDM,PPD,HGT-FIR-096,1-1EIP5S,,Canada,royal columbian hospital,british columbia,new westminster,v3l 3w4,Disqualified,245 east columbia street
15725,CDM,PPD,HGT-FIR-096,1-1EIPEL,,Canada,q and t research,quebec,chicoutimi,g7h7y8,Disqualified,412 boulevard du saguenay est
7536,CDM,PPD,Brigatinib-1002,1-68AF4WX,,Canada,childrens hospital of eastern ontario,ontario,ottawa,k1h 8l1,Disqualified,401 smyth road
9585,CDM,PPD,C14023,07001,,Canada,saint john regional hospital,new brunswick,saint john,e2l 4l2,Withdrawn,400 university avenue
36211,CDM,PRA,Brigatinib-2002,07004,1-1KPS4MJ,Canada,mcgill university health centre,qc,montreal,h4a 3j1,Activated,1001 decarie boulevard
36212,CDM,PRA,Brigatinib-2002,07006,1-1KADUCQ,Canada,tom baker cancer center,ab,calgary,t2n 2t9,Activated,dept of clinical neurosciences1402 29th street northwest
1403,CDM,ICON,C25003,,,Canada,local laboratory,nova scotia,halifax,canada b3h 1v7,ACTIVE,5788 university avenue
1404,CDM,ICON,C25003,,,Canada,queen elizabeth hscvg site bethune building,nova scotia,halifax,b3h 2y9,ACTIVE,1278 tower road room 4430
30076,CDM,PPD,TAK-079-1004,1-5QGG79W,,Canada,sudbury regional hospital,ontario,sudbury,p3a 2t4,Void,960 notre dame avenue
34174,CDM,PPD,TAK-079-1004,1-641ZW9N,,Canada,saint pauls hospital,british columbia,vancouver,v6e 1m7,Disqualified,5051033 davie street
44415,CTMS,PPD,Pevonedistat-2002,,,Canada,,,,,,
9599,CDM,PPD,C14023,1-4204NCW,,Canada,london health sciences centre,ontario,london,n6a 5w9,Disqualified,800 commissioners road east
42372,CTMS,PPD,C21005,07019,,Canada,cross cancer institute,,,,Closed,
42373,CTMS,PPD,C21005,07024,,Canada,tom baker cancer centre,,,,Closed,
44423,CTMS,PPD,TAK-788-3002,,,Canada,,,,,,
44428,CTMS,PPD,C21004,07009,,Canada,mcmaster institute of urology,,,,Closed,
44429,CTMS,PPD,C21004,07010,,Canada,cool comisión de investigación y etica región sanitaria 6,,,,Closed,
44430,CTMS,PPD,C21004,07016,,Canada,notredame hospital,,,,Closed,
44431,CTMS,PPD,C21004,07020,,Canada,todd webster md,,,,Closed,
44432,CTMS,PPD,C21004,07021,,Canada,quest clinical trials  scarborough on,,,,Closed,
44433,CTMS,PPD,C21004,07023,,Canada,dr allan abramovitch,,,,Closed,
7568,CDM,IQVIA,MLN0002-3028,7027,1-1G0KPH3,Canada,lhsc  victoria hospital,,,,,
7569,CDM,IQVIA,MLN0002-3028,7029,1-1G0KPGB,Canada,percuro clinical research ltd,,,,,
5524,CDM,IQVIA,261203,193,1-29B1187,Canada,stollery children’s hospital,edmonton,alberta,t6g 1c9,Enrollment Open,3511 edmonton clinic health academy11405 87 avenue
13726,CDM,PPD,C16019,07904,,Canada,foothills medical centre,alberta,calgary,t2n 2t9,Withdrawn,1403 29th street northwest
42401,CTMS,PPD,C21005,1-12J90NY,,Canada,dr gary steinhoff clinical research,,,,Declined Participation,
44449,CTMS,PPD,TAK-935-2006,,,Canada,,,,,,
42407,CTMS,PPD,C21005,1-12JVOD3,,Canada,dr cal andreou research,,,,Declined Participation,
5544,CDM,IQVIA,SHP643-303,132,1-4X3PADL,Canada,ottawa allergy research corporation,ottawa,ontario,k1g 6c6,Initiated,1102935 conroy road
42409,CTMS,PPD,C21005,1-12K2CTS,,Canada,london health sciences centreuniversity hospital,,,,Declined Participation,
44465,CTMS,Quintiles,AALL07P1,11011,,Canada,british columbias childrens hospital,,,,Active,
44466,CTMS,Quintiles,AALL07P1,11098,,Canada,the hospital for sick children,,,,Active,
44467,CTMS,Quintiles,AALL07P1,11120,,Canada,saskatchewan cancer agency,,,,Active,
5559,CDM,IQVIA,MLN1117-1501,7001,1-1LJC57V,Canada,smbd jewish general hospital dba jewish general hospital,,,,,
5560,CDM,IQVIA,MLN1117-1501,7003,1-1LJC51R,Canada,princess margaret cancer centre,,,,,
17847,CDM,PPD,MLN0002-3024,3024-07003,,Canada,university of alberta hospital,alberta,edmonton,t6g 2b7,Qualified,8440 112 st nw
13752,CDM,PPD,C16029,1-YLMI9Z,,Canada,mcgill university health center,quebec,montreal,h3a 1a1,Disqualified,1001 decarie boulevard
30142,CDM,PPD,TAK-007-2001,1-8DBWC1L,,Canada,mcgill university,quebec,montreal,h9k 1p6,Potential,546 pine avenue westoncology department
30143,CDM,PPD,TAK-007-2001,1-8DBWC2A,,Canada,princess margaret cancer centre,ontario,toronto,mg 1z6,Void,700 university avenuehydro place building
36293,CDM,PRA,Brigatinib-3001,07007,1-1LOC1UP,Canada,queen elizabeth ii health sciences centre,ns,halifax,b3h 1v7,Activated,nova scotia cancer center5790 university ave building
17861,CDM,PPD,MLN0002-3025,3025-07004,,Canada,winnipeg childrens hospital hscwinnipeg,manitoba,winnipeg,r3a 1s1,Withdrawn,840 sherbrook st
38345,CTMS,,C13002,Legacy Enrollment Site,,Canada,legacy,,,,Closed,
24010,CDM,PPD,Pevonedistat-2001,1-D8949S,,Canada,foothills medical centre,alberta,calgary,ab t2n 2t9,Disqualified,1403 29 street northwest
3533,CDM,IQVIA,C27002,7203,1-15SGAW4,Canada,sunnybrook health sciences cntr,,,,,
42448,CTMS,PPD,C21005,1-13ECCPF,,Canada,stanley flax medical professional corporation,,,,Declined Participation,
9684,CDM,PPD,C16014,1-DX44P,,Canada,vancouver general hospital,british columbia,vancouver,v5z 1,Disqualified,575 west 8th avenue
44501,CTMS,PPD,RO-2455-404-RD,,,Canada,,,,,,
38358,CTMS,,C14004,TBD-300284907,,Canada,cross cancer institute,,,,Declined Participation,
38359,CTMS,,C14004,TBD-300284908,,Canada,torontosunnybrook regional cancer centre,,,,Declined Participation,
38360,CTMS,,C14004,TBD-300284912,,Canada,bc cancer agency,,,,Declined Participation,
38361,CTMS,,C14004,TBD-300287313,,Canada,jewish general hospital,,,,Not Selected,
9690,CDM,PPD,C16014,1-E3N8F,,Canada,centre de sante et de services sociaux de laval,quebec,laval,h7m 3l9,Disqualified,1755 boulevard rene laennec
38362,CTMS,,C14005,07006,,Canada,chum  hopital notredame,,,,Early Terminated,
15835,CDM,PPD,HGT-FIR-096,1-1EIP3F,,Canada,aim healthgroup,alabama,binghamton,35233,Disqualified,1526 5th avenue south
38365,CTMS,,C14005,AML01,,Canada,bay area cancer research group   pleasant hill ca,,,,Under Consideration,
38366,CTMS,,C14005,AML06,,Canada,washington university cancer center pharmacy,,,,Declined Participation,
38367,CTMS,,C14005,AML10,,Canada,mcgill university  jewish general hospital,,,,Declined Participation,
38368,CTMS,,C14005,AML22,,Canada,charleston cancer center,,,,Declined Participation,
38369,CTMS,,C14005,NHL/AML32,,Canada,columbus ccop,,,,Declined Participation,
38370,CTMS,,C14005,NHL/AML34,,Canada,south texas institute of cancer,,,,Under Consideration,
15837,CDM,PPD,HGT-FIR-096,1-1EIPGY,,Canada,george zimakuss private practice,ontario,niagara,l2e 6k2,Disqualified,5546 portage road
9691,CDM,PPD,C16014,1-E3NHC,,Canada,hotel dieu de levis,quebec,levis,g6v 3z1,Disqualified,143 rue wolfe
38373,CTMS,,C14004,TBD-300284910,,Canada,mcphaden john md,,,,Declined Participation,
28134,CDM,PPD,SHP607-202,1-15UA0QM,,Canada,womens hospital,manitoba,winnipeg,r3e ol8,Disqualified,735 notre dame avenue
38374,CTMS,,C14004,TBD-300287314,,Canada,royal victoria medical center,,,,Not Selected,
44520,CTMS,Quintiles,C13007,,,Canada,,,,,,
9705,CDM,PPD,C16014,1-G0BRJ,,Canada,heritage physician group oncology,arkansas,hot springs,71913,Disqualified,100 mcgowan court
36330,CDM,PRA,Brigatinib-3001,07001,1-1L6LZXR,Canada,toronto university health network,on,toronto,m5g 2m9,Activated,610 university avenuefloor 5207
38379,CTMS,,C14005,AML02,,Canada,fred hutchinson cancer research center,,,,Not Selected,
38380,CTMS,,C14005,AML07,,Canada,hopital hautepierre  chu strasbourg,,,,Not Selected,
38381,CTMS,,C14005,AML20,,Canada,university of maryland,,,,Declined Participation,
38382,CTMS,,C14005,NHL/AML29,,Canada,new york medical college,,,,Not Selected,
38383,CTMS,,C14005,NHL/AML30,,Canada,cape breton cancer ctr,,,,Not Selected,
40428,CTMS,Dobbs Consulting,C16001,002,,Canada,princess margaret hospital university health network,on,toronto,m5g 2m9,Closed,610 university ave
9709,CDM,PPD,C16014,1-HAHJE,,Canada,windsor regional cancer center clinical trials,ontario,windsor,n8w 2x3,Disqualified,2220 kildare road
11759,CDM,PPD,C16011,07002,,Canada,tom baker cancer centre,alberta,calgary,t2n 4n2,Active - No Longer Recruiting,1331  29th street northwestclinical trials unit
30208,CDM,PPD,TAK-079-1004,1-5QGG7DM,,Canada,lawson health research institute,ontario,london,n6c 2r5,Disqualified,750 base line road east
30209,CDM,PPD,TAK-079-1004,1-5QGXB9H,,Canada,dalhousie university,nova scotia,halifax,b3h 4h6,Void,6299 south street
44546,CTMS,PPD,C21005,07005,,Canada,jonathan giddens medicine professional corporation,,,,Closed,
44547,CTMS,PPD,C21005,07011,,Canada,mor urology incorporated,,,,Closed,
44548,CTMS,PPD,C21005,07026,,Canada,sinkaf incorporated,,,,Withdrawn,
44556,CTMS,PPD,C21004,1-12J0FDP,,Canada,saint josephs health centre,,,,Declined Participation,
44557,CTMS,PPD,C21004,1-12J0FMV,,Canada,canmed clinical research incorporated,,,,Declined Participation,
44558,CTMS,PPD,C21004,1-12J2M21,,Canada,probity medical research incorporated,,,,Declined Participation,
44559,CTMS,PPD,C21004,1-12J2MHP,,Canada,tom baker cancer centre,,,,Declined Participation,
44560,CTMS,PPD,C21004,1-12J3B73,,Canada,bruce w palmer urology incorporated,,,,Declined Participation,
44561,CTMS,PPD,C21004,1-12J43WF,,Canada,northern urology center,,,,Declined Participation,
38417,CDM,PPD,Vedolizumab-4005,1-RTPOTO,,Canada,toronto digestive disease associates inc,ontario,vaughan,l4l 4y7,Disqualified,4600 highway 7
3603,CDM,IQVIA,M1-1188_203,2002,1-17LKNOI,Canada,lynderm research inc,,,,,
38418,CDM,PPD,Vedolizumab-4005,1-RTS420,,Canada,mcmaster university medical centre,ontario,hamilton,l8n 3z5,Disqualified,1200 main street west
38419,CDM,PPD,Vedolizumab-4005,1-RTS433,,Canada,hotel dieu hospital,ontario,kingston,k7l 5g2,Disqualified,166 brock street
9747,CDM,PPD,C16014,1-E8Q73,,Canada,moncton hospital,new brunswick,moncton,e1c 6z8,Disqualified,135 macbeath avenue
5603,CDM,IQVIA,SHP643-403,202,1-4AG29UO,Canada,st michaels hospital,toronto,ontario,m5b 1w8,Selected,80 bond streetroom 6049 bond wing
1570,CDM,IQVIA,M1-1188_203,2001,1-17LJBTN,Canada,centre de recherche dermatologique du quebec metropolitain,,,,,
1571,CDM,IQVIA,M1-1188_203,2009,1-17LKNW4,Canada,dermatrials research inc,,,,,
34342,CDM,PPD,TAK-079-1005,1-5VEVLZP,,Canada,university of toronto,ontario,scarborough,m1c 1a4,Potential,1265 military trail
7720,CDM,IQVIA,MLN0002SC-3031,07002,1-1T7KT8U,Canada,queen elizabeth ii health sciences centre,halifax,nova scotia,b3h 3a7,Dropped,44641796 summer street
32297,CDM,PPD,SYR-322-309,1-IQE7VO,,Canada,markham stouffville,,,,Disqualified,
9776,CDM,IQVIA,SHP643-403,204,1-4LPPQHE,Canada,university of calgary  heritage medical research clinic,calgary,alberta,t2n 2t9,Enrollment Open,140329th st nwrm 681 foothills medical center
34352,CDM,PPD,TMX-67_301,3643,,Canada,entralogix clinical group,ontario,brampton,l6t 3j1,Closed,40 finchgate boulevard
9783,CDM,PPD,C16014,1-E7UXA,,Canada,saint michaels hospital,ontario,toronto,m5b 1w8,Disqualified,30 bond street
44608,CTMS,Quintiles,AALL07P1,11117,,Canada,mcmaster childrens hospital,,,,Active,
7749,CDM,PPD,Brigatinib-1002,1-62G3ZAF,,Canada,iwk health center,nova scotia,halifax,b3k 6r8,Disqualified,58505980 university avenue
36426,CDM,PRA,Brigatinib-2002,07005,1-1KADUGE,Canada,cross cancer institute,ab,edmonton,t6g 1z2,Activated,11560 university avenue northwest
30286,CDM,PPD,TAK-079-1004,1-5QHJUZO,,Canada,abbotsford regional hospital and cancer care centre,british columbia,abbotsford,v2s 0c2,Disqualified,32900 marshall roadabbotsford centre
3664,CDM,IQVIA,MLN0002-3026,7002,1-1QTGVW3,Canada,queen elizabeth ii health sciences centre,,,,,
34387,CDM,PPD,Vedolizumab-4005,1-RTS41N,,Canada,university of alberta,alberta,edmonton,abt68 2x8,Disqualified,zeidler ledcor center university of alberta 130 university campus
1634,CDM,IQVIA,071301,192,1-2G2M4BZ,Canada,hamilton health sciences centre,hamilton,ontario,l8n 3z5,Enrollment Closed,1200 main st w
9826,CDM,PPD,C16014,1-HAHIT,,Canada,toronto east general hospital,ontario,toronto,m4c 5m5,Disqualified,650 sammon avenue
9688,CDM,PPD,C16014,1-E3FSL,,Canada,burnaby hospital,british columbia,burnaby,v5g 2x6,Disqualified,3935 kincaid street
26218,CDM,PPD,SHP607-202,1-15MGMTQ,,Canada,montreal childrens hospital,quebec,montreal,h4a 3j1,Disqualified,1001 boulevard décarie
1643,CDM,IQVIA,161403,101,1-1JFCCT3,Canada,montreal neurological institute clinical research unit,montréal,quebec,h3a 2b4,Closed,3801 university street207j
36463,CDM,PRA,C31004,07004,1-1C5LCQK,Canada,tom baker cancer center,ab,calgary,t2n 2t9,Closed,dept of clinical neurosciences1402 29th street northwest
9847,CDM,PPD,C16014,1-HAHJU,,Canada,queen elizabeth ii health sciences center,nova scotia,halifax,b3h 1v7,Disqualified,5790 university avenueqeii health sciences centre
36473,CDM,PRA,C31004,07001,1-1C5O0SM,Canada,victoria hospital,on,london,n6a 4l6,Closed,london regional cancer program790 commissioners road east
1664,CDM,IQVIA,MLN0002-3026,7001,1-1QTENJ6,Canada,lhsc  university hospital,,,,,
1668,CDM,IQVIA,MLN0002-3028,7028,1-1HREWQ2,Canada,vancouver general hospital,,,,,
3721,CDM,IQVIA,MLN0002-3026,7008,1-1QTENAA,Canada,toronto digestive disease associates inc,,,,,
42635,CTMS,,C14005,07005,,Canada,hopital charles lemoyne,,,,Early Terminated,
3725,CDM,IQVIA,MLN0002-3028,7023,1-1G0KP92,Canada,toronto digestive disease associates inc,,,,,
36493,CDM,PRA,C31005,07003,1-1BVLNGY,Canada,cross cancer institute,ab,edmonton,t6g 1z2,Closed,11560 university avenue northwest
42639,CTMS,,C14005,AML09,,Canada,baptist regional cancer center,,,,Under Consideration,
44688,CTMS,PPD,C21005,1-12K2P6S,,Canada,hamilton district urology association,,,,Declined Participation,
42640,CTMS,,C14005,AML12,,Canada,saint lukes hospital of kansas city,,,,Under Consideration,
42641,CTMS,,C14005,AML13,,Canada,dana farber cancer institute,,,,Declined Participation,
42642,CTMS,,C14005,AML14,,Canada,washington cancer institute  medstar health,,,,Under Consideration,
42643,CTMS,,C14005,AML16,,Canada,hopital jean minjoz  chu de besançon,,,,Not Selected,
42644,CTMS,,C14005,NHL/AML35,,Canada,virginia crosson cancer ctr,,,,Under Consideration,
42645,CTMS,,C14005,TBD-300287713,,Canada,hôpital du sacrécoeur de montréal,,,,Under Consideration,
16019,CDM,PPD,C21015,07028,,Canada,comisión de investigación y etica región sanitaria 6,ontario,oakville,l6h 3p1,Withdrawn,1235 trafalgar road north
36504,CDM,PRA,C34004,07003,1-1CWRPN4,Canada,hopital de lenfantjesus,qc,quebec,g1j 1z4,Closed,hpital de lenfantjsus hej1401 18me rue
18068,CDM,PPD,FOS,411,,Canada,eastern health  health sciences center general hospital,newfoundland and labrador,st johns,a1b 3v6,Active - Recruiting,300 prince philip driveprovincial medical genetics program
13980,CDM,PPD,C21015,07010,,Canada,southern interior medical research inc,british columbia,kelowna,v1w 4v5,Withdrawn,3320 richter street
13982,CDM,PPD,C21015,07022,,Canada,male and females health and research centres,ontario,barrie,l4m 7g1,Withdrawn,1 quarry ridge
9699,CDM,PPD,C16014,1-F3YWH,,Canada,british columbia cancer agency,british columbia,vancouver,v5z 4e6,Disqualified,600 west 10th avenue
44704,CTMS,PPD,C21005,1-13I4L8F,,Canada,uro services incorporated,,,,Declined Participation,
11936,CDM,PPD,C16021,1-Y08DIJ,,Canada,fraser valley centre british columbia cancer agency,british columbia,surrey,v3v 1z2,Disqualified,13750 96th avenue
40611,CTMS,,C14005,AML08,,Canada,hopital hautleveque,,,,Declined Participation,
40612,CTMS,,C14005,AML18,,Canada,mcmaster university health sciences ctr,,,,Declined Participation,
40613,CTMS,,C14005,AML19,,Canada,chum  hopital notredame,,,,Not Selected,
40614,CTMS,,C14005,NHL/AML36,,Canada,sparrow regional cancer center,,,,Under Consideration,
44712,CTMS,PPD,C21005,1-14IFFS9,,Canada,mahoney medicine professional corporation,,,,Declined Participation,
32425,CDM,PPD,SYR-322-309,1-JLWZZU,,Canada,medical phase canada inc,ontario,newmarket,l3y 8e4,Disqualified,17215 leslie street unit c
32426,CDM,PPD,SYR-322-309,1-JLX04A,,Canada,kelowna cardiology research,british columbia,kelowna,v1y 1v6,Disqualified,2606 pandosy street
32427,CDM,PPD,SYR-322-309,1-JLZ82Z,,Canada,centre de rechere clinique de laval,quebec,laval,h7t 2p5,Disqualified,3030 boulevard le carrefour
40617,CTMS,,C14006,TBD-300288933,,Canada,jewish general hospital,,,,Under Consideration,
36526,CDM,PRA,C34008,07002,1-1HHCJ96,Canada,hopital maisonneuverosemont,qc,montreal,h1t 2m4,Closed,5415 boulevard de lassomption
36529,CDM,PRA,MLN0002-2003,07005,1-1BTOY4B,Canada,toronto hospital for sick children,on,toronto,m5g 1x8,Closed,555 university avenue
36530,CDM,PRA,MLN0002-2003,07006,1-1BTOY6Z,Canada,university of alberta,ab,edmonton,t6g 1c9,Closed,1140587 avenue northwest
7866,CDM,IQVIA,MLN0002SC-3027,7003,1-1TDN7GL,Canada,lhsc  victoria hospital,,,,,
7867,CDM,IQVIA,MLN0002SC-3027,7004,1-1TPLKTE,Canada,mcgill university health centreglen site  royal victoria hospital,,,,,
11965,CDM,PPD,C14023,07002,,Canada,chum,quebec,montreal,h2x 1p1,Withdrawn,264 boul renelevesque east
9918,CDM,IQVIA,TAK-101-2001,07004,1-4YMNTCR,Canada,recherche médicale stjérôme inc,stjérôme,quebec,j7z 5t3,Selected,290 rue montignybloc f
9919,CDM,IQVIA,TAK-101-2001,07005,1-4YMGBK9,Canada,south edmonton gastroenterology,edmonton,alberta,t6w 3g7,Selected,200 620328 ave sw
26306,CDM,PPD,SHP607-202,1-15MGMWV,,Canada,the university of british columbia,british columbia,vancouver,v6h 3v4,Disqualified,4480 oak street
11979,CDM,PPD,C14023,1-4204NB9,,Canada,hôpital maisonneuverosemont,quebec,montréal,h3t 1j4,Disqualified,2900 boulevard edouardmontpetit
16075,CDM,PPD,C16029,1-Y3GEWI,,Canada,british columbia cancer agency,british columbia,victoria,l8v 5c2,Disqualified,2410 lee avenue
42704,CTMS,,TAK-875_309,,,Canada,,,,,,
38608,CTMS,,M34103-058,Legacy Enrollment Site,,Canada,legacy,,,,Closed,
7889,CDM,PPD,Brigatinib-1002,1-62GT8YO,,Canada,british columbia childrens hospital,british columbia,vancouver,v6h 3v4,Disqualified,4480 oak street
7899,CDM,PPD,Brigatinib-1002,1-69Q487M,,Canada,alberta childrens hospital,alberta,calgary,t3b 6a8,Disqualified,28 oki drive nw
14046,CDM,PPD,C21015,1-1B36SA,,Canada,brantford urology research,ontario,brantford,n3r 4n3,Disqualified,353 saint paul avenue
22241,CDM,PPD,Pevonedistat-3001,1-16Q6DDJ,,Canada,alberta cancer board,alberta,edmonton,t5j 3n4,Disqualified,10405 jasper avenue
22242,CDM,PPD,Pevonedistat-3001,1-16Q6DDW,,Canada,hamilton health sciences corporation,ontario,hamilton,l8l 2x2,Disqualified,237 barton street eastmcmaster clinic
16097,CDM,PPD,C16029,1-Y3GF1E,,Canada,william osler health centre,ontario,brampton,v3v 1z2,Disqualified,2100 bovaird drive east
22243,CDM,PPD,Pevonedistat-3001,1-16Q6DFC,,Canada,nova scotia health authority capital district health authority,nova scotia,halifax,b3h 2e1,Disqualified,5955 veterans memorial lane
26346,CDM,PPD,SHP-001-801,1-3YXKRG,,Canada,institut orl de montreal,quebec,montroyal,h3p 2h7,Disqualified,1361 avenue beaumont
42735,CTMS,,C14005,AML04,,Canada,hôpital claude huriez,,,,Not Selected,
42736,CTMS,,C14005,AML05,,Canada,ch de mulhouse  hopital emile muller,,,,Not Selected,
42737,CTMS,,C14005,AML23,,Canada,institut bergonié  centre régional de lutte contre le cancer de bordeaux et sudouest,,,,Not Selected,
42738,CTMS,,C14005,NHL/AML33,,Canada,jewish general hospital,,,,Not Selected,
42739,CTMS,,C14005,NHL/AML37,,Canada,kalamazoo hematology and oncology,,,,Under Consideration,
42740,CTMS,,C14005,TBD-300019618,,Canada,mcgill university health centredept oncology,,,,Not Selected,
3831,CDM,IQVIA,161505,102,1-2O29RLZ,Canada,recherche sepmus inc,greenfield park,quebec,j4v 2j2,Closed,4896 taschereau boulevardsuite 230
32505,CDM,PPD,SPD489-347,1-WEWOWD,,Canada,windsor health centre,ontario,windsor,n8x 4w2,Disqualified,600 tecumseh road east
1790,CDM,IQVIA,MLN0002SC-3027,7005,1-1US5Q92,Canada,zeidler ledcor centre  university of alberta,,,,,
40702,CTMS,PPD,C21004,07015,,Canada,urology south shore research,,,,Closed,
40703,CTMS,PPD,C21004,07017,,Canada,dr gary steinhoff clinical research,,,,Withdrawn,
40704,CTMS,PPD,C21004,07022,,Canada,male and females health and research centres,,,,Withdrawn,
40705,CTMS,PPD,C21004,07027,,Canada,prostate centre at vgh,,,,Withdrawn,
7945,CDM,IQVIA,MLN1117-1501,7004,1-1OQ0HC4,Canada,cross cancer institute,,,,,
7946,CDM,IQVIA,MLN1117-1501,7005,1-1LN84UO,Canada,allan blair cancer centre,,,,,
40713,CTMS,PPD,C21004,1-12J0FFR,,Canada,prostate cancer institute,,,,Declined Participation,
40714,CTMS,PPD,C21004,1-12J0FP7,,Canada,anthony skehan medicine professionals corporation,,,,Declined Participation,
40716,CTMS,PPD,C21004,1-12J2MJ7,,Canada,male health center,,,,Declined Participation,
40717,CTMS,PPD,C21004,1-12J3B8L,,Canada,humber river regional hospital,,,,Declined Participation,
1807,CDM,IQVIA,C27002,7201,1-151NP4R,Canada,chum centre de recherche,,,,,
12046,CDM,PPD,C16014,1-E3FNR,,Canada,g kenneth jansz medicine professional corporation,ontario,burlington,l7n 3v2,Disqualified,3155 harvester road
12047,CDM,PPD,C16014,1-E3FU2,,Canada,cancer care manitoba,manitoba,winnepeg,r3a 1r9,Disqualified,820 sherbrooke street
12056,CDM,PPD,C16014,1-E7UWB,,Canada,vancouver hospital and hsc,british columbia,vancouver,v5z 3j5,Disqualified,d92733 heather street heather pavillion
36633,CDM,PRA,C31004,07003,1-1C5M432,Canada,the ottawa hospital cancer centre,on,ottawa,k1h 8l6,Closed,501 smyth road
36634,CDM,PRA,C31004,07005,1-1C5M3X2,Canada,princess margaret cancer centre,on,toronto,m5g 2m9,Activated,610 university avenueroom 5110
32538,CDM,PPD,TAK-788-3001,1-4YRY4LG,,Canada,centre hospitalier universitaire de sherbrooke chus,quebec,sherbrooke,j1h 5h3,Disqualified,3001 12 ave n
40738,CTMS,PPD,C21004,1-13ECCND,,Canada,stanley flax medical professional corporation,,,,Declined Participation,
5926,CDM,IQVIA,TAK-883-3001,204,1-4SVMSJY,Canada,synergy respiratory  cardiac care,sherwood park,alberta,t8h 0n2,Dropped,501 bethel drive
28457,CDM,PPD,SHP616-302,,,Canada,st michaels hospital,,,,Disqualified,
5933,CDM,IQVIA,TAK-994-1501,07002,1-50QU7BH,Canada,somni research inc calgary,calgary,alberta,t2x 2a8,Selected,300295 midpark way se
36655,CDM,PRA,C31005,07006,1-1D5WM0S,Canada,mcmaster university,on,hamilton,l8n 4a6,Closed,50 charlton avenue east3rd floorroom g344
32568,CDM,PPD,SYR-322-309,1-IV5TFA,,Canada,office of david b miller md,alberta,victoria,v8r 1j8,Disqualified,2335 richmond avenue memorial pavillion kenning wing 1
44858,CTMS,PPD,C21005,07002,,Canada,moncton hospital,,,,Closed,
44859,CTMS,PPD,C21005,07016,,Canada,notredame hospital,,,,Closed,
44860,CTMS,PPD,C21005,07020,,Canada,todd webster md,,,,Closed,
44861,CTMS,PPD,C21005,07025,,Canada,british columbia cancer agency,,,,Closed,
30527,CDM,PPD,TAK-079-1004,1-5QGG7BY,,Canada,thunder bay regional health sciences centre,ontario,thunder bay,p7b 6v4,Void,980 oliver road
10051,CDM,IQVIA,TAK-994-1501,07001,1-4V575LR,Canada,jodha tishon inc,toronto,ontario,m5s 3a3,Initiated,1033 bay streetroom 318319
36677,CDM,PRA,TAK-676-1002,07001,26575,Canada,princess margaret cancer centre,ontario,toronto,m5g 2m9,Activated,610 university avenue
32586,CDM,PPD,SYR-322-309,1-IQE7UZ,,Canada,manitoba institute of child health,,,,Disqualified,
3915,CDM,IQVIA,MLN0002SC-3027,7001,1-1RZC1W2,Canada,lhsc  university hospital,,,,,
3916,CDM,IQVIA,MLN0002SC-3027,7009,1-20BQJ3H,Canada,hotel dieu hospital,,,,,
14157,CDM,PPD,C21015,07030,,Canada,urology associates urologic medical research,,,,Withdrawn,
14159,CDM,PPD,C21015,1-10VCEL,,Canada,todd webster md,ontario,owen sound,n4k 2j1,Disqualified,1101 2nd avenue east
36688,CDM,PRA,C34008,07001,1-1HHBL74,Canada,jewish general hospital,qc,montreal,h3t 1e2,Closed,3755 chemin de la ctesaintecatherinee1031
36690,CDM,PRA,MLN0002-2003,07002,1-1BTOXYU,Canada,alberta childrens hospital,ab,calgary,t2n 1n7,Closed,2503 university drive northwestcalgary regional health authority
28499,CDM,PPD,SHP616-302,1-KZT8EP,,Canada,hotel dieu du centre hospitalier de luniversite de montreal,quebec,montreal,h3c 1j4,Disqualified,2950 chemin de polytechnique
36691,CDM,PRA,MLN0002-2003,07003,1-1BTOY1I,Canada,centre hospitalier universitaire saintejustine,qc,montreal,h3t 1c5,Closed,3175 chemin de la cotesaintecatherine
28502,CDM,PPD,SHP616-302,1-P4GBJK,,Canada,vancouver general hospital,british columbia,vancouver,,Disqualified,899 12th avenue west
18264,CDM,PPD,FOS,158,,Canada,university of alberta,alberta,edmonton,t6g 2h7,Active - Recruiting,8440112 street northwestdepartment of medical genetics
40794,CTMS,Dobbs Consulting,C16002,005,,Canada,mcgill university  jewish general hospital,,,,Active,
1890,CDM,IQVIA,M1-1188_202,5022,1-1A91DL5,Canada,the medical arts health research group,,,,,
44900,CTMS,PPD,C21005,1-12JVOLB,,Canada,saint josephs health centre,,,,Declined Participation,
36709,CDM,PRA,Ponatinib-3001,07004,1-1P8SRUB,Canada,the ottawa hospital,on,ottawa,k1h 8l6,Activated,501 smyth road
44901,CTMS,PPD,C21005,1-12K2210,,Canada,probity medical research incorporated,,,,Declined Participation,
40807,CTMS,INC Research,AP24534-15-303,,,Canada,,,,,,
1900,CDM,IQVIA,M1-1188_203,2005,1-17LKNRE,Canada,skin centre for dermatology,,,,,
16236,CDM,PPD,GOS,1102,,Canada,mount sinai hospital  canada,ontario,toronto,m5t 3l9,Active - No Longer Recruiting,60 murray street
12144,CDM,PPD,C16021,07103,,Canada,william osler health centre,ontario,brampton,l6r 3j7,Active - No Longer Recruiting,2100 bovaird drive eastbrampton civic hospital campus
44913,CTMS,PPD,C21005,1-12YEYL1,,Canada,uro laval,,,,Declined Participation,
44917,CTMS,PPD,C21005,1-13JAURZ,,Canada,male health center,,,,Declined Participation,
44918,CTMS,PPD,C21005,1-13L99PR,,Canada,dr allan abramovitch,,,,Declined Participation,
14199,CDM,PPD,C21015,1-1B36NH,,Canada,stanley flax medical professional corporation,ontario,north york,m2j 1v1,Disqualified,1333 sheppard avenue east
28537,CDM,PPD,SYR-322-309,1-IQE7UN,,Canada,canadian centre for research on diabetes,ontario,smiths falls,k7a4w8,Disqualified,218 percy street
18308,CDM,PPD,HGT-FIR-096,1-1EIP69,,Canada,surrey memorial hospital,british columbia,surrey,v3v 1n1,Disqualified,13798 94a avenue
18309,CDM,PPD,HGT-FIR-096,1-1EIPFJ,,Canada,hoteldieu grace hospital,ontario,ajax,l1s 7j5,Disqualified,306230 westney road south
18313,CDM,PPD,HGT-FIR-096,1-1KV347,,Canada,cardiologues associes,quebec,chicoutimi,g7h 6b9,Disqualified,874 boul de luniversite e
18314,CDM,PPD,HGT-FIR-096,1-1KXN4L,,Canada,hamilton general hospital,ontario,hamilton,l8l 2x2,Disqualified,237 barton street
3979,CDM,IQVIA,161403,104,1-26DJWFV,Canada,vancouver general hospital,vancouver,british columbia,v5z 1m9,Prematurely Closed,2775 laurel street suite 8232 8th floor
44939,CTMS,PPD,C21012,1-1IDBUHK,,Canada,the ottawa hospital cancer centre,,,,Declined Participation,
6028,CDM,IQVIA,C14018,7103,1-18GSMJT,Canada,cross cancer institute,,,,,
40861,CTMS,Mapi,MLN-0002_401,,,Canada,,,,,,
12195,CDM,PPD,C16021,1-8E1YD1,,Canada,toronto east general hospital,ontario,toronto,m4c 3e7,Disqualified,825 coxwell avenue
38823,CTMS,,Vedolizumab-3001,,,Canada,,,,,,
4007,CDM,IQVIA,MLN0002SC-3031,07003,1-1TDNFG7,Canada,lhsc  victoria hospital,london,ontario,n6a 5w9,Closed,children’s hospital london heath sciences centre  co research pharmacy
4008,CDM,IQVIA,MLN0002SC-3031,07008,1-1SHCV2O,Canada,toronto digestive disease associates inc,vaughan,ontario,l4l 4y7,Closed,4600 highway 7 unit 225
1965,CDM,IQVIA,MLN0002-3026,7003,1-1QTGVWI,Canada,lhsc  victoria hospital,,,,,
1966,CDM,IQVIA,MLN0002-3026,7005,1-1S8ZZIG,Canada,university of alberta,,,,,
1967,CDM,IQVIA,MLN0002-3026,7007,1-1S8WRRS,Canada,hopital maisonneuverosemont dba ciusss de lestdelîledemontréal,,,,,
28595,CDM,PPD,SHP616-302,1-EF75OD,,Canada,ottawa hospital,,ottawa,k1h7w9,Disqualified,1967 riverside drive
8120,CDM,PPD,Brigatinib-1003,1-62H56F5,,Canada,juravinski cancer centre,ontario,hamilton,l8v 5c2,Disqualified,699 concession steet
8123,CDM,PPD,Brigatinib-1003,1-62I0K68,,Canada,memorial university of newfoundland,newfoundland and labrador,halifax,,Disqualified,300 prince philip drive
38844,CTMS,,C13001,Legacy Enrollment,,Canada,legacy,,,,Closed,
44991,CTMS,Quintiles,TAK-114-2001,,,Canada,,,,,,
38849,CTMS,,C14004,TBD-300287524,,Canada,hopital charles lemoyne,,,,Not Selected,
36803,CDM,PRA,AP24534-14-203,129,1-1FC7U3T,Canada,jewish general hospital,qc,montreal,h3t 1e2,Closed,3755 chemin de la ctesaintecatherinee1031
38855,CTMS,,C14005,AML24,,Canada,hôpital lapeyronie,,,,Not Selected,
16332,CDM,PPD,FEB-1008,1-D1V3Q1,,Canada,centre hospitalier universitaire de quebec,quebec,quebec,g1v 4g2,Disqualified,2705 boulevard laurier
8144,CDM,PPD,C14023,1-4204NA9,,Canada,centre hospitalier universitaire de quebec,quebec,levis,g6v 3z1,Disqualified,143 rue wolfe
8145,CDM,PPD,C14023,1-4204NAM,,Canada,chu lhotel dieu de quebec,,porto,4099001,Void,largo professor abel salazar
8146,CDM,PPD,C14023,1-4204NBM,,Canada,hôpital maisonneuverosemont,quebec,quebec city,g1r 2j6,Void,11 cote du palais
10196,CDM,PPD,C16014,07011,,Canada,abbotsford regional hospital and cancer care centre,british columbia,abbotsford,v2s 3n5,Closed,2051 mccallum road
30677,CDM,PPD,TAK-079-1005,07502,,Canada,vancouver general hospital vgh,british columbia,vancouver,v5z 1m9,Qualified,8th floor 2775 laurel streetgordon  leslie diamond health care centre
10199,CDM,PPD,C16014,1-1623I9,,Canada,allan blair cancer centre,saskatchewan,regina,s4t 1a5,Disqualified,4101 dewdney avenue
18396,CDM,PPD,HGT-FIR-096,201,,Canada,queen elizabeth ii health sciences center,nova scotia,halifax,b3h 3a7,Closed,30211796  summer st
4063,CDM,IQVIA,471101,201,1-1OXW09Y,Canada,inspiration research limited,toronto,ontario,m5t 2s8,Dropped,399 bathurst streetsuite 1e425
16351,CDM,PPD,HGT-FIR-096,1-152GBG,,Canada,canadian heart research centre,ontario,toronto,m2j 0b5,Disqualified,259 yorkland road
34791,CDM,PPD,TMX-67_301,1-4GYRYL,,Canada,niagara peninsula arthritis center,ontario,st catharines,l2n 7e4,Disqualified,2 lakeshore road
26600,CDM,PPD,SHP465-307,1-19H6R6J,,Canada,universit� de montr�al pavillon rogergaudry,quebec,montréal,h3c 3j7,Disqualified,cp 6128 succursale centreville
12273,CDM,PPD,C16021,1-Y08DJL,,Canada,ciusssdel’estdel’îledemontréal,quebec,montreal,h1t 2m4,Disqualified,5415 boulevard de lassomption
10226,CDM,PPD,C16017,1-FRLK0Y,,Canada,centre hospitalier universitaire de quebec,quebec,quebec city,g1j 1z4,Disqualified,1401 18ieme rue
