SR_NUM,SOURCE_IDENTIFIER,DATA_SOURCE_NAME,PROTOCOL_NUMBER,SITE_NUM,UNIQUE_SITE_ID,COUNTRY,SITE_NAME,STATE,CITY,POSTAL_CODE,SITE_STATUS,rnum,CONCAT_ADDRESS
19969,CDM,IQVIA,Vedolizumab-4014,58071,1-351C1RD,United_States,florida research network llc,gainesville,florida,32605,,4911,6800 nw 9th blvdsuite 1
19970,CDM,PPD,C16014,1-E46RF,,United_States,gainsville hematology oncology associates,florida,gainesville,32605,,4912,1147 northwest 64th terracesuite 160
19971,CDM,PPD,C16021,1-8K3ATZ,,United_States,robert r carroll md pa,florida,gainesville,32605,,4913,6400 west newberry roadsuite 206
19973,CDM,PPD,SHP647-305,1-1119KPQ,,United_States,southeastern integrated medical,florida,gainesville,32607,,4915,4343 west newberry roadsuite 17
19975,CDM,PPD,TAK-071-2002,1-65R9SDE,,United_States,university of florida center for movement disorders  neurorestoration,florida,gainesville,32607,,4917,3450 hull road4th floor
19976,CDM,PPD,SHP620-303,1-169WTFX,,United_States,ufshands health shands cancer hospital,florida,gainesville,32608,,4918,1515 southwest archer roadnephrology
19986,CDM,PPD,SHP607-202,1-15MY47Y,,United_States,university of florida,florida,gainesville,326081136,,4928,2000 southwest archer road
19987,CDM,PPD,Brigatinib-1003,1-6185EA3,,United_States,pediatric sarcoma center at the university of florida,florida,gainesville,32610,,4929,1600 southwest archer road
19989,CDM,IQVIA,261203,113,1-1X5XPJI,United_States,uf health shands hospital,gainesville,florida,32610,,4931,1600 sw archer rd
19990,CDM,PPD,Pevonedistat-3001,1-16PZHR8,,United_States,ufshands health shands cancer hospital,florida,gainesville,32610,,4932,1600 southwest archer roaddepartment of medicinepo box 100278
19991,CDM,PRA,SYR-322_309,58029,1-1FJWY3D,United_States,university of florida,fl,gainesville,32610,,4933,1699 southwest 16th avenue
20000,CDM,IQVIA,241302,004,1-1YONIZR,United_States,university of florida,gainsville,florida,32610,,4942,1600 sw archer roadpo box 10278
20001,CDM,IQVIA,241501,143,1-4AX5RK8,United_States,university of florida  shands,gainesville,florida,32610,,4943,1601 sw archer road rm hd204po box 100298
20002,CDM,IQVIA,TED-R13-002,0549,1-2ZND8BP,United_States,university of florida college of medicine,gainesville,florida,32610,,4944,1600 sw archer rdbox 100296
20007,CDM,PPD,SHP465-308,136,,United_States,altamonte pediatrics,florida,altamonte springs,32701,,4949,475 osceola street
20008,CDM,PPD,SHP647-306,1-25R0VY4,,United_States,digestive disease consultants orlando,florida,altamonte springs,32701,,4950,623 maitland avenuesuite 201
20015,CDM,PPD,SHP647-305,1-24QTFMU,,United_States,the gastroenterology group,florida,altamonte,32714,,4957,205 loraine drive
20022,CDM,PPD,SHP647-305,1-XZL2L0,,United_States,avail clinical research llc,florida,deland,32720,,4964,860 peachwood drive
20024,CDM,PPD,SHP647-304,1-166YDU2,,United_States,center for advanced gastroenterology,florida,maitland,32751,,4966,1101 north maitland avenue
20031,CDM,IQVIA,Vedolizumab-4014,58021,1-2VT531A,United_States,cfagi llc,maitland,florida,32751,,4973,740 south concourse pkwy suite 200
20032,CDM,PPD,TAK-079-1005,58502,,United_States,neurology associates pa,florida,maitland,32751,,4974,301 north maitland avenueresearch departmentsuite a1
20033,CDM,PPD,TAK-981-1502,1-7MSD5J4,,United_States,florida cancer specialists  south  scri  ppds,florida,orange city,32763,,4975,765 image waysuite 200
20034,CDM,PPD,SHP465-308,1-1S4V8GN,,United_States,medical research of central florida  clinedge  ppds,florida,orange city,32763,,4976,2725 rebecca lane
20035,CDM,PPD,C16029,58008,,United_States,mid florida hematology and oncology centers pa,florida,orange city,32763,,4977,2776 enterprise roadsuite 100
20036,CDM,PPD,C16019,1-CJ0OTP,,United_States,mid florida hematology and oncology centers pa,florida,orange county city,32763,,4978,2276 enterprise roadresearch department
20038,CDM,PPD,SHP647-305,1-1113FD7,,United_States,international clinical research us llc,florida,sanford,32771,,4980,819 east 1st streetsuite 6
20040,CDM,IQVIA,TAK-883-3001,107,1-4UK4U7W,United_States,florida pulmonary research institute llc,winter park,florida,32789,,4982,1788 west fairbanks avenuesuite b
20043,CDM,PPD,SHP647-304,1-163URTV,,United_States,shafran gastroenterology center,florida,winter park,32789,,4985,601 west morse boulevard
20054,CDM,PPD,SHP647-302,1-18KBGUL,,United_States,research institute of central florida llc,florida,winter park,32792,,4996,2830 casa aloma way
20056,CDM,PPD,C16021,1-8IVGA0,,United_States,space coast medical associates,florida,titusville,32796,,4998,490 north washington
19559,CDM,PPD,SHP611-201,1-37RF581,,United_States,emory university school of medicine,georgia,atlanta,30322,,4501,615 michael streetsuite 301
19560,CDM,IQVIA,281102,024,1-2TUYIKA,United_States,winship cancer institute,atlanta,georgia,30322,,4502,1365c clifton rd ne
19561,CDM,PRA,AP32788-15-101,252,1-1K3BR0A,United_States,winship cancer institute,ga,atlanta,30322,,4503,1365 clifton road northeastsuite c5090
19564,CDM,PPD,TAK-981-1503,58006,,United_States,winship cancer institute emory university,georgia,atlanta,30322,,4506,1365  clifton road northeastinvestigational drug service
19565,CDM,PPD,TAK-007-2001,1-6ZX3V2O,,United_States,winship cancer institute emory university,georgia,atlanta,30322,,4507,1365 clifton rd ne
19577,CDM,PPD,SHP620-303,042,,United_States,emory university,georgia,atlanta,303220001,,4519,101 woodruff circlewoodruff memorial research building department of neusuite 2101
19584,CDM,PPD,MLN0002-3024,1-7JU6M4N,,United_States,emory childrens  pediatric research center,georgia,atlanta,303221014,,4526,2015 upper gate dr
19585,CDM,IQVIA,AskBio009-101,04,1-1FHAHNV,United_States,emory university school of medicine,atlanta,georgia,30324,,4527,2015 uppergate drsuite w340b
19586,CDM,IQVIA,TAK-101-2001,58006,1-4Z3EV7H,United_States,agile clinical research trials,atlanta,georgia,30328,,4528,750 hammond drbldg 2 suite 100
19588,CDM,PPD,SHP647-305,1-Y0ZAOA,,United_States,mount vernon clinical research llc  m3 wr  ern  ppds,georgia,sandy springs,30328,,4530,755 mount vernon highway
19590,CDM,IQVIA,TAK-994-1501,58004,1-4QCYHFN,United_States,neurotrials research inc,atlanta,georgia,30328,,4532,5887 glenridge drivesuite 400
19593,CDM,IQVIA,161503,120,1-307QFNG,United_States,emory healthcare,atlanta,georgia,30329,,4535,1400 tullie road ne
19594,CDM,PPD,SHP634-404,1-1PEFHUR,,United_States,emory university,georgia,atlanta,30329,,4536,12 executive park drive northeastdepartment of neurology
19597,CDM,IQVIA,TAK-831-2002,58002,1-45LSM4H,United_States,atlanta center for medical research,atlanta,georgia,30331,,4539,501 fairburn road sw
19598,CDM,PPD,SHP647-301,1-XFSJ2D,,United_States,alta pharmaceutical research center inc,georgia,dunwoody,30338,,4540,4553 north shallowford road
19600,CDM,PPD,SHP465-308,154,,United_States,atlanta behavioral research llc  clinedge  ppds,georgia,atlanta,30338,,4542,2150 peachford rd
19601,CDM,IQVIA,MLN0002SC-3031,58081,1-21HM3S8,United_States,atlanta gastroenterology associates,atlanta,georgia,30342,,4543,5671 peachtree dunwoody road nesuite 512
19611,CDM,PPD,Pevonedistat-2001,1-D8ZX5Q,,United_States,blood and marrow transplant group of georgia at northside hospital clinic,georgia,atlanta,30342,,4553,5670 peachtree dunwoody road
19613,CDM,PPD,C16029,1-YFEFM7,,United_States,blood marrow transplant group of georgia at northside hospital atlanta,georgia,atlanta,30342,,4555,1000 johnson ferry road
19617,CDM,PPD,SHP621-303,303-117,,United_States,childrens center for digestive healthcare,georgia,atlanta,30342,,4559,993 f johnson ferry road northeast  research directorchildrens center for digestive health
19620,CDM,PRA,Vedolizumab-2005,58005,1-1BUWNKC,United_States,childrens center for digestive healthcare,ga,atlanta,30342,,4562,993d johnson ferry roadsuite 440
19622,CDM,PPD,SHP647-301,1-ZGHKCB,,United_States,gastroenterology north georgia,georgia,atlanta,30342,,4564,960 johnson ferry roadsuite 515
19624,CDM,PPD,C16014,1-HCHW3,,United_States,georgia cancer specialists,georgia,sandy springs,30342,,4566,1100 johnson ferry road
19627,CDM,PPD,MLN0002-3025,3025-58002,,United_States,childrens center for digestive healthcare,georgia,atlanta,303421602,,4569,993d johnson ferry rd fl 4
19629,CDM,PPD,SHP647-306,1-25R0VTE,,United_States,gastroenterology consultants pc  sandy springsatlanta office,georgia,atlanta,303421786,,4571,5669 peachtree dunwoody roadgastroenterology consultants pcsuite 270
19636,CDM,PPD,SHP647-305,1-14HUSI7,,United_States,jpf clinical research,georgia,east point,30344,,4578,1151 cleveland avenued
19643,CDM,PPD,Pevonedistat-1016,1-3LL4R8M,,United_States,sarah cannon research institute,georgia,atlanta,303847816,,4585,po box 277816suite 110
19644,CDM,PPD,SHP647-305,1-24SWYYF,,United_States,gastroenterology institute,georgia,statesboro,30458,,4586,114 hill pond lane
19651,CDM,PPD,SHP647-301,1-ZVCYDU,,United_States,gastroenterology associates of gainesville pc  elligo  ppds,georgia,gainesville,30501,,4593,2324 limestone  overlook
19653,CDM,PPD,SHP465-308,121,,United_States,buford family practice research  iact  ppds,georgia,buford,30519,,4595,2805 hamilton mill road
19654,CDM,PPD,SHP647-305,1-ZK0ODI,,United_States,athens gastroenterology association,georgia,athens,30607,,4596,3320 old jefferson roadsuite 400
19656,CDM,PPD,TAK-079-1004,1-5QGG683,,United_States,hematology and oncology of northeast georgia,georgia,athens,30607,,4598,3320 old jefferson roadathens pulmonary critical care and sleep medicine building 200
19658,CDM,PPD,C16021,1-8IWLZ9,,United_States,northeast georgia cancer care llc,georgia,athens,30607,,4600,3320 old jefferson roadbuilding 700
19661,CDM,PRA,Brigatinib-3001,58010,1-1L8CLV5,United_States,university cancer and blood center,ga,athens,30607,,4603,clarke county medical oncology clinic3320 old jefferson roadbuilding 700
19662,CDM,PPD,NSMM-5001,1-LE53Y5,,United_States,university cancer and blood center llc,georgia,athens,30607,,4604,3320 old jefferson roadbuilding 700
19666,CDM,PPD,SHP647-305,1-114L1JH,,United_States,gastroenterology consultants of augusta,georgia,evans,30809,,4608,393 north belair road
19668,CDM,PPD,SHP647-307,1-26COL8Q,,United_States,university hospital,georgia,evans,30809,,4610,465 north belair roadmedical building 3 suite 2b
19675,CDM,PPD,C16029,1-YQMMJT,,United_States,augusta oncology,georgia,augusta,30901,,4617,1348 walton way
19677,CDM,PPD,C16029,1-YQMPDF,,United_States,medical oncology associates of augusta,georgia,augusta,30901,,4619,1340 walton waysuite 6700
19679,CDM,PPD,SHP647-305,1-ZWUDA3,,United_States,gastroenterology consultants of augusta,georgia,augusta,309012637,,4621,820 saint sebastian way
19681,CDM,IQVIA,TAK-831-2002,58018,1-4CQU61M,United_States,augusta university,augusta,georgia,30912,,4623,1120 15th star 0117
19682,CDM,PPD,C16021,1-8INZ1W,,United_States,augusta university,georgia,augusta,30912,,4624,1120 15th streetsuite c1152
19697,CDM,PRA,Ponatinib-3001,58018,1-1MQFDAO,United_States,augusta university georgia cancer center,ga,augusta,30912,,4639,1411 laney walker boulevard
19699,CDM,PPD,C16014,1-F0YGY,,United_States,georgia health sciences university,georgia,augusta,30912,,4641,1423 harper streetwomens health research center
19700,CDM,PPD,SHP607-202,1-15NMQQR,,United_States,medical college of georgia,georgia,agusta,30912,,4642,1120 15th street
19704,CDM,PPD,TAK-981-1502,1-6TY38C3,,United_States,georgia cancer center at augusta university,georgia,augusta,309120002,,4646,1411 laney walker blvdgeorgia cancer center section of gynecologic oncologycn4327
19707,CDM,PPD,TAK-981-1503,1-COG9XV1,,United_States,augusta university,georgia,augusta,309120020,,4649,1447 harper st
19712,CDM,PPD,C16029,1-YQM99V,,United_States,central georgia cancer care,georgia,macon,31201,,4654,1062 forsyth streetsuite c1
19716,CDM,IQVIA,MLN0002SC-3030,58004,1-262JKE6,United_States,gastroenterology associates of central georgia,macon,georgia,31201,,4658,610 third streetsuite 204
19718,CDM,PPD,VDZ-5034,58036,,United_States,gastroenterology associates of central georgia llc,georgia,macon,31201,,4660,610 3rd streetsuite 204
19724,CDM,PPD,SHP647-307,1-26COL9R,,United_States,georgia gastroenterology center,georgia,macon,31201,,4666,1014 forsyth streetsuite 300
19732,CDM,PPD,P2002,1-5IZUHMX,,United_States,memorial university medical center,georgia,savannah,31404,,4674,4700 waters avenuecurtis and elizabeth anderson cancer institute
19733,CDM,PPD,C16014,1-AQTJD,,United_States,st josephs candler health system inc,georgia,savannah,31405,,4675,5353 reynolds streetsuite 300
19734,CDM,PPD,TAK-788-2001,1-74VG4LE,,United_States,summit cancer care pc,georgia,savannah,31405,,4676,225 candler drive
19737,CDM,PPD,TAK-007-2001,1-7EY4W13,,United_States,icahn school of medicine at mount sinai,new york,new york,31406,,4679,1470 madison avenue3rd floor
19738,CDM,IQVIA,Vedolizumab-4014,58061,1-2YN2QON,United_States,meridian clinical research llc,savannah,georgia,31406,,4680,340 eisenhower drsuite 1200
19739,CDM,PPD,C16027,1-RZRR8S,,United_States,mount sinai medical center,new york,new york,31406,,4681,1470 madison avenue
19744,CDM,PPD,TAK-071-2002,1-B8T8JBL,,United_States,meridian clinical researchsavannah georgia  platinum  ppds,georgia,savannah,314062778,,4686,6602 waters ave bldg c
19745,CDM,IQVIA,161503,123,1-38IJQWS,United_States,georgia pollens clinical research centers inc,albany,georgia,31707,,4687,105 spanish court
19747,CDM,PPD,SHP647-305,1-Y0ZAUE,,United_States,columbus regional research institute at talbotton  iact  ppds,georgia,columbus,31904,,4689,800 talbotton roadsuite 400
19755,CDM,PPD,SHP647-301,1-203PC0G,,United_States,gastrointestinal diseases inc research  iact ppds,georgia,columbus,31904,,4697,1130 talbotton rd
19762,CDM,PPD,SHP647-306,1-1J8R8FZ,,United_States,gastrointestinal diseases inc research  iact ppds,georgia,columbus,31904,,4704,1130 talbotton roadsuite 400
19769,CDM,PPD,C16021,1-8JF3QX,,United_States,john b amos cancer center research  iact  ppds,georgia,columbus,31904,,4711,1831 5th avenue
19770,CDM,PRA,SYR-322_309,58003,1-1ENE1NG,United_States,endocrine consultants research,ga,columbus,319044501,,4712,2425 brookstone centre parkway
19771,CDM,PRA,C16047,58129B,1-1LZ8XDM,United_States,florida cancer specialists,fl,fleming island,32003,,4713,4689 us highway 17suite 2
19772,CDM,PPD,C16021,1-8INYY2,,United_States,cancer care of north florida,florida,lake city,32024,,4714,289 southwest stonegate terracesuite 103
19775,CDM,IQVIA,Vedolizumab-4014,58034,1-2WGWYQX,United_States,sarkis clinical trials  parent,lake city,florida,32055,,4717,611 nw 60th street
19776,CDM,PPD,C16014,1-LOPYZ,,United_States,cancer specialists of north florida san marco,florida,orange county park,32073,,4718,2161 kingsley avenuesuite 560
19778,CDM,PPD,TAK-079-1005,1-5D85A7L,,United_States,neurologique foundation,florida,ponte vedra beach,320824040,,4720,6 fairfield boulevard azalea office parksuite 11
19779,CDM,IQVIA,Vedolizumab-4014,58043,1-2VV1YVY,United_States,east coast institute for research at baker gilmour cardiovascular institute,st augustine,florida,32086,,4721,216 southpark circle east
19780,CDM,PPD,SHP647-304,304-362,,United_States,east coast institute for research llc,florida,saint augustine,32086,,4722,201 health park boulevardsuite 105
19789,CDM,PPD,SHP647-302,1-21RD2VR,,United_States,gastroenterology associates of st augustine,florida,st augustine,32086,,4731,216 southpark circle east
19796,CDM,IQVIA,TAK-743-1002,103,1-53R271K,United_States,cardiology associates research company,daytona beach,florida,32117,,4738,305 memorial medical parkwaysuite 301
19797,CDM,PPD,SHP647-305,1-1081XGA,,United_States,ormond beach clinical research,florida,daytona beach,32117,,4739,305 memorial medical parkwaysuite 301
19799,CDM,PPD,SHP647-302,1-4GAXJ6S,,United_States,advanced gastroenterology and endoscopy center,florida,port orange county,32127,,4741,1690 dunlawton avenue
19806,CDM,PRA,TAK-906-2002,58025,1-1JYHX9F,United_States,advanced medical research center,fl,port orange,32127,,4748,1690 dunlawton avenuesuite 110
19808,CDM,IQVIA,AD-4833-TOMM40_303,5021,1-1F6LWTE,United_States,progressive medical research,port orange,fl,32127,,4750,5111 ridgewood avesuite 200
19810,CDM,PPD,SHP621-301,301-108,,United_States,accord clinical research llc,florida,port orange,32129,,4752,3635 south clyde morris boulevardsuite 800
19811,CDM,PPD,SHP647-305,1-XZO9NG,,United_States,encore borlandgroover clinical research  ern  ppds,florida,port orange,32129,,4753,3635 s clyde morris boulevard
19813,CDM,PPD,SHP647-306,1-1ZFJQI0,,United_States,riverside clinical research,florida,edgewater,32132,,4755,1410 south ridgewood avenue
19822,CDM,PPD,TAK-071-2002,1-FVDJ5UV,,United_States,charter research,florida,lady lake,32159,,4764,757 county road 466
19823,CDM,PRA,TAK-906-2002,58078,1-1RHVGRU,United_States,synexus clinical research  the villages,fl,the villages,32162,,4765,3201 wedgewood lane
19824,CDM,PPD,SHP647-305,1-43HYM3E,,United_States,nsb research,florida,new smyrna beach,32168,,4766,308 palmetto street
19831,CDM,PPD,SHP647-301,1-1117TQE,,United_States,united medical research,florida,new smyrna beach,32168,,4773,612 palmetto street
19833,CDM,PPD,C16014,1-F3TPD,,United_States,florida hospital cancer institute,florida,ormond beach,32174,,4775,873 sterthaus avenuedepartment of oncology
19834,CDM,PPD,SHP647-305,1-Y22BYK,,United_States,gastroenterology consultants,florida,ormond beach,32174,,4776,300 clyde morris boulevard
19836,CDM,PPD,TAK-079-2001,58007,,United_States,millennium research,florida,ormond beach,32174,,4778,1545 hand avenuesuite 301
19837,CDM,PPD,TAK-071-2002,1-65R9SDQ,,United_States,neurology associates of ormond beach,florida,ormond beach,32174,,4779,8 mirror lake drivesuite a
19838,CDM,PPD,SHP647-305,1-ZGYDVK,,United_States,digestive disease consultants pa,florida,jacksonville,32204,,4780,2151 riverside avenue
19840,CDM,PPD,SHP647-305,1-114LI8I,,United_States,westside center for clinical research  ern  ppds,florida,jacksonville,32205,,4782,810 lane avenue south
19842,CDM,PPD,TAK-079-1004,1-5QGG5ZS,,United_States,21st century oncology,florida,jacksonville,32207,,4784,820 prodential driveresearch and educationsuite 601
19843,CDM,PPD,C16029,1-Y4IEVS,,United_States,baptist  md anderson cancer center,florida,jacksonville,32207,,4785,1235 san marco boulevard
19845,CDM,PPD,C16021,1-8JW0CO,,United_States,baptist cancer institute,florida,jacksonville,32207,,4787,1235 san marco boulevardresearch and educationsuite 601
19846,CDM,PPD,C16014,58086,,United_States,baptist cancer institute,florida,jacksonville,32207,,4788,1235 san marco boulevard
19848,CDM,PRA,Vedolizumab-2005,58024,1-1DV0K4K,United_States,nemours childrens specialty care  jacksonville,fl,jacksonville,32207,,4790,807 childrens way
19851,CDM,PPD,SHP607-202,1-15NMR2N,,United_States,university of florida,florida,jacksonville,32209,,4793,655 west 8th street
19852,CDM,PPD,C16029,1-YQM94K,,United_States,university of florida college of medicine jacksonville,florida,jacksonville,32209,,4794,555 west 8th street
19857,CDM,IQVIA,TAK-994-1501,58023,1-4RCE6BR,United_States,jacksonville center for clinical research,jacksonville,florida,32216,,4799,4085 university boulevard southsuite 1
19859,CDM,PPD,SHP647-305,1-1119KMD,,United_States,jacksonville center for clinical research  ernppds,florida,jacksonville,32216,,4801,4085 university boulevard southsuite 1
19862,CDM,PPD,SHP647-305,1-111235P,,United_States,southeast clinical research llc,florida,jacksonville,32216,,4804,6817 southpoint parkwaysuite 902
19864,CDM,PRA,TAK-906-2002,58030,1-1JYIVEF,United_States,mayo clinic,fl,jacksonville,32224,,4806,4500 san pablo road
19867,CDM,PPD,MLN0002-3024,1-7JU6LYF,,United_States,mayo clinic  ppds,florida,jacksonville,32224,,4809,4500 san pablo roadnci designated comprehensive cancer center
19868,CDM,PPD,Pevonedistat-2001,1-D902EW,,United_States,mayo clinic  ppds,florida,jacksonville,32224,,4810,4500 san pablo road
19874,CDM,PPD,TAK-079-1005,1-5D85A8A,,United_States,mayo clinic jacksonville  ppds,florida,jacksonville,32224,,4816,4500 san pablo roaddepartment of dermatology3rd floor
19876,CDM,PPD,Pevonedistat-1016,1-3M8FDVP,,United_States,mayo clinic jacksonville  ppds,florida,jacksonville,32224,,4818,4500 san pablo road
19879,CDM,PPD,TAK-007-2001,58013,,United_States,mayo clinic jacksonville  ppds,florida,jacksonville,32224,,4821,4500 san pablo roadnci designated comprehensive cancer center
19886,CDM,PPD,P2002,1-5J5URNS,,United_States,cancer specialists of north florida roberts  usor,florida,jacksonville beach,32250,,4828,1375 roberts drivesuite 560
19887,CDM,PPD,SHP647-306,1-18K8OOZ,,United_States,clinical neuroscience solutions inc,florida,jacksonville,32256,,4829,5200 belfort road
19893,CDM,IQVIA,SPD503-401,701,1-4NJH5VH,United_States,clinical neuroscience solutions inc,jacksonville,florida,32256,,4835,5200 belfort rdsuite 420
19894,CDM,PPD,SHP647-306,1-15OFKX0,,United_States,encore borlandgroover clinical research  ern  ppds,florida,jacksonville,32256,,4836,4800 belfort road
19903,CDM,ICON,C25003,,86961,United_States,integrated community oncology network,florida,jacksonville,32256,,4845,7015 ac skinner parkway
19904,CDM,PPD,SHP647-305,1-ZUUUQK,,United_States,digestive disease clinic,florida,tallahassee,32308,,4846,2400 miccosukee road
19906,CDM,PRA,C16047,58129A,1-1LZ6F22,United_States,florida cancer specialists,fl,tallahassee,32308,,4848,2626 car drivesuite 200
19907,CDM,PPD,SHP647-305,1-YBB3BL,,United_States,gi associates of tallahassee,florida,tallahassee,32308,,4849,2457 care drivesuite d100
19909,CDM,PRA,C16047,58129,1-1KDIW91,United_States,scri  florida cancer specialists  panhandle,fl,tallahasse,32308,,4851,1600 phillips roadsuite 300
19910,CDM,PPD,C16029,1-10NUR6F,,United_States,tallahassee memorial hospital,florida,tallahassee,32308,,4852,1775 healing place
19911,CDM,PPD,SHP647-301,1-204S389,,United_States,emerald coast gastroenterology,florida,panama city,32405,,4853,2202 state avenue
19918,CDM,PPD,SHP647-307,1-167O6D9,,United_States,emerald coast research associates normal ,florida,panama city,32405,,4860,221 east 23rd streetsuite c
19925,CDM,PPD,SHP647-305,1-1113F11,,United_States,mariusz jerzy klin md,florida,panamá,32405,,4867,2905 highway 77
19932,CDM,PPD,SHP647-305,1-1113EZD,,United_States,panama clinical research associates,florida,lynn haven,32444,,4874,1000 ohio avenue
19934,CDM,PPD,TAK-951-2001,1-70OOVK2,,United_States,baptist healthcare,florida,pensacola,32501,,4876,1000 west moreno street
19935,CDM,PPD,SHP647-307,1-26B8BSV,,United_States,gastroenterology associates  baptist division,florida,pensacola,32501,,4877,1717 north e streetsuite 308
19942,CDM,PRA,C16038,10012,1-1I8KUCQ,United_States,woodlands medical specialists  pensacola,fl,pensacola,32503,,4884,4724 north davis highway
19943,CDM,PPD,SHP647-305,1-ZWXR7Q,,United_States,gastroenterology consultants pa,florida,pensacola,32504,,4885,5147 n 9th avenuesuite 311suite 201
19945,CDM,PPD,SHP620-303,1-TIF9CF,,United_States,pensacola healthcare center,florida,pensacola,32504,,4887,4300 bayou boulevardsuite 305
19946,CDM,PPD,TAK-951-2001,1-70MN819,,United_States,sacred heart hospital,florida,pensacola,32504,,4888,5151 north 9th avenue
19947,CDM,PPD,C16029,1-Y4IES6,,United_States,sacred heart medical oncology group,florida,pensacola,32504,,4889,1545 airport boulevardsuite 2000
19948,CDM,PPD,Brigatinib-1002,1-618BAUS,,United_States,the studer family childrens hospital at sacred heart,florida,pensacola,32504,,4890,5151 north 9th avenue
19950,CDM,PPD,TAK665-4003,1-GO0XDDJ,,United_States,nemours children’s specialty care jacksonville,florida,pensacola,325048785,,4892,5153 n 9th ave
19951,CDM,PPD,SHP647-305,1-10B2OQH,,United_States,gulf region clinical research institute,florida,pensacola,32514,,4893,8333 north davis highway
19953,CDM,PPD,C16014,1-AHP4O,,United_States,university of florida,florida,gainsville,32603,,4895,1600 southwest archer roadacademic research building 201 university of flordia division of hematologyoncology
19954,CDM,PPD,SHP647-303,1-246IKUT,,United_States,digestive disease associates,florida,gainesville,32605,,4896,6400 west newberry road
19961,CDM,PPD,SHP647-307,1-1670W0J,,United_States,florida medical research,florida,gainesville,32605,,4903,6400 west newberry roadsuite 17
19966,CDM,PPD,SHP647-305,1-XEW9SK,,United_States,florida research network llc,florida,gainesville,32605,,4908,6800 northwest 9th boulevardsuite 17
