SR_NUM,COUNTRY,POSTAL_CODE,SITE_NAME,STATE,CITY,COUNTY_NAME,PHONE_NUM,SITE_TYPE,SITE_OWNERSHIP,ACCOUNT_NUM,CONCAT_ADDRESS
102400,USA,80810,keefe memorial hospital,co,cheyenne wells,CHEYENNE,(719) 767-5661,Critical Access Hospitals,Government - Hospital District or Authority,79889,602 n 6thw st
102401,USA,80821,lincoln community hospital,co,hugo,LINCOLN,(719) 743-2421,Critical Access Hospitals,Voluntary non-profit - Other,71500,111 6th st
102402,USA,80863,uchealth pikes peak regional hospital,co,woodland park,TELLER,(719) 687-9999,Critical Access Hospitals,Voluntary non-profit - Private,12734,16420 westhighway 24
102403,USA,80918,uchealth grandview hospital,co,colorado springs,EL PASO,(719) 272-3623,Acute Care Hospitals,Voluntary non-profit - Private,50790,5623 pulpit peak view
102404,USA,80923,peak view behavioral health,co,colorado springs,EL PASO,(719) 444-8484,Psychiatric,Proprietary,39065,7353 sisters grove
102405,USA,81003,parkview medical center inc,co,pueblo,PUEBLO,(719) 584-4000,Acute Care Hospitals,Voluntary non-profit - Private,29430,400 w 16thst
102406,USA,81004,centura healthst mary corwin medical center,co,pueblo,PUEBLO,(719) 557-4000,Acute Care Hospitals,Voluntary non-profit - Church,18909,1008 minnequa ave
102407,USA,81073,southeast colorado hospital,co,springfield,BACA,(719) 523-4501,Critical Access Hospitals,Government - Hospital District or Authority,90242,373 e tenth ave
102408,USA,81082,mt san rafael hospital,co,trinidad,LAS ANIMAS,(719) 846-9213,Critical Access Hospitals,Voluntary non-profit - Private,22023,410 benedicta ave
102409,USA,81089,spanish peaks regional health center,co,walsenburg,HUERFANO,(719) 738-5100,Critical Access Hospitals,Government - Hospital District or Authority,56475,23500 us hwy 160
102410,USA,81140,san luis valley health conejos county hospital,co,la jara,CONEJOS,(719) 274-5121,Critical Access Hospitals,Voluntary non-profit - Private,93013,19021 us highway 285
102411,USA,81201,heart of the rockies regional medical center,co,salida,CHAFFEE,(719) 530-2200,Critical Access Hospitals,Government - Hospital District or Authority,12630,1000 rushdr
102412,USA,81212,centura healthst thomas more hospital,co,canon city,FREMONT,(719) 285-2000,Critical Access Hospitals,Voluntary non-profit - Private,58836,1338 phayavenue
102413,USA,81321,southwest memorial hospital,co,cortez,MONTEZUMA,(970) 565-6666,Critical Access Hospitals,Voluntary non-profit - Private,33919,1311 n mildred rd
102414,USA,81401,montrose memorial hospital,co,montrose,MONTROSE,(970) 249-2211,Acute Care Hospitals,Voluntary non-profit - Private,93864,800 s 3rdst
102415,USA,81416,delta county memorial hospital,co,delta,DELTA,(970) 874-7681,Acute Care Hospitals,Government - Local,72839,1501 e 3rdst
102416,USA,81501,west springs hospital,co,grand junction,MESA,(970) 263-4918,Psychiatric,Voluntary non-profit - Private,92276,515 28 34rd
102417,USA,81505,community hospital,co,grand junction,MESA,(970) 256-6201,Acute Care Hospitals,Voluntary non-profit - Private,29185,2351 g road
102418,USA,81601,valley view hospital association,co,glenwood springs,GARFIELD,(970) 945-6535,Acute Care Hospitals,Voluntary non-profit - Private,10477,1906 blakeave
102419,USA,81641,pioneers medical center,co,meeker,RIO BLANCO,(970) 878-5047,Critical Access Hospitals,Government - Hospital District or Authority,24960,100 pioneers medicalcenter dr
102420,USA,81648,rangely district hospital,co,rangely,RIO BLANCO,(970) 675-5011,Critical Access Hospitals,Government - Hospital District or Authority,61421,225 eaglecrest st
102421,USA,82240,community hospital,wy,torrington,GOSHEN,(307) 532-4181,Critical Access Hospitals,Voluntary non-profit - Private,86763,2000 campbell drive
102422,USA,82301,memorial hospital of carbon county,wy,rawlins,CARBON,(307) 324-2221,Critical Access Hospitals,Government - Local,36273,2221 westelm street
102423,USA,82401,washakie medical center,wy,worland,WASHAKIE,(307) 347-3221,Critical Access Hospitals,Government - Local,38703,400 south15th street
102424,USA,82414,cody regional health,wy,cody,PARK,(307) 578-2488,Critical Access Hospitals,Government - Hospital District or Authority,52468,707 sheridan avenue
102425,USA,82435,powell valley hospital,wy,powell,PARK,(307) 754-2267,Critical Access Hospitals,Government - Hospital District or Authority,45576,777 avenueh
102426,USA,82443,hot springs county memorial hospital,wy,thermopolis,HOT SPRINGS,(307) 864-3121,Critical Access Hospitals,Government - Local,58201,150 east arapahoe
102427,USA,82501,sagewest health care,wy,riverton,FREMONT,(307) 856-4161,Acute Care Hospitals,Proprietary,29528,2100 w sunset dr
102428,USA,82609,summit medical center,wy,casper,NATRONA,(307) 232-6600,Acute Care Hospitals,Physician,24198,6350 e 2ndstreet
102429,USA,82609,wyoming behavioral institute,wy,casper,NATRONA,(307) 237-7444,Psychiatric,Proprietary,74211,2521 east15th street
102430,USA,82701,weston county health services,wy,newcastle,WESTON,(307) 746-4491,Critical Access Hospitals,Government - Hospital District or Authority,50462,1124 washington boulevard
102431,USA,82729,crook county hospital,wy,sundance,CROOK,(307) 283-3501,Critical Access Hospitals,Government - Hospital District or Authority,33637,713 oak street
102432,USA,82901,aspen mountain medical center,wy,rock springs,SWEETWATER,(307) 448-2758,Acute Care Hospitals,Proprietary,86439,4401 college drive
102434,USA,82931,wyoming state hospital,wy,evanston,UINTA,(307) 789-3464,Psychiatric,Government - State,67218,831 hwy 150 south
102435,USA,83001,st johns medical center,wy,jackson,TETON,(307) 733-3636,Acute Care Hospitals,Government - Hospital District or Authority,59667,625 east broadway
102436,USA,83110,star valley medical center,wy,afton,LINCOLN,(307) 885-5800,Critical Access Hospitals,Government - Hospital District or Authority,93939,901 adamsstreet
102437,USA,83201,portneuf medical center,id,pocatello,BANNOCK,(208) 239-1000,Acute Care Hospitals,Proprietary,81914,777 hospital way
102438,USA,83213,lost rivers medical center,id,arco,BUTTE,(208) 252-7654,Critical Access Hospitals,Government - Hospital District or Authority,38158,551 highland drive
102439,USA,83221,bingham memorial hospital,id,blackfoot,BINGHAM,(208) 785-3804,Critical Access Hospitals,Voluntary non-profit - Private,45390,98 poplarstreet
102440,USA,83221,grove creek medical center,id,blackfoot,BINGHAM,(208) 782-2900,Acute Care Hospitals,Voluntary non-profit - Private,14317,350 northmeridian street
102441,USA,83254,bear lake memorial hospital,id,montpelier,BEAR LAKE,(208) 847-1630,Critical Access Hospitals,Government - Local,18026,164 southfifth street
102442,USA,83330,north canyon medical center,id,gooding,GOODING,(208) 934-4433,Critical Access Hospitals,Voluntary non-profit - Private,54257,267 northcanyon dr
102443,USA,83338,st lukes jerome,id,jerome,JEROME,(208) 814-9500,Critical Access Hospitals,Voluntary non-profit - Private,72450,709 northlincoln avenue
102444,USA,83340,st lukes wood river medical center,id,ketchum,BLAINE,(208) 727-8800,Critical Access Hospitals,Voluntary non-profit - Private,62385,100 hospital drive
102445,USA,83467,steele memorial medical center,id,salmon,LEMHI,(208) 756-5600,Critical Access Hospitals,Government - Local,18577,203 southdaisy street
102446,USA,83501,st joseph regional medical center,id,lewiston,NEZ PERCE,(208) 799-5300,Acute Care Hospitals,Voluntary non-profit - Private,12353,415 sixthstreet
102447,USA,83530,syringa general hospital,id,grangeville,IDAHO,(208) 983-1700,Critical Access Hospitals,Government - Hospital District or Authority,92579,607 w mainstreet
102448,USA,83544,clearwater valley hospital  clinics,id,orofino,CLEARWATER,(208) 476-4555,Critical Access Hospitals,Voluntary non-profit - Private,60606,301 cedarstreet
102449,USA,83605,west valley medical center,id,caldwell,CANYON,(208) 459-4641,Acute Care Hospitals,Proprietary,76708,1717 arlington street
102450,USA,83617,valor health,id,emmett,GEM,(208) 365-3561,Critical Access Hospitals,Government - Local,89990,1202 eastlocust street
102451,USA,83638,st lukes mccall,id,burgdorf,VALLEY,(208) 630-2395,Critical Access Hospitals,Voluntary non-profit - Private,44518,1000 statestreet
102452,USA,83647,st lukes elmore medical center,id,mountain home,ELMORE,(208) 587-8401,Critical Access Hospitals,Voluntary non-profit - Private,48023,895 north6th east
102453,USA,83672,weiser memorial hospital,id,weiser,WASHINGTON,(208) 549-0370,Critical Access Hospitals,Government - Hospital District or Authority,51123,645 east 5th street
102454,USA,83687,saint alphonsus medical center  nampa,id,nampa,CANYON,(208) 205-0050,Acute Care Hospitals,Voluntary non-profit - Church,10676,4300 e flamingo ave
102455,USA,83687,st lukes nampa medical center,id,nampa,CANYON,(208) 505-2000,Acute Care Hospitals,Voluntary non-profit - Private,36325,9850 w stlukes drive ste 250
102456,USA,83704,intermountain hospital,id,boise,ADA,(208) 377-8400,Psychiatric,Proprietary,85487,303 northallumbaughstreet
102457,USA,83704,treasure valley hospital,id,boise,ADA,(208) 373-5000,Acute Care Hospitals,Proprietary,63165,8800 westemerald street
102458,USA,83805,boundary community hospital,id,bonners ferry,BOUNDARY,(208) 267-4850,Critical Access Hospitals,Voluntary non-profit - Other,82887,6640 kaniksu street
102459,USA,83814,kootenai health,id,coeur dalene,KOOTENAI,(208) 625-4000,Acute Care Hospitals,Government - Hospital District or Authority,13375,2003 kootenai healthway
102460,USA,83864,bonner general hospital,id,sandpoint,BONNER,(208) 263-1441,Critical Access Hospitals,Voluntary non-profit - Private,76986,520 norththird avenue
102461,USA,84003,american fork hospital,ut,american fork,UTAH,(801) 855-3305,Acute Care Hospitals,Voluntary non-profit - Private,39995,170 north1100 east
102462,USA,84010,lakeview hospital,ut,bountiful,DAVIS,(801) 299-2200,Acute Care Hospitals,Voluntary non-profit - Other,30700,630 east medical drive
102463,USA,84041,davis hospital and medical center,ut,layton,DAVIS,(801) 807-7001,Acute Care Hospitals,Proprietary,91463,1600 westantelope drive
102464,USA,84047,highland ridge hospital,ut,midvale,SALT LAKE,(801) 845-9544,Psychiatric,Proprietary,62814,7309 south180 west
102465,USA,84057,timpanogos regional hospital,ut,orem,UTAH,(801) 714-6800,Acute Care Hospitals,Proprietary,76830,750 west 800 north
102466,USA,84065,riverton hospital,ut,riverton,SALT LAKE,(801) 285-4000,Acute Care Hospitals,Voluntary non-profit - Private,26563,3741 west12600 south
102468,USA,84074,mountain west medical center,ut,tooele,TOOELE,(435) 843-3700,Acute Care Hospitals,Proprietary,61695,2055 northmain street
102469,USA,84094,alta view hospital,ut,sandy,SALT LAKE,(801) 501-2600,Acute Care Hospitals,Voluntary non-profit - Private,84543,9660 south1300 east
102470,USA,84102,salt lake regional medical center,ut,salt lake city,SALT LAKE,(801) 350-4111,Acute Care Hospitals,Proprietary,58775,1050 eastsouth temple
102471,USA,84106,salt lake behavioral health,ut,salt lake city,SALT LAKE,(801) 264-6035,Psychiatric,Proprietary,89930,3802 south700 east
102472,USA,84115,marian center,ut,salt lake city,SALT LAKE,(801) 468-6856,Psychiatric,Proprietary,35995,451 east bishop federal lane
102473,USA,84143,lds hospital,ut,salt lake city,SALT LAKE,(801) 408-1100,Acute Care Hospitals,Voluntary non-profit - Private,18269,8th avenueand c street
102474,USA,84341,cache valley hospital,ut,north logan,CACHE,(435) 713-9580,Acute Care Hospitals,Proprietary,93098,2380 north400 east
102475,USA,84501,castleview hospital,ut,price,CARBON,(435) 637-4800,Acute Care Hospitals,Proprietary,82452,300 northhospital drive
102477,USA,84532,moab regional hospital,ut,moab,GRAND,(435) 719-3500,Critical Access Hospitals,Voluntary non-profit - Private,49366,450 west williams way
102478,USA,84604,utah valley hospital,ut,provo,UTAH,(801) 373-7850,Acute Care Hospitals,Voluntary non-profit - Private,78656,1034 north500 west
102479,USA,84605,utah state hospital,ut,provo,UTAH,(801) 344-4400,Psychiatric,Government - State,75658,1300 eastcenter street
102480,USA,84624,delta community hospital,ut,delta,MILLARD,(435) 864-5591,Critical Access Hospitals,Proprietary,46697,126 southwhite sageavenue
102481,USA,84631,fillmore community hospital,ut,fillmore,MILLARD,(435) 743-5591,Critical Access Hospitals,Voluntary non-profit - Private,93447,674 southhighway 99
102482,USA,84648,central valley medical center  cah,ut,nephi,JUAB,(435) 623-3000,Critical Access Hospitals,Voluntary non-profit - Private,84161,48 west 1500 north
102483,USA,84651,mountain view hospital,ut,payson,UTAH,(801) 465-7100,Acute Care Hospitals,Proprietary,29086,1000 east100 north
102488,USA,85006,st lukes medical center,az,phoenix,MARICOPA,(602) 251-8156,Acute Care Hospitals,Proprietary,52690,1800 eastvan burenstreet
102491,USA,85008,valleywise health medical center,az,phoenix,MARICOPA,(602) 344-5011,Acute Care Hospitals,Government - Local,71447,2601 eastrooseveltstreet
102492,USA,85013,st josephs hospital and medical center,az,phoenix,MARICOPA,(602) 406-5001,Acute Care Hospitals,Voluntary non-profit - Church,66785,350 west thomas road
102493,USA,85015,core institute specialty hospital the,az,phoenix,MARICOPA,(602) 795-6020,Acute Care Hospitals,Physician,78622,6501 north19th avenue
102494,USA,85032,abrazo scottsdale campus,az,phoenix,MARICOPA,(602) 923-5000,Acute Care Hospitals,Proprietary,70883,3929 eastbell road
102495,USA,85120,banner goldfield medical center,az,apache junction,PINAL,(480) 733-3300,Acute Care Hospitals,Voluntary non-profit - Other,70902,2050 westsouthern avenue
102496,USA,85202,banner desert medical center,az,mesa,MARICOPA,(480) 412-3000,Acute Care Hospitals,Voluntary non-profit - Private,42068,1400 southdobson road
102497,USA,85206,arizona spine and joint hospital,az,mesa,MARICOPA,(480) 832-4770,Acute Care Hospitals,Physician,63645,4620 eastbaseline road
102498,USA,85206,banner baywood medical center,az,mesa,MARICOPA,(480) 321-2000,Acute Care Hospitals,Voluntary non-profit - Private,53299,6644 eastbaywood avenue
102499,USA,85209,mountain vista medical center lp,az,mesa,MARICOPA,(480) 358-6100,Acute Care Hospitals,Proprietary,39392,1301 southcrismon road
102500,USA,85225,oasis behavioral health hospital,az,chandler,MARICOPA,(480) 917-9301,Psychiatric,Proprietary,38122,2190 northgrace boulevard
102501,USA,85251,banner behavioral health hospital,az,scottsdale,MARICOPA,(480) 448-7500,Psychiatric,Voluntary non-profit - Private,89180,7575 eastearll drive
102502,USA,85251,scottsdale osborn medical center,az,scottsdale,MARICOPA,(480) 882-4004,Acute Care Hospitals,Proprietary,26270,7400 eastosborn road
102503,USA,85255,scottsdale thompson peak medical center,az,scottsdale,MARICOPA,(480) 324-7001,Acute Care Hospitals,Proprietary,49855,7400 eastthompson peak parkway
102504,USA,85283,aurora behavioral healthcaretempe,az,tempe,MARICOPA,(480) 345-5400,Psychiatric,Voluntary non-profit - Private,66265,6350 southmaple avenue
102505,USA,85297,mercy gilbert medical center,az,gilbert,MARICOPA,(480) 728-8000,Acute Care Hospitals,Voluntary non-profit - Church,57752,3555 southval vistadrive
102506,USA,85306,banner thunderbird medical center,az,glendale,MARICOPA,(602) 865-4470,Acute Care Hospitals,Government - Hospital District or Authority,70905,5555 westthunderbird road
102507,USA,85308,abrazo arrowhead campus,az,glendale,MARICOPA,(623) 561-1000,Acute Care Hospitals,Proprietary,20678,18701 north 67th avenue
102508,USA,85339,dignity health  arizona general hospital,az,laveen,MARICOPA,(623) 584-5100,Acute Care Hospitals,Proprietary,48892,7171 south51st avenue
102509,USA,85344,la paz regional hospital,az,parker,LAPAZ,(928) 669-9201,Critical Access Hospitals,Voluntary non-profit - Private,59050,1200 westmohave road
102510,USA,85344,parker indian health center,az,parker,LAPAZ,(928) 669-2137,Critical Access Hospitals,Government - Federal,17284,12033 agency road
102511,USA,85351,banner boswell medical center,az,sun city,MARICOPA,(623) 832-4000,Acute Care Hospitals,Voluntary non-profit - Other,25994,10401 westthunderbird boulevard
102512,USA,85364,yuma regional medical center,az,yuma,YUMA,(928) 336-7600,Acute Care Hospitals,Voluntary non-profit - Private,46179,2400 southavenue a
102513,USA,85390,wickenburg community hospital,az,wickenburg,MARICOPA,(928) 684-5421,Critical Access Hospitals,Voluntary non-profit - Private,35468,520 rose lane
102514,USA,85395,abrazo west campus,az,goodyear,MARICOPA,(623) 882-1970,Acute Care Hospitals,Proprietary,73673,13677 westmcdowellroad
102515,USA,85602,benson hospital,az,benson,COCHISE,(520) 586-2261,Critical Access Hospitals,Voluntary non-profit - Private,27990,450 southocotillo avenue
102516,USA,85603,copper queen community hospital,az,bisbee,COCHISE,(520) 432-6401,Critical Access Hospitals,Voluntary non-profit - Private,74922,101 cole avenue
102517,USA,85634,sells hospital,az,sells,PIMA,(520) 362-7003,Acute Care Hospitals,Tribal,14864,highway 86 at topawa road
102518,USA,85704,sonora behavioral health hospital,az,tucson,PIMA,(520) 469-8700,Psychiatric,Proprietary,60779,6050 northcorona road
102519,USA,85712,cornerstone behavioral health el dorado,az,tucson,PIMA,(520) 222-8268,Psychiatric,Proprietary,77788,1400 northwilmot road
102520,USA,85712,tucson medical center,az,tucson,PIMA,(520) 327-5461,Acute Care Hospitals,Voluntary non-profit - Private,12536,5301 eastgrant road
102521,USA,85755,oro valley hospital,az,oro valley,PIMA,(520) 901-3549,Acute Care Hospitals,Proprietary,59585,1551 easttangerineroad
102522,USA,85901,summit healthcare regional medical center,az,show low,NAVAJO,(928) 537-6399,Acute Care Hospitals,Voluntary non-profit - Private,22860,2200 eastshow low lake road
102523,USA,85938,white mountain regional medical center,az,springerville,APACHE,(928) 333-4368,Critical Access Hospitals,Voluntary non-profit - Private,33622,118 southmountain avenue
102524,USA,85941,whiteriver phs indian hospital,az,whiteriver,NAVAJO,(928) 338-4911,Acute Care Hospitals,Government - Federal,72125,200 west hospital drive po box 860
102525,USA,86001,flagstaff medical center,az,flagstaff,COCONINO,(928) 779-3366,Acute Care Hospitals,Voluntary non-profit - Private,72982,1200 northbeaver street
102526,USA,86004,guidance center the,az,flagstaff,COCONINO,(928) 527-1899,Psychiatric,Voluntary non-profit - Private,16187,2187 northvickey street
102527,USA,86042,hopi health care center,az,polacca,NAVAJO,(928) 737-6000,Critical Access Hospitals,Tribal,11638,highway 264 milepost 388
102528,USA,86045,tuba city regional health care corporation,az,tuba city,COCONINO,(928) 283-2501,Acute Care Hospitals,Voluntary non-profit - Other,90850,po box 600
102529,USA,86047,little colorado medical center,az,winslow,NAVAJO,(928) 289-4691,Critical Access Hospitals,Voluntary non-profit - Private,84215,1501 northwilliamson avenue
102530,USA,86301,yavapai regional medical center,az,prescott,YAVAPAI,(928) 445-2700,Acute Care Hospitals,Voluntary non-profit - Private,18717,1003 willow creek road
102531,USA,86326,verde valley medical center,az,cottonwood,YAVAPAI,(928) 773-2357,Acute Care Hospitals,Voluntary non-profit - Private,55165,269 southcandy lane
102532,USA,86442,western arizona regional medical center,az,bullhead city,MOHAVE,(928) 763-2273,Acute Care Hospitals,Proprietary,57273,2735 silver creek road
102533,USA,86503,chinle comprehensive health care facility,az,chinle,APACHE,(928) 674-7001,Acute Care Hospitals,Government - Federal,67801,us hwy 191 hospitalroad
102535,USA,86505,sage memorial hospital,az,ganado,APACHE,(928) 755-4541,Critical Access Hospitals,Voluntary non-profit - Private,71730,state route 264 south 191
102536,USA,87049,dhhs usphs indian health services,nm,san fidel,CIBOLA,(505) 552-5300,Acute Care Hospitals,Government - Federal,51917,exit 102off i40 12 mile south
102537,USA,87106,presbyterian hospital,nm,albuquerque,BERNALILLO,(505) 724-8386,Acute Care Hospitals,Voluntary non-profit - Private,85771,1100 central avenuese
102538,USA,87108,haven behavioral hospital of albuquerque,nm,albuquerque,BERNALILLO,(505) 254-4500,Psychiatric,Proprietary,94260,5400 gibson boulevard se 4thfloor box 8
102539,USA,87109,lovelace womens hospital,nm,albuquerque,BERNALILLO,(505) 727-7805,Acute Care Hospitals,Government - State,59568,4701 montgomery boulevard ne
102540,USA,87114,lovelace westside hospital,nm,albuquerque,BERNALILLO,(505) 727-2001,Acute Care Hospitals,Proprietary,82639,10501 golfcourse road nw
102541,USA,87144,unm sandoval regional medical center,nm,rio rancho,SANDOVAL,(505) 994-7402,Acute Care Hospitals,Voluntary non-profit - Private,90183,3001 broadmoor blvdne
102542,USA,87301,gallup indian medical center,nm,gallup,MCKINLEY,(505) 722-1000,Acute Care Hospitals,Government - Federal,35082,516 e nizhoni blvd
102543,USA,87301,rehoboth mckinley christian health care services,nm,gallup,MCKINLEY,(505) 863-7000,Acute Care Hospitals,Voluntary non-profit - Private,48380,1901 red rock drive
102544,USA,87313,crownpoint healthcare facility,nm,crownpoint,MCKINLEY,(505) 786-5291,Acute Care Hospitals,Government - Federal,45247,junction of hwy 371
102545,USA,87327,zuni comprehensive community health center,nm,zuni,MCKINLEY,(505) 782-4431,Acute Care Hospitals,Government - Federal,15217,route 301north b street
102546,USA,87420,northern navajo medical center,nm,shiprock,SAN JUAN,(505) 368-6001,Acute Care Hospitals,Government - Federal,70043,us hwy 491north
102547,USA,87501,santa fe phs indian hospital,nm,santa fe,SANTA FE,(505) 988-9821,Acute Care Hospitals,Government - Federal,20493,1700 cerrillos road
102548,USA,87507,presbyterian santa fe medical center,nm,santa fe,SANTA FE,(505) 923-8826,Acute Care Hospitals,Voluntary non-profit - Private,39015,4801 beckner road
102549,USA,87571,holy cross hospital a div of taos health systems,nm,taos,TAOS,(575) 758-8883,Critical Access Hospitals,Voluntary non-profit - Private,65396,1397 weimer road
102550,USA,87701,alta vista regional hospital,nm,las vegas,SAN MIGUEL,(505) 426-3930,Acute Care Hospitals,Government - Hospital District or Authority,49648,104 legiondrive
102551,USA,88008,peak behavioral health services llc,nm,santa teresa,DONA ANA,(575) 589-3000,Psychiatric,Proprietary,53505,5065 mcnutt road bldgs b c d
102552,USA,88031,mimbres memorial hospital,nm,deming,LUNA,(575) 546-5803,Critical Access Hospitals,Proprietary,34968,900 w ash
102553,USA,88061,gila regional medical center,nm,silver city,GRANT,(575) 538-4100,Acute Care Hospitals,Government - Hospital District or Authority,73262,1313 e 32nd st
102554,USA,88201,eastern new mexico medical center,nm,roswell,CHAVES,(575) 624-8722,Acute Care Hospitals,Proprietary,40095,405 w country club road
102555,USA,88220,carlsbad medical center,nm,carlsbad,EDDY,(575) 887-4570,Acute Care Hospitals,Proprietary,79575,2430 westpierce street
102556,USA,88310,gerald champion regional medical center,nm,alamogordo,OTERO,(575) 443-6100,Acute Care Hospitals,Voluntary non-profit - Private,13619,2669 northscenic drive
102557,USA,88345,lincoln county medical center,nm,ruidoso,LINCOLN,(575) 257-8200,Critical Access Hospitals,Voluntary non-profit - Private,43345,211 sudderth drive
102558,USA,88401,dr dan c trigg memorial hospital,nm,tucumcari,QUAY,(575) 461-7007,Critical Access Hospitals,Voluntary non-profit - Private,93920,301 east miel de luna avenue
102559,USA,88415,union county general hospital,nm,clayton,UNION,(575) 374-7001,Critical Access Hospitals,Voluntary non-profit - Other,24708,300 wilsonstreet
102560,USA,89005,boulder city hospital,nv,boulder city,CLARK,(702) 293-4111,Critical Access Hospitals,Voluntary non-profit - Private,31084,901 adamsblvd
102561,USA,89008,grover c dils medical center,nv,caliente,LINCOLN,(775) 726-3171,Critical Access Hospitals,Government - Hospital District or Authority,45570,700 n spring st box1010cadm bldg
102562,USA,89011,henderson hospital,nv,henderson,CLARK,(318) 290-4395,Acute Care Hospitals,Proprietary,30782,1050 westgalleria drive
102563,USA,89015,saint rose dominican hospitals  rose de lima,nv,henderson,CLARK,(702) 616-5000,Acute Care Hospitals,Voluntary non-profit - Church,78119,102 e lakemead dr
102564,USA,89031,dignity health st rose dominican n l v campus,nv,north las vegas,CLARK,(702) 777-3615,Acute Care Hospitals,Proprietary,63254,1550 w craig ranch
102565,USA,89052,seven hills behavioral institute,nv,henderson,CLARK,(702) 646-5000,Psychiatric,Proprietary,80984,3021 w horizon ridgepkwy
102566,USA,89102,university medical center,nv,las vegas,CLARK,(702) 383-2000,Acute Care Hospitals,Government - Local,54940,1800 w charleston blvd
102567,USA,89109,desert parkway behavioral healthcare hospital llc,nv,las vegas,CLARK,(248) 905-5096,Psychiatric,Proprietary,85041,3247 s maryland parkway
102568,USA,89117,spring mountain treatment center,nv,las vegas,CLARK,(702) 873-2400,Psychiatric,Proprietary,50721,7000 westspring mountain road
102569,USA,89118,spring valley hospital medical center,nv,las vegas,CLARK,(702) 853-3000,Acute Care Hospitals,Proprietary,71903,5400 southrainbow blvd
102570,USA,89119,desert springs hospital,nv,las vegas,CLARK,(702) 369-7600,Acute Care Hospitals,Proprietary,62560,2075 eastflamingo road
102571,USA,89128,mountainview hospital,nv,las vegas,CLARK,(702) 255-5065,Acute Care Hospitals,Proprietary,51268,3100 n tenaya way
102573,USA,89148,orthopedic specialty hospital of nevada,nv,las vegas,CLARK,(702) 777-7100,Acute Care Hospitals,Voluntary non-profit - Private,49290,8656 westpatrick lane
102574,USA,89148,southern hills hospital and medical center,nv,las vegas,CLARK,(702) 880-2100,Acute Care Hospitals,Voluntary non-profit - Private,79274,9300 westsunset rd
102575,USA,89191,99th medical group nellis afb,nv,nellis afb,CLARK,(702) 653-2273,Acute Care - Department of Defense,Department of Defense,14039,99 mdg 4700 las vegas blvd
102576,USA,89301,william bee ririe hospital,nv,ely,WHITE PINE,(775) 289-3001,Critical Access Hospitals,Government - Hospital District or Authority,32782,1500 avenue h
102577,USA,89406,banner churchill community hospital,nv,fallon,CHURCHILL,(775) 423-3151,Critical Access Hospitals,Voluntary non-profit - Private,81697,801 east williams avenue
102578,USA,89410,carson valley medical center,nv,gardnerville,DOUGLAS,(775) 782-1500,Critical Access Hospitals,Voluntary non-profit - Private,47196,1107 highway 395
102579,USA,89434,northern nevada medical center,nv,sparks,WASHOE,(775) 331-7000,Acute Care Hospitals,Proprietary,28135,2375 e prater way
102580,USA,89445,humboldt general hospital,nv,winnemucca,HUMBOLDT,(775) 623-5222,Critical Access Hospitals,Government - Hospital District or Authority,59710,118 east haskell street
102581,USA,89451,incline village health center,nv,incline village,WASHOE,(775) 833-4100,Critical Access Hospitals,Government - Hospital District or Authority,27741,880 alderstreet
102582,USA,89502,renown regional medical center,nv,reno,WASHOE,(775) 982-4100,Acute Care Hospitals,Voluntary non-profit - Private,80725,1155 millstreet
102583,USA,89512,bhc west hills hospital,nv,reno,WASHOE,(775) 323-0478,Psychiatric,Proprietary,66545,1240 e ninth st
102584,USA,89521,renown south meadows medical center,nv,reno,WASHOE,(775) 982-7063,Acute Care Hospitals,Voluntary non-profit - Private,43725,10101 double r blvd
102585,USA,89703,carson tahoe regional medical center,nv,carson city,CARSON CITY,(775) 445-8000,Acute Care Hospitals,Voluntary non-profit - Private,16313,1600 medical parkway
102586,USA,90015,california hospital medical center la,ca,los angeles,LOS ANGELES,(213) 748-2411,Acute Care Hospitals,Voluntary non-profit - Other,83691,1401 southgrand avenue
102587,USA,90020,shriners hospitals for children,ca,los angeles,LOS ANGELES,(213) 388-3151,Childrens,Voluntary non-profit - Private,62314,3160 geneva street
102588,USA,90023,east los angeles doctors hospital,ca,los angeles,LOS ANGELES,(323) 268-5514,Acute Care Hospitals,Proprietary,59727,4060 whittier blvd
102589,USA,90023,los angeles community hospital,ca,los angeles,LOS ANGELES,(323) 267-0477,Acute Care Hospitals,Proprietary,24510,4081 e olympic blvd
102590,USA,90026,l a downtown medical center,ca,los angeles,LOS ANGELES,(213) 989-6123,Acute Care Hospitals,Proprietary,56630,1711 westtemple street
102591,USA,90033,white memorial medical center,ca,los angeles,LOS ANGELES,(323) 268-5000,Acute Care Hospitals,Voluntary non-profit - Church,89400,1720 e cesar avenue
102592,USA,90034,kaiser foundation hospital  west la,ca,los angeles,LOS ANGELES,(213) 857-2201,Acute Care Hospitals,Voluntary non-profit - Private,93170,6041 cadillac ave
102593,USA,90036,olympia medical center,ca,los angeles,LOS ANGELES,(310) 657-5900,Acute Care Hospitals,Proprietary,91996,5900 westolympic boulevard
102594,USA,90048,cedarssinai medical center,ca,los angeles,LOS ANGELES,(310) 423-5000,Acute Care Hospitals,Voluntary non-profit - Other,35611,8700 beverly blvd
102595,USA,90057,saint vincent medical center,ca,los angeles,LOS ANGELES,(213) 484-7111,Acute Care Hospitals,Voluntary non-profit - Church,46296,2131 w 3rdst
102596,USA,90059,martin luther king jr community hospital,ca,los angeles,LOS ANGELES,(424) 835-6808,Acute Care Hospitals,Voluntary non-profit - Private,59982,1680 east120th street
102597,USA,90095,ronald reagan u c l a medical center,ca,los angeles,LOS ANGELES,(310) 825-6301,Acute Care Hospitals,Government - State,93177,757 westwood plaza
102598,USA,90291,cedarsinai marina del rey hospital,ca,marina del rey,LOS ANGELES,(310) 823-8911,Acute Care Hospitals,Proprietary,71877,4650 lincoln blvd
102599,USA,90505,del amo hospital,ca,torrance,LOS ANGELES,(310) 530-1151,Psychiatric,Proprietary,75099,23700 camino del sol
102600,USA,90509,torrance memorial medical center,ca,torrance,LOS ANGELES,(310) 325-9110,Acute Care Hospitals,Voluntary non-profit - Other,18078,3330 lomita blvd
102601,USA,90640,beverly hospital,ca,montebello,LOS ANGELES,(323) 726-1222,Acute Care Hospitals,Voluntary non-profit - Private,26470,309 w beverly blvd
102602,USA,90650,coast plaza hospital,ca,norwalk,LOS ANGELES,(310) 356-0550,Acute Care Hospitals,Proprietary,54985,13100 studerbaker road
102603,USA,90704,catalina island medical center,ca,avalon,LOS ANGELES,(310) 510-0700,Critical Access Hospitals,Voluntary non-profit - Private,34988,100 fallscanyon road
102604,USA,90710,kaiser foundation hospital  south bay,ca,harbor city,LOS ANGELES,(310) 325-5111,Acute Care Hospitals,Voluntary non-profit - Other,77133,25825 south vermontavenue
102605,USA,90806,long beach memorial medical center,ca,long beach,LOS ANGELES,(562) 933-2000,Acute Care Hospitals,Voluntary non-profit - Other,24549,2801 atlantic ave
102607,USA,90806,ocean view psychiatric health facility,ca,long beach,LOS ANGELES,(714) 614-0474,Psychiatric,Proprietary,77145,2600 redondo avenuesuite 500
102608,USA,91006,methodist hospital of southern ca,ca,arcadia,LOS ANGELES,(626) 445-4441,Acute Care Hospitals,Voluntary non-profit - Private,45912,300 w huntington dr
102609,USA,91107,aurora las encinas hospital,ca,pasadena,LOS ANGELES,(866) 279-3709,Psychiatric,Proprietary,59914,2900 e delmar blvd
102610,USA,91204,glendale mem hospital  hlth center,ca,glendale,LOS ANGELES,(818) 502-1900,Acute Care Hospitals,Voluntary non-profit - Private,92768,1420 s central ave
102611,USA,91206,glendale adventist medical center,ca,glendale,LOS ANGELES,(818) 409-8202,Acute Care Hospitals,Voluntary non-profit - Private,64100,1509 e wilson terrace
102612,USA,91209,usc verdugo hills hospital,ca,glendale,LOS ANGELES,(818) 790-7100,Acute Care Hospitals,Voluntary non-profit - Private,43602,1812 verdugo blvd
102613,USA,91307,west hills hospital  medical center,ca,west hills,LOS ANGELES,(818) 676-4100,Acute Care Hospitals,Proprietary,42999,7300 medical centerdr
102614,USA,91325,northridge hospital medical center,ca,northridge,LOS ANGELES,(818) 885-8500,Acute Care Hospitals,Voluntary non-profit - Private,47107,18300 roscoe blvd
102615,USA,91335,joyce eisenberg keefer medical center,ca,reseda,LOS ANGELES,(818) 774-3314,Psychiatric,Voluntary non-profit - Private,34268,7150 tampaavenue
102616,USA,91342,lacolive viewucla medical center,ca,sylmar,LOS ANGELES,(818) 364-1555,Acute Care Hospitals,Voluntary non-profit - Other,34761,14445 olive view drive
102617,USA,91346,providence holy cross medical center,ca,mission hills,LOS ANGELES,(818) 365-8051,Acute Care Hospitals,Voluntary non-profit - Church,89071,15031 rinaldi st
102618,USA,91355,henry mayo newhall hospital,ca,valencia,LOS ANGELES,(661) 253-8000,Acute Care Hospitals,Voluntary non-profit - Private,72932,23845 mcbean pkwy
102619,USA,91356,providence tarzana medical center,ca,tarzana,LOS ANGELES,(818) 881-0800,Acute Care Hospitals,Voluntary non-profit - Private,56541,18321 clark street
102620,USA,91356,tarzana treatment center,ca,tarzana,LOS ANGELES,(818) 996-1051,Psychiatric,Voluntary non-profit - Private,37909,18646 oxnard street
102621,USA,91367,kaiser foundation hospital  woodland hills,ca,woodland hills,LOS ANGELES,(818) 719-3800,Acute Care Hospitals,Voluntary non-profit - Private,28167,5601 de soto avenue
102622,USA,91402,kaiser foundation hospital  panorama city,ca,panorama city,LOS ANGELES,(818) 375-3333,Acute Care Hospitals,Voluntary non-profit - Private,14704,13652 cantara st
102624,USA,91403,sherman oaks hospital,ca,sherman oaks,LOS ANGELES,(818) 981-7111,Acute Care Hospitals,Voluntary non-profit - Private,54511,4929 van nuys blvd
102625,USA,91436,encino hospital medical center,ca,encino,LOS ANGELES,(818) 995-5000,Acute Care Hospitals,Proprietary,51508,16237 ventura blvd
102626,USA,91706,kaiser foundation hospital  baldwin park,ca,baldwin park,LOS ANGELES,(626) 851-1011,Acute Care Hospitals,Voluntary non-profit - Other,69360,1011 baldwin park blvd
102627,USA,91710,canyon ridge hospital,ca,chino,SAN BERNARDINO,(909) 590-3700,Psychiatric,Proprietary,58028,5353 g street
102628,USA,91710,chino valley medical center,ca,chino,SAN BERNARDINO,(909) 627-6111,Acute Care Hospitals,Proprietary,31859,5451 walnut ave
102629,USA,91723,emanate health intercommunity hospital,ca,covina,LOS ANGELES,(626) 814-2468,Acute Care Hospitals,Proprietary,41619,210 w sanbernardinoroad
102630,USA,91740,emanate health foothill presbyterian hospital,ca,glendora,LOS ANGELES,(626) 963-8411,Acute Care Hospitals,Voluntary non-profit - Private,34094,250 s grand ave
102631,USA,91754,garfield medical center,ca,monterey park,LOS ANGELES,(626) 573-2222,Acute Care Hospitals,Proprietary,32004,525 n garfield ave
102632,USA,91754,monterey park hospital,ca,monterey park,LOS ANGELES,(626) 570-9000,Acute Care Hospitals,Proprietary,57592,900 s atlantic blvd
102633,USA,91767,pomona valley hospital medical center,ca,pomona,LOS ANGELES,(909) 865-9500,Acute Care Hospitals,Voluntary non-profit - Private,92024,1798 n garey ave
102634,USA,91770,bhc alhambra hosp,ca,rosemead,LOS ANGELES,(626) 286-1191,Psychiatric,Proprietary,80222,4619 n rosemead blvd
102635,USA,91773,san dimas community hospital,ca,san dimas,LOS ANGELES,(909) 599-6811,Acute Care Hospitals,Proprietary,67133,1350 w covina blvd
102636,USA,91776,san gabriel valley medical center,ca,san gabriel,LOS ANGELES,(626) 289-5454,Acute Care Hospitals,Proprietary,33180,438 w lastunas drive
102637,USA,91786,san antonio regional hospital,ca,upland,SAN BERNARDINO,(714) 985-2811,Acute Care Hospitals,Voluntary non-profit - Other,11012,999 san bernardino road
102638,USA,91790,west covina medical center inc,ca,west covina,LOS ANGELES,(626) 338-8481,Acute Care Hospitals,Proprietary,67672,725 s orange ave
102639,USA,91911,sharp chula vista medical center,ca,chula vista,SAN DIEGO,(619) 502-5800,Acute Care Hospitals,Proprietary,60048,751 medical center court
102640,USA,91942,alvarado parkway institute behavioral health syste,ca,la mesa,SAN DIEGO,(619) 465-4411,Psychiatric,Voluntary non-profit - Private,48267,7050 parkway drive
102641,USA,91950,paradise valley hospital,ca,national city,SAN DIEGO,(619) 470-4321,Acute Care Hospitals,Proprietary,58920,2400 east4th st
102642,USA,92024,scripps memorial hospital  encinitas,ca,encinitas,SAN DIEGO,(760) 753-6501,Acute Care Hospitals,Voluntary non-profit - Private,18128,354 santafe drive
102643,USA,92025,palomar health downtown campus,ca,escondido,SAN DIEGO,(760) 739-3000,Acute Care Hospitals,Government - Hospital District or Authority,45004,555 east valley parkway
102644,USA,92037,scripps green hospital,ca,la jolla,SAN DIEGO,(858) 455-9100,Acute Care Hospitals,Voluntary non-profit - Other,56362,10666 north torrey pines road
102645,USA,92037,scripps memorial hospital la jolla,ca,la jolla,SAN DIEGO,(858) 626-4123,Acute Care Hospitals,Physician,19124,9888 genesee avenue
102646,USA,92055,nh camp pendleton,ca,camp pendleton,SAN DIEGO,(760) 725-1288,Acute Care - Department of Defense,Department of Defense,19554,200 mercycircle camp pendleton
102647,USA,92103,scripps mercy hospital,ca,san diego,SAN DIEGO,(619) 294-8111,Acute Care Hospitals,Voluntary non-profit - Private,89233,4077 5th ave
102648,USA,92103,uc san diego health hillcrest  hillcrest med ctr,ca,san diego,SAN DIEGO,(619) 543-6222,Acute Care Hospitals,Voluntary non-profit - Other,25896,200 west arbor drive
102649,USA,92118,sharp coronado hospital and hlthcr ctr,ca,coronado,SAN DIEGO,(619) 435-6251,Acute Care Hospitals,Proprietary,71831,250 prospect place
102650,USA,92120,alvarado hospital medical center,ca,san diego,SAN DIEGO,(619) 229-3172,Acute Care Hospitals,Proprietary,64318,6655 alvarado road
102651,USA,92120,kaiser foundation hospital  zion,ca,san diego,SAN DIEGO,(619) 528-5000,Acute Care Hospitals,Voluntary non-profit - Private,94301,4647 zionave
102652,USA,92128,aurora san diego,ca,san diego,SAN DIEGO,(858) 487-3200,Psychiatric,Proprietary,83379,11878 avenue of industry
102653,USA,92220,san gorgonio memorial hospital,ca,banning,RIVERSIDE,(951) 845-1121,Acute Care Hospitals,Government - Hospital District or Authority,35861,600 northhighland springs avenue
102654,USA,92225,palo verde hospital,ca,blythe,RIVERSIDE,(760) 922-4115,Acute Care Hospitals,Government - Hospital District or Authority,83589,250 northfirst street
102655,USA,92252,hidesert medical center,ca,joshua tree,SAN BERNARDINO,(760) 366-3711,Acute Care Hospitals,Government - Hospital District or Authority,26459,6601 whitefeather road
102656,USA,92270,eisenhower medical center,ca,rancho mirage,RIVERSIDE,(760) 340-3911,Acute Care Hospitals,Proprietary,81997,39000 bobhope drive
102657,USA,92307,st mary medical center,ca,apple valley,SAN BERNARDINO,(760) 242-2311,Acute Care Hospitals,Voluntary non-profit - Private,86420,18300 highway 18
102658,USA,92311,barstow community hospital,ca,barstow,SAN BERNARDINO,(760) 256-1761,Acute Care Hospitals,Proprietary,33576,820 e mountain viewstreet
102659,USA,92324,arrowhead regional medical center,ca,colton,SAN BERNARDINO,(909) 580-1000,Acute Care Hospitals,Government - Local,62480,400 northpepper avenue
102660,USA,92335,kaiser foundation hospital fontana,ca,fontana,SAN BERNARDINO,(909) 427-5500,Acute Care Hospitals,Voluntary non-profit - Private,57630,9961 sierra ave
102661,USA,92352,mountains community hospital,ca,lake arrowhead,SAN BERNARDINO,(909) 336-3651,Critical Access Hospitals,Government - Hospital District or Authority,43211,29101 hospital road
102662,USA,92354,loma linda university medical center,ca,loma linda,SAN BERNARDINO,(909) 558-4000,Acute Care Hospitals,Voluntary non-profit - Private,75977,11234 anderson st
102663,USA,92373,loma linda university behavioral med ctr,ca,redlands,SAN BERNARDINO,(909) 558-9200,Psychiatric,Voluntary non-profit - Private,14341,1710 barton road
102665,USA,92501,riverside community hospital,ca,riverside,RIVERSIDE,(951) 788-3000,Acute Care Hospitals,Proprietary,18778,4445 magnolia avenue
102666,USA,92503,doctors hospital of riverside,ca,riverside,RIVERSIDE,(951) 688-2211,Acute Care Hospitals,Voluntary non-profit - Private,75892,3865 jackson street
102667,USA,92506,pacific grove hospital,ca,riverside,RIVERSIDE,(951) 275-8400,Psychiatric,Proprietary,67613,5900 brockton ave
102668,USA,92543,hemet valley medical center,ca,hemet,RIVERSIDE,(951) 652-2811,Acute Care Hospitals,Physician,57203,1117 eastdevonshire
102669,USA,92555,riverside university health systemmedical center,ca,moreno valley,RIVERSIDE,(951) 486-4000,Acute Care Hospitals,Government - Local,72910,26520 cactus avenue
102671,USA,92585,menifee global medical center,ca,sun city,RIVERSIDE,(951) 679-8888,Acute Care Hospitals,Physician,56115,28400 mccall b0ulevard
102672,USA,92592,temecula valley hospital,ca,temecula,RIVERSIDE,(951) 331-2200,Acute Care Hospitals,Proprietary,66132,31700 temecula pkwy
102673,USA,92626,fairview developmental center,ca,costa mesa,ORANGE,(714) 957-5000,Acute Care Hospitals,Government - Local,19527,2501 harbor boulevard
102674,USA,92627,college hospital costa mesa,ca,costa mesa,ORANGE,(949) 642-2734,Acute Care Hospitals,Proprietary,56408,301 victoria street
102675,USA,92647,huntington beach hospital,ca,huntington beach,ORANGE,(714) 843-5000,Acute Care Hospitals,Proprietary,59663,17772 beach blvd
102676,USA,92704,south coast global medical center,ca,santa ana,ORANGE,(714) 754-5454,Acute Care Hospitals,Proprietary,87861,2701 s bristol st
102677,USA,92705,orange county global medical center,ca,santa ana,ORANGE,(714) 953-3610,Acute Care Hospitals,Proprietary,13008,1001 northtustin avenue
102678,USA,92708,fountain valley regional hospital  medical center,ca,fountain valley,ORANGE,(714) 966-7200,Acute Care Hospitals,Proprietary,55613,17100 euclid street
102679,USA,92708,memorialcare orange coast medical center,ca,fountain valley,ORANGE,(714) 378-7406,Acute Care Hospitals,Proprietary,28110,9920 talbert avenue
102680,USA,92780,foothill regional medical center,ca,tustin,ORANGE,(714) 619-7700,Acute Care Hospitals,Proprietary,34632,14662 newport ave
102681,USA,92801,ahmc anaheim regional medical center,ca,anaheim,ORANGE,(714) 774-1450,Acute Care Hospitals,Voluntary non-profit - Private,89326,1111 w lapalma avenue
102682,USA,92835,st jude medical center,ca,fullerton,ORANGE,(714) 992-3000,Acute Care Hospitals,Voluntary non-profit - Church,37419,101 e valencia mesadrive
102683,USA,92868,childrens hospital of orange county,ca,orange,ORANGE,(714) 997-3000,Childrens,Voluntary non-profit - Other,56841,1201 w laveta ave
102684,USA,92868,st joseph hospital,ca,orange,ORANGE,(714) 633-9111,Acute Care Hospitals,Voluntary non-profit - Church,61427,1100 weststewart dr
102685,USA,92869,chapman global medical center,ca,orange,ORANGE,(714) 633-0011,Acute Care Hospitals,Proprietary,83281,2601 e chapman ave
102686,USA,93102,santa barbara cottage hospital,ca,santa barbara,SANTA BARBARA,(805) 682-7111,Acute Care Hospitals,Voluntary non-profit - Private,18038,400 west pueblo
102687,USA,93110,santa barbara county psychiatric health facility,ca,santa barbara,SANTA BARBARA,(805) 681-5244,Psychiatric,Government - Local,84057,315 caminodel remedio
102688,USA,93111,goleta valley cottage hospital,ca,santa barbara,SANTA BARBARA,(805) 681-6446,Acute Care Hospitals,Voluntary non-profit - Other,19057,351 s patterson ave
102689,USA,93210,coalinga regional medical center,ca,coalinga,FRESNO,(559) 935-6400,Acute Care Hospitals,Government - Hospital District or Authority,14186,1191 phelps avenue
102690,USA,93215,delano regional medical center,ca,delano,KERN,(661) 725-4800,Acute Care Hospitals,Proprietary,21195,1401 garces highway
102691,USA,93257,porterville developmental center,ca,porterville,TULARE,(559) 782-2222,Acute Care Hospitals,Government - State,35612,26501 avenue 140
102692,USA,93257,sierra view medical center,ca,porterville,TULARE,(559) 784-1110,Acute Care Hospitals,Voluntary non-profit - Private,42644,465 w putnam ave
102693,USA,93274,adventist health tulare,ca,tulare,TULARE,(559) 688-0821,Acute Care Hospitals,Voluntary non-profit - Private,34744,869 northcherry street
102694,USA,93291,kaweah delta medical center,ca,visalia,TULARE,(559) 624-2000,Acute Care Hospitals,Government - Hospital District or Authority,71319,400 w mineral king ave
102695,USA,93301,bakersfield memorial hospital,ca,bakersfield,KERN,(661) 327-1792,Acute Care Hospitals,Voluntary non-profit - Private,77401,420 34th st
102696,USA,93308,bakersfield heart hospital,ca,bakersfield,KERN,(661) 316-6000,Acute Care Hospitals,Proprietary,22243,3001 sillect avenue
102697,USA,93308,good samaritan hospital,ca,bakersfield,KERN,(661) 399-4461,Acute Care Hospitals,Proprietary,72997,901 olivedrive
102698,USA,93401,french hospital medical center,ca,san luis obispo,SAN LUIS OBISPO,(805) 543-5353,Acute Care Hospitals,Voluntary non-profit - Private,31823,1911 johnson ave
102699,USA,93405,sierra vista regional medical center,ca,san luis obispo,SAN LUIS OBISPO,(850) 546-7600,Acute Care Hospitals,Proprietary,56214,1010 murray st
102700,USA,93436,lompoc valley medical center,ca,lompoc,SANTA BARBARA,(805) 737-3300,Acute Care Hospitals,Government - Hospital District or Authority,50745,1515 e ocean avenue
102701,USA,93514,northern inyo hospital,ca,bishop,INYO,(760) 873-5811,Critical Access Hospitals,Government - Hospital District or Authority,52612,150 pioneer lane
102702,USA,93545,southern inyo hospital,ca,lone pine,INYO,(760) 876-5501,Critical Access Hospitals,Government - Hospital District or Authority,23224,501 east locust street
102703,USA,93546,mammoth hospital,ca,mammoth lakes,MONO,(760) 934-3311,Critical Access Hospitals,Government - Hospital District or Authority,55560,85 sierrapark roadpo box 660
102704,USA,93555,ridgecrest regional hospital,ca,ridgecrest,KERN,(760) 446-3551,Critical Access Hospitals,Voluntary non-profit - Private,80651,1081 northchina lake blvd
102705,USA,93635,memorial hospital los banos,ca,los banos,MERCED,(209) 826-0591,Acute Care Hospitals,Voluntary non-profit - Private,73687,520 west ist
102706,USA,93636,valley childrens hospital,ca,madera,MADERA,(559) 353-5116,Childrens,Voluntary non-profit - Private,14351,9300 valley childrens place
102707,USA,93654,adventist health reedley,ca,reedley,FRESNO,(559) 638-8155,Acute Care Hospitals,Voluntary non-profit - Private,75081,372 w cypress ave
102708,USA,93710,saint agnes medical center,ca,fresno,FRESNO,(559) 450-3000,Acute Care Hospitals,Voluntary non-profit - Church,86275,1303 e herndon ave
102709,USA,93720,kaiser foundation hospital  fresno,ca,fresno,FRESNO,(559) 448-4500,Acute Care Hospitals,Voluntary non-profit - Private,37211,7300 northfresno st
102710,USA,93906,natividad medical center,ca,salinas,MONTEREY,(831) 755-4195,Acute Care Hospitals,Government - Hospital District or Authority,20974,1441 constitution boulevard
102711,USA,93940,community hospital of the monterey peninsula,ca,monterey,MONTEREY,(831) 624-5311,Acute Care Hospitals,Voluntary non-profit - Private,47460,23625 w rholman highway
102712,USA,94025,menlo park surgical hospital,ca,menlo park,SAN MATEO,(650) 324-8500,Acute Care Hospitals,Voluntary non-profit - Private,59503,570 willowroad
102713,USA,94040,el camino hospital,ca,mountain view,SANTA CLARA,(650) 940-7000,Acute Care Hospitals,Government - Hospital District or Authority,43308,2500 grantroad
102714,USA,94063,kaiser foundation hospital  redwood city,ca,redwood city,SAN MATEO,(650) 299-2000,Acute Care Hospitals,Voluntary non-profit - Private,69229,1100 veterans boulevard
102715,USA,94080,kaiser foundation hospital  south san francisco,ca,south san francisco,SAN MATEO,(650) 742-3200,Acute Care Hospitals,Voluntary non-profit - Private,19708,1200 el camino real
102716,USA,94109,california pacific medical center van ness campus,ca,san francisco,SAN FRANCISCO,(415) 600-6000,Acute Care Hospitals,Voluntary non-profit - Private,72969,1101 van ness avenue
102717,USA,94110,zuckerberg san francisco general hosp  trauma ctr,ca,san francisco,SAN FRANCISCO,(415) 206-8000,Acute Care Hospitals,Government - Local,58360,1001 potrero avenue
102718,USA,94115,kaiser foundation hospital  san francisco,ca,san francisco,SAN FRANCISCO,(415) 833-2646,Acute Care Hospitals,Voluntary non-profit - Private,68133,2425 gearyblvd
102719,USA,94117,st marys medical center,ca,san francisco,SAN FRANCISCO,(415) 668-1000,Acute Care Hospitals,Voluntary non-profit - Private,79477,450 stanyan st
102720,USA,94143,langley porter psychiatric institute,ca,san francisco,SAN FRANCISCO,(415) 476-7000,Psychiatric,Government - State,78820,401 parnassus avenue
102721,USA,94304,lucile salter packard childrens hsp at stanford,ca,palo alto,SANTA CLARA,(650) 497-8000,Childrens,Voluntary non-profit - Private,47493,725 welchroad
102722,USA,94305,stanford health care,ca,stanford,SANTA CLARA,(650) 723-5708,Acute Care Hospitals,Voluntary non-profit - Private,78677,300 pasteur drive
102723,USA,94501,alameda hospital,ca,alameda,ALAMEDA,(510) 522-3700,Acute Care Hospitals,Government - Hospital District or Authority,70665,2070 clinton avenue
102724,USA,94538,washington hospital,ca,fremont,ALAMEDA,(510) 797-1111,Acute Care Hospitals,Government - Hospital District or Authority,25210,2000 mowryave
102725,USA,94558,dept of state hospitals  napa,ca,napa,NAPA,(707) 253-5000,Psychiatric,Government - State,94970,2100 napavallejo highway
102726,USA,94558,queen of the valley medical center,ca,napa,NAPA,(707) 252-4411,Acute Care Hospitals,Voluntary non-profit - Church,16932,1000 trancas st
102727,USA,94574,adventist health st helena,ca,saint helena,NAPA,(707) 963-3611,Acute Care Hospitals,Voluntary non-profit - Private,44112,10 woodland road
102728,USA,94578,willow rock center,ca,san leandro,ALAMEDA,(510) 895-5502,Psychiatric,Proprietary,71933,2050 fairmont drive
102729,USA,94583,san ramon regional medical center,ca,san ramon,CONTRA COSTA,(925) 275-9200,Acute Care Hospitals,Proprietary,78449,6001 norris canyon road
102730,USA,94590,adventist health vallejo,ca,vallejo,SOLANO,(707) 648-2200,Psychiatric,Voluntary non-profit - Private,78027,525 oregonst
102731,USA,94598,john muir medical center  walnut creek campus,ca,walnut creek,CONTRA COSTA,(925) 939-3000,Acute Care Hospitals,Voluntary non-profit - Other,47751,1601 ygnacio valleyrd
102732,USA,94609,childrens hospital  research center oakland,ca,oakland,ALAMEDA,(510) 428-3000,Childrens,Voluntary non-profit - Private,80010,747 52nd street
102733,USA,94904,marinhealth medical center,ca,greenbrae,MARIN,(415) 925-7900,Acute Care Hospitals,Government - Local,29849,250 bon air road pobox 8010
102734,USA,94945,novato community hospital,ca,novato,MARIN,(415) 209-1300,Acute Care Hospitals,Voluntary non-profit - Other,52789,180 rowland way
102735,USA,94954,petaluma valley hospital,ca,petaluma,SONOMA,(707) 778-1111,Acute Care Hospitals,Voluntary non-profit - Other,12387,400 n mcdowell blvd
102736,USA,95062,santa cruz county psychiatric health facility,ca,santa cruz,SANTA CRUZ,(831) 600-2801,Psychiatric,Proprietary,25198,2250 soquel avenuesuite 150
102737,USA,95065,sutter maternity  surgery center of santa cruz,ca,santa cruz,SANTA CRUZ,(831) 477-2200,Acute Care Hospitals,Voluntary non-profit - Private,90285,2900 chanticleer avenue
102738,USA,95076,watsonville community hospital,ca,watsonville,SANTA CRUZ,(831) 724-4741,Acute Care Hospitals,Proprietary,47642,75 nielsonstreet
102739,USA,95116,regional medical center of san jose,ca,san jose,SANTA CLARA,(408) 259-5000,Acute Care Hospitals,Government - Federal,45286,225 n jackson avenue
102740,USA,95119,kaiser foundation hospitalsan jose,ca,san jose,SANTA CLARA,(408) 972-7000,Acute Care Hospitals,Voluntary non-profit - Private,83366,250 hospital parkway
102741,USA,95128,oconnor hospital,ca,san jose,SANTA CLARA,(408) 947-2500,Acute Care Hospitals,Voluntary non-profit - Private,12578,2105 forest avenue
102742,USA,95204,st josephs medical center of stockton,ca,stockton,SAN JOAQUIN,(209) 943-2000,Acute Care Hospitals,Voluntary non-profit - Private,74230,1800 n california st
102743,USA,95231,san joaquin general hospital,ca,french camp,SAN JOAQUIN,(209) 468-6000,Acute Care Hospitals,Government - Local,79619,500 w hospital road
102744,USA,95240,adventist health lodi memorial,ca,lodi,SAN JOAQUIN,(209) 334-3411,Acute Care Hospitals,Voluntary non-profit - Other,87932,975 s fairmont avenue
102745,USA,95249,mark twain medical center,ca,san andreas,CALAVERAS,(209) 754-2515,Critical Access Hospitals,Voluntary non-profit - Other,88407,768 mountain ranch rd
102746,USA,95340,mercy medical center,ca,merced,MERCED,(209) 564-5000,Acute Care Hospitals,Voluntary non-profit - Private,63102,333 mercyavenue
102747,USA,95350,doctors medical center,ca,modesto,STANISLAUS,(209) 578-1211,Acute Care Hospitals,Proprietary,81544,1441 florida avenue
102748,USA,95355,memorial medical center,ca,modesto,STANISLAUS,(209) 526-4500,Acute Care Hospitals,Voluntary non-profit - Private,87941,1700 coffee rd
102749,USA,95370,adventist health sonora,ca,sonora,TUOLUMNE,(209) 536-5000,Acute Care Hospitals,Voluntary non-profit - Church,34125,1000 greenley road
102750,USA,95376,sutter tracy community hospital,ca,tracy,SAN JOAQUIN,(209) 835-1500,Acute Care Hospitals,Voluntary non-profit - Private,69418,1420 northtracy blvd
102751,USA,95382,emanuel medical center,ca,turlock,STANISLAUS,(209) 667-4200,Acute Care Hospitals,Voluntary non-profit - Church,84921,825 delbonave
102752,USA,95403,kaiser foundation hospitalsanta rosa,ca,santa rosa,SONOMA,(707) 571-4000,Acute Care Hospitals,Voluntary non-profit - Private,10367,401 bicentennial way
102753,USA,95403,sutter santa rosa regional hospital,ca,santa rosa,SONOMA,(707) 576-4000,Acute Care Hospitals,Voluntary non-profit - Other,10718,30 mark west springsroad
102754,USA,95405,santa rosa memorial hospital,ca,santa rosa,SONOMA,(707) 525-5300,Acute Care Hospitals,Voluntary non-profit - Private,73876,1165 montgomery dr
102755,USA,95422,adventist health clearlake,ca,clearlake,LAKE,(707) 994-6486,Critical Access Hospitals,Voluntary non-profit - Church,75743,15630 18thave  hwy53
102756,USA,95431,sonoma developmental center,ca,eldridge,SONOMA,(707) 938-6000,Acute Care Hospitals,Government - State,72999,15000 arnold drive p o box 1493
102757,USA,95448,healdsburg district hospital,ca,healdsburg,SONOMA,(707) 431-6500,Critical Access Hospitals,Government - Hospital District or Authority,16193,1375 university avenue
102758,USA,95453,sutter lakeside hospital,ca,lakeport,LAKE,(707) 262-5000,Critical Access Hospitals,Voluntary non-profit - Private,31544,5176 hillroad east
102759,USA,95608,mercy san juan medical center,ca,carmichael,SACRAMENTO,(916) 537-5000,Acute Care Hospitals,Voluntary non-profit - Other,11424,6501 coyleave
102760,USA,95630,mercy hospital of folsom,ca,folsom,SACRAMENTO,(916) 983-7400,Acute Care Hospitals,Voluntary non-profit - Private,62452,1650 creekside drive
102761,USA,95661,kaiser foundation hospital  roseville,ca,roseville,PLACER,(916) 784-4000,Acute Care Hospitals,Voluntary non-profit - Private,28138,1600 eureka road
102762,USA,95661,sutter roseville medical center,ca,roseville,PLACER,(916) 781-1000,Acute Care Hospitals,Voluntary non-profit - Private,76976,one medical plaza
102763,USA,95688,kaiser foundation hospital  vacaville,ca,vacaville,SOLANO,(707) 624-4000,Acute Care Hospitals,Voluntary non-profit - Private,60317,1 qualitydrive
102764,USA,95816,sutter medical center sacramento,ca,sacramento,SACRAMENTO,(916) 733-8999,Acute Care Hospitals,Voluntary non-profit - Private,35170,2825 capitol avenue
102765,USA,95817,shriners hospitals for children northern calif,ca,sacramento,SACRAMENTO,(916) 453-2000,Childrens,Voluntary non-profit - Private,56158,2425 stockton boulevard
102766,USA,95823,methodist hospital of sacramento,ca,sacramento,SACRAMENTO,(916) 423-6010,Acute Care Hospitals,Voluntary non-profit - Private,40247,7500 hospital drive
102767,USA,95825,kaiser foundation hospital  sacramento,ca,sacramento,SACRAMENTO,(916) 973-5000,Acute Care Hospitals,Voluntary non-profit - Private,70897,2025 morseavenue
102768,USA,95826,sutter center for psychiatry,ca,sacramento,SACRAMENTO,(916) 386-3000,Psychiatric,Proprietary,62348,7700 folsom blvd
102769,USA,95932,colusa medical center,ca,colusa,COLUSA,(530) 619-0800,Acute Care Hospitals,Proprietary,33954,199 e webster street
102770,USA,95945,sierra nevada memorial hospital,ca,grass valley,NEVADA,(530) 274-6000,Acute Care Hospitals,Voluntary non-profit - Other,80314,155 glasson way
102771,USA,95948,orchard hospital,ca,gridley,BUTTE,(530) 846-5671,Critical Access Hospitals,Voluntary non-profit - Private,74827,240 sprucestreet
102772,USA,95966,oroville hospital,ca,oroville,BUTTE,(530) 533-8500,Acute Care Hospitals,Voluntary non-profit - Private,72454,2767 olivehighway
102773,USA,95991,sutter surgical hospital  north valley,ca,yuba city,SUTTER,(530) 749-5700,Acute Care Hospitals,Physician,33273,455 plumasblvd
102774,USA,96001,mercy medical center redding,ca,redding,SHASTA,(530) 225-6102,Acute Care Hospitals,Voluntary non-profit - Private,66191,2175 rosaline ave clairmont hgts
102775,USA,96001,shasta regional medical center,ca,redding,SHASTA,(530) 244-5454,Acute Care Hospitals,Proprietary,49064,1100 buttest
102776,USA,96020,seneca district hospital,ca,chester,PLUMAS,(530) 258-2121,Critical Access Hospitals,Voluntary non-profit - Other,38843,130 brentwood drive
102777,USA,96080,st elizabeth community hospital,ca,red bluff,TEHAMA,(530) 529-8012,Acute Care Hospitals,Voluntary non-profit - Church,26490,2550 sister mary columba drive
102779,USA,96104,surprise valley community hospital,ca,cedarville,MODOC,(530) 279-6111,Critical Access Hospitals,Government - Local,39632,741 northmain street
102780,USA,96130,banner lassen medical center,ca,susanville,LASSEN,(530) 252-2000,Critical Access Hospitals,Voluntary non-profit - Private,36864,1800 spring ridge drive
102781,USA,96161,tahoe forest hospital,ca,truckee,NEVADA,(530) 587-6011,Critical Access Hospitals,Government - Hospital District or Authority,30430,10121 pineave
102782,USA,96706,kahi mohala,hi,ewa beach,HONOLULU,(808) 671-8511,Psychiatric,Voluntary non-profit - Private,64296,912301 fort weaverroad
102783,USA,96720,hilo medical center,hi,hilo,HAWAII,(808) 932-3000,Acute Care Hospitals,Government - State,16892,1190 waianuenue avenue
102784,USA,96731,kahuku medical center,hi,kahuku,HONOLULU,(808) 293-9221,Critical Access Hospitals,Voluntary non-profit - Other,77695,56117 pualalea street
102785,USA,96743,north hawaii community hospital,hi,kamuela,HAWAII,(808) 885-4444,Acute Care Hospitals,Voluntary non-profit - Private,43506,67 1125 mamalahoa highway
102786,USA,96750,kona community hospital,hi,kealakekua,HAWAII,(808) 322-9311,Acute Care Hospitals,Government - State,59325,791019 haukapila street
102787,USA,96763,lanai community hospital,hi,lanai city,MAUI,(808) 565-8450,Critical Access Hospitals,Government - State,10978,628 7th street
102788,USA,96766,wilcox memorial hospital,hi,lihue,KAUAI,(808) 245-1103,Acute Care Hospitals,Government - Federal,68207,33420 kuhio highway
102789,USA,96777,kau hospital,hi,pahala,HAWAII,(808) 928-8331,Critical Access Hospitals,Government - State,64096,1 kamani street
102790,USA,96786,wahiawa general hospital,hi,wahiawa,HONOLULU,(808) 621-8411,Acute Care Hospitals,Voluntary non-profit - Private,50826,128 lehuastreet
102791,USA,96790,kula hospital,hi,kula,MAUI,(808) 878-1221,Critical Access Hospitals,Government - State,12524,100 keokeaplace
102792,USA,96796,kauai veterans memorial hospital,hi,waimea,KAUAI,(808) 338-9431,Critical Access Hospitals,Government - State,38920,4643 waimea canyon drive
102793,USA,96819,kaiser foundation hospital,hi,honolulu,HONOLULU,(808) 432-0000,Acute Care Hospitals,Voluntary non-profit - Private,66820,3288 moanalua rd
102794,USA,96826,kapiolani medical center for women  children,hi,honolulu,HONOLULU,(808) 983-6000,Childrens,Voluntary non-profit - Private,42434,1319 punahou street
102795,USA,96859,tripler amc ft shafter,hi,honolulu,HONOLULU,(808) 433-2778,Acute Care - Department of Defense,Department of Defense,81731,1 jarrettwhite rd
102796,USA,96913,guam memorial hospital authority,gu,tamuning,GUAM,(671) 647-2552,Acute Care Hospitals,Government - Local,54071,85o gov carlos g camacho road
102797,USA,96929,guam regional medical city,gu,dededo,GUAM,(671) 645-5500,Acute Care Hospitals,Voluntary non-profit - Private,36848,133 route3
102798,USA,97058,midcolumbia medical center,or,the dalles,WASCO,(541) 296-1111,Acute Care Hospitals,Voluntary non-profit - Other,46675,1700 e 19th street
102799,USA,97103,columbia memorial hospital,or,astoria,CLATSOP,(503) 325-4321,Critical Access Hospitals,Proprietary,88512,2111 exchange street
102800,USA,97123,tuality community hospital,or,hillsboro,WASHINGTON,(503) 681-1111,Acute Care Hospitals,Voluntary non-profit - Private,43751,335 se 8thavenue
102801,USA,97124,kaiser foundation hospital  westside,or,hillsboro,WASHINGTON,(971) 310-1000,Acute Care Hospitals,Voluntary non-profit - Private,66753,2875 nw stucki ave
102802,USA,97128,willamette valley medical center,or,mcminnville,YAMHILL,(503) 472-6131,Acute Care Hospitals,Voluntary non-profit - Private,56085,2700 se stratus ave
102803,USA,97132,providence newberg medical center,or,newberg,YAMHILL,(503) 537-1555,Acute Care Hospitals,Voluntary non-profit - Church,71021,1001 providence drive
102804,USA,97138,providence seaside hospital,or,seaside,CLATSOP,(503) 717-7000,Critical Access Hospitals,Voluntary non-profit - Church,21436,725 s wahanna road
102805,USA,97141,adventist health tillamook,or,tillamook,TILLAMOOK,(503) 842-4444,Critical Access Hospitals,Voluntary non-profit - Church,71775,1000 thirdstreet
102806,USA,97213,providence portland medical center,or,portland,MULTNOMAH,(503) 215-1111,Acute Care Hospitals,Voluntary non-profit - Private,45224,4805 ne glisan street
102807,USA,97222,providence milwaukie hospital,or,milwaukie,CLACKAMAS,(503) 513-8336,Acute Care Hospitals,Voluntary non-profit - Church,64287,10150 se 32nd avenue
102808,USA,97225,cedar hills hospital,or,portland,WASHINGTON,(503) 944-5000,Psychiatric,Proprietary,76904,10300 sw eastridge street
102809,USA,97227,legacy emanuel medical center,or,portland,MULTNOMAH,(503) 413-2200,Acute Care Hospitals,Voluntary non-profit - Private,18668,2801 n gantenbein avenue
102810,USA,97239,ohsu hospital and clinics,or,portland,MULTNOMAH,(503) 494-6245,Acute Care Hospitals,Voluntary non-profit - Other,16766,3181 sw sam jacksonpark road
102812,USA,97301,oregon state hospital distinct part,or,salem,MARION,(503) 945-2870,Psychiatric,Government - State,21931,2600 center street ne
102813,USA,97301,salem hospital,or,salem,MARION,(503) 561-5200,Acute Care Hospitals,Voluntary non-profit - Other,94167,890 oak street se
102814,USA,97321,samaritan albany general hospital,or,albany,LINN,(541) 812-4000,Acute Care Hospitals,Voluntary non-profit - Church,56801,1046 6th avenue sw
102815,USA,97330,good samaritan regional medical center,or,corvallis,BENTON,(541) 768-5111,Acute Care Hospitals,Voluntary non-profit - Private,53540,3600 nw samaritan drive
102816,USA,97338,salem health west valley,or,dallas,POLK,(503) 623-8301,Critical Access Hospitals,Voluntary non-profit - Private,85042,525 se washington street
102817,USA,97365,samaritan pacific community hospital,or,newport,LINCOLN,(541) 265-2244,Critical Access Hospitals,Voluntary non-profit - Private,31822,930 sw abbey street
102818,USA,97401,sacred heart university district,or,eugene,LANE,(541) 686-7300,Acute Care Hospitals,Voluntary non-profit - Private,77125,1255 hilyard street
102819,USA,97411,southern coos hospital  health center,or,bandon,COOS,(541) 347-2426,Critical Access Hospitals,Government - Hospital District or Authority,28036,900 11th street se
102820,USA,97477,mckenziewillamette medical center,or,springfield,LANE,(541) 726-4400,Acute Care Hospitals,Voluntary non-profit - Private,42582,1460 g street
102821,USA,97477,sacred heart medical center  riverbend,or,springfield,LANE,(541) 222-7300,Acute Care Hospitals,Voluntary non-profit - Private,80445,3333 riverbend drive
102822,USA,97504,providence medford medical center,or,medford,JACKSON,(541) 732-5050,Acute Care Hospitals,Voluntary non-profit - Church,92106,1111 crater lake avenue
102823,USA,97527,asante three rivers medical center,or,grants pass,JOSEPHINE,(541) 472-7000,Acute Care Hospitals,Voluntary non-profit - Other,45149,500 sw ramsey avenue
102825,USA,97741,st charles madras,or,madras,JEFFERSON,(541) 475-3882,Critical Access Hospitals,Voluntary non-profit - Private,65265,470 ne a street
102826,USA,97756,st charles redmond,or,redmond,DESCHUTES,(541) 548-8131,Acute Care Hospitals,Voluntary non-profit - Private,26408,1253 nw canal blvd
102827,USA,97814,saint alphonsus medical center  baker city inc,or,baker city,BAKER,(541) 524-7744,Critical Access Hospitals,Voluntary non-profit - Church,54364,3325 pocahontas road
102828,USA,97836,pioneer memorial hospital,or,heppner,MORROW,(541) 676-9133,Critical Access Hospitals,Government - Hospital District or Authority,45769,564 e pioneer drive
102829,USA,97838,good shepherd medical center,or,hermiston,UMATILLA,(541) 667-3400,Critical Access Hospitals,Voluntary non-profit - Private,47782,610 nw 11th street
102830,USA,97845,blue mountain hospital,or,john day,GRANT,(541) 575-1311,Critical Access Hospitals,Government - Hospital District or Authority,82698,170 ford road
102831,USA,97850,grande ronde hospital,or,la grande,UNION,(541) 963-8421,Critical Access Hospitals,Voluntary non-profit - Private,18934,900 sunsetdrive
102832,USA,97914,saint alphonsus medical center  ontario inc,or,ontario,MALHEUR,(541) 881-7000,Acute Care Hospitals,Voluntary non-profit - Church,22165,351 sw 9thstreet
102833,USA,98001,multicare auburn medical center,wa,auburn,KING,(253) 833-7711,Acute Care Hospitals,Voluntary non-profit - Private,86831,202 northdivision street plaza one
102834,USA,98003,st francis community hospital,wa,federal way,KING,(253) 944-8100,Acute Care Hospitals,Voluntary non-profit - Church,67633,34515 9thavenue south
102835,USA,98004,overlake hospital medical center,wa,bellevue,KING,(425) 688-5000,Acute Care Hospitals,Voluntary non-profit - Other,46733,1035116thave ne
102836,USA,98022,st elizabeth hospital,wa,enumclaw,KING,(360) 825-2505,Critical Access Hospitals,Voluntary non-profit - Church,70581,1450 battersby avenue
102837,USA,98034,evergreenhealth medical center,wa,kirkland,KING,(425) 899-1000,Acute Care Hospitals,Government - Hospital District or Authority,78056,12040 ne 128th street
102838,USA,98055,valley medical center,wa,renton,KING,(425) 228-3450,Acute Care Hospitals,Government - Hospital District or Authority,70510,400 s 43rdst
102839,USA,98101,virginia mason medical center,wa,seattle,KING,(206) 223-6600,Acute Care Hospitals,Voluntary non-profit - Private,35513,925 senecast
102840,USA,98105,seattle childrens hospital,wa,seattle,KING,(206) 987-2000,Childrens,Voluntary non-profit - Private,55054,4800 sandpoint wayne po boxc5371
102841,USA,98112,kaiser permanente central hospital,wa,seattle,KING,(206) 326-3000,Acute Care Hospitals,Voluntary non-profit - Other,15964,201  16thavenue east
102842,USA,98122,swedish medical center  cherry hill,wa,seattle,KING,(206) 320-2000,Acute Care Hospitals,Voluntary non-profit - Church,93257,500 17th avenue
102843,USA,98126,navos,wa,seattle,KING,(206) 933-7299,Psychiatric,Voluntary non-profit - Private,94089,2600 southwest holden
102844,USA,98133,uw medicinenorthwest hospital,wa,seattle,KING,(206) 368-1700,Acute Care Hospitals,Voluntary non-profit - Other,21144,1550 north115th street
102845,USA,98221,island hospital,wa,anacortes,SKAGIT,(360) 299-1300,Acute Care Hospitals,Government - Hospital District or Authority,33446,1211 24thstreet
102846,USA,98225,st joseph hospital,wa,bellingham,WHATCOM,(360) 734-5400,Acute Care Hospitals,Voluntary non-profit - Other,51377,2901 squalicum parkway
102847,USA,98250,peacehealth peace island medical center,wa,friday harbor,SAN JUAN,(360) 378-2141,Critical Access Hospitals,Voluntary non-profit - Private,79334,1117 spring street
102848,USA,98271,smokey point behavioral hospital,wa,marysville,SNOHOMISH,(212) 243-5565,Psychiatric,Proprietary,50969,3955 156thst ne
102849,USA,98277,nh oak harbor,wa,oak harbor,ISLAND,(360) 257-9500,Acute Care - Department of Defense,Department of Defense,64163,3475 northsaratogastreet
102850,USA,98284,peacehealth united general medical center,wa,sedro woolley,SKAGIT,(360) 856-6021,Critical Access Hospitals,Government - Hospital District or Authority,44519,2000 hospital drive
102851,USA,98310,harrison memorial hospital,wa,bremerton,KITSAP,(360) 377-3911,Acute Care Hospitals,Voluntary non-profit - Private,22242,2520 cherry avenue
102852,USA,98331,forks community hospital,wa,forks,CLALLAM,(360) 374-6271,Critical Access Hospitals,Government - Hospital District or Authority,21313,530 bogachiel way
102853,USA,98332,st anthony hospital,wa,gig harbor,PIERCE,(253) 530-2050,Acute Care Hospitals,Voluntary non-profit - Church,24532,11567 canterwood boulevard nw
102854,USA,98356,arbor health morton hospital,wa,morton,LEWIS,(360) 496-5112,Critical Access Hospitals,Government - Hospital District or Authority,42370,521 adamsstreet
102855,USA,98362,olympic medical center,wa,port angeles,CLALLAM,(360) 417-7000,Acute Care Hospitals,Government - Local,91174,939 caroline st
102856,USA,98368,jefferson healthcare,wa,port townsend,JEFFERSON,(360) 385-2200,Critical Access Hospitals,Government - Hospital District or Authority,94948,834 sheridan street
102857,USA,98405,tacoma general allenmore hospital,wa,tacoma,PIERCE,(253) 403-1000,Acute Care Hospitals,Voluntary non-profit - Private,74954,315 s mlkjr way
102858,USA,98415,mary bridge childrens hospital,wa,tacoma,PIERCE,(253) 403-1400,Childrens,Voluntary non-profit - Other,19278,317 martinluther king jr w box 5299
102859,USA,98431,madigan amc ft lewis,wa,tacoma,PIERCE,(253) 968-1110,Acute Care - Department of Defense,Department of Defense,54610,9040 jackson avenue
102860,USA,98506,providence st peter hospital,wa,olympia,THURSTON,(360) 491-9480,Acute Care Hospitals,Voluntary non-profit - Private,31432,413 lillyroad ne
102861,USA,98584,mason general hospital  family of clinics,wa,shelton,MASON,(360) 426-1611,Critical Access Hospitals,Government - Hospital District or Authority,72802,901 mt view drive
102862,USA,98624,ocean beach hospital,wa,ilwaco,PACIFIC,(360) 642-3181,Critical Access Hospitals,Government - State,17816,174 firstavenue north
102863,USA,98668,peacehealth southwest medical center,wa,vancouver,CLARK,(360) 256-2000,Acute Care Hospitals,Voluntary non-profit - Private,85685,400 ne mother josephplace
102864,USA,98801,confluence health wenatchee valley hosp  clinics,wa,wenatchee,CHELAN,(509) 663-8711,Acute Care Hospitals,Voluntary non-profit - Private,23176,820 northchelan avenue
102865,USA,98807,central washington hospital,wa,wenatchee,CHELAN,(509) 662-1511,Acute Care Hospitals,Voluntary non-profit - Private,19504,1201 southmiller street
102866,USA,98812,three rivers hospital,wa,brewster,OKANOGAN,(509) 689-2517,Critical Access Hospitals,Government - Hospital District or Authority,12339,507 hospital way
102867,USA,98816,lake chelan community hospital,wa,chelan,CHELAN,(509) 682-3300,Critical Access Hospitals,Government - Hospital District or Authority,81542,503 east highland
102868,USA,98823,columbia basin hospital,wa,ephrata,GRANT,(509) 754-4631,Critical Access Hospitals,Government - Hospital District or Authority,45078,200 nat washington way
102869,USA,98826,cascade medical center,wa,leavenworth,CHELAN,(509) 548-5815,Critical Access Hospitals,Government - Hospital District or Authority,59889,817 commercial street
102870,USA,98841,mid valley hospital,wa,omak,OKANOGAN,(509) 826-1760,Critical Access Hospitals,Government - Hospital District or Authority,59973,810 jasmine street
102871,USA,98855,north valley hospital,wa,tonasket,OKANOGAN,(509) 486-2151,Critical Access Hospitals,Government - Local,29665,203 southwestern
102872,USA,98902,astria regional medical center,wa,yakima,YAKIMA,(509) 575-5102,Acute Care Hospitals,Proprietary,42373,110 southninth ave
102873,USA,98902,yakima valley memorial hospital,wa,yakima,YAKIMA,(509) 575-8000,Acute Care Hospitals,Voluntary non-profit - Private,21199,2811 tieton drive
102874,USA,98944,astria sunnyside hospital,wa,sunnyside,YAKIMA,(509) 837-1500,Critical Access Hospitals,Voluntary non-profit - Private,89852,1016 tacoma avenue
102875,USA,98948,astria toppenish hospital,wa,toppenish,YAKIMA,(509) 865-1520,Acute Care Hospitals,Voluntary non-profit - Private,35365,502 w fourth ave
102876,USA,99022,eastern state hospital,wa,medical lake,SPOKANE,(509) 565-4000,Psychiatric,Government - State,54943,850 maplestreet  po box a
102877,USA,99109,providence st joseph hospital,wa,chewelah,STEVENS,(509) 935-8211,Critical Access Hospitals,Voluntary non-profit - Church,58805,500 east webster
102878,USA,99133,coulee medical center,wa,grand coulee,GRANT,(509) 633-1753,Critical Access Hospitals,Government - Hospital District or Authority,69960,411 fortuyn road
102879,USA,99156,newport community hospital,wa,newport,PEND OREILLE,(509) 447-2441,Critical Access Hospitals,Government - Hospital District or Authority,74219,714 west pine street
102880,USA,99163,pullman regional hospital,wa,pullman,WHITMAN,(509) 332-2541,Critical Access Hospitals,Government - Hospital District or Authority,90039,835 s bishop blvd
102881,USA,99204,inland northwest behavioral health,wa,spokane,SPOKANE,(425) 821-2000,Psychiatric,Proprietary,81024,104 w 5thave
102882,USA,99208,providence holy family hospital,wa,spokane,SPOKANE,(509) 482-2450,Acute Care Hospitals,Voluntary non-profit - Private,66636,5633 northlidgerwood
102883,USA,99216,multicare valley hospital,wa,spokane,SPOKANE,(509) 924-6650,Acute Care Hospitals,Voluntary non-profit - Private,22533,12606 eastmission avenue
102884,USA,99328,dayton general hospital,wa,dayton,COLUMBIA,(509) 382-2531,Critical Access Hospitals,Government - Hospital District or Authority,15530,1012 south3rd street
102885,USA,99344,othello community hospital,wa,othello,ADAMS,(509) 488-2636,Critical Access Hospitals,Government - Hospital District or Authority,46842,315 north14th avenue
102886,USA,99347,garfield county memorial hospital,wa,pomeroy,GARFIELD,(509) 843-1591,Critical Access Hospitals,Government - Hospital District or Authority,65895,66 north sixth street
102887,USA,99352,kadlec regional medical center,wa,richland,BENTON,(509) 946-4611,Acute Care Hospitals,Voluntary non-profit - Private,52274,888 swiftblvd
102888,USA,99352,lourdes counseling center,wa,richland,BENTON,(509) 943-9104,Psychiatric,Voluntary non-profit - Private,57283,1175 carondelet drive
102889,USA,99506,673rd medical group joint base elmendorfrichardson,ak,jber,ANCHORAGE,(907) 384-1110,Acute Care - Department of Defense,Department of Defense,69186,673 mdg 5955 zeamerave
102890,USA,99508,alaska regional hospital,ak,anchorage,ANCHORAGE,(907) 276-1131,Acute Care Hospitals,Proprietary,34416,2801 debarr road
102891,USA,99508,north star hospital,ak,anchorage,ANCHORAGE,(907) 264-3526,Psychiatric,Proprietary,93896,2530 debarr rd
102892,USA,99508,providence alaska medical center,ak,anchorage,ANCHORAGE,(907) 562-2211,Acute Care Hospitals,Voluntary non-profit - Church,17842,3200 providence drive
102893,USA,99559,yukon kuskokwim delta reg hospital,ak,bethel,BETHEL,(907) 543-6300,Acute Care Hospitals,Tribal,35218,po box 287
102894,USA,99576,kanakanak hospital,ak,dillingham,DILLINGHAM,(907) 842-5201,Critical Access Hospitals,Voluntary non-profit - Private,23801,p o box 130
102895,USA,99703,bassett ach ft wainwright,ak,fort wainwright,FAIRBANKS NORTH STAR,(907) 361-4000,Acute Care - Department of Defense,Department of Defense,23236,4076 neelyroad
102896,USA,99723,samuel simmonds memorial hospital,ak,barrow,NORTH SLOPE BOROUH,(907) 852-4611,Critical Access Hospitals,Government - Federal,38261,7000 uulast
102897,USA,99752,maniilaq health center,ak,kotzebue,NORTHWEST ARTIC BOROUGH,(907) 442-3321,Critical Access Hospitals,Tribal,47958,po box 43
102899,USA,99835,mt edgecumbe hospital,ak,sitka,SITKA BOROUGH,(907) 966-2411,Critical Access Hospitals,Voluntary non-profit - Private,31448,222 tongass dr
102900,USA,99835,sitka community hospital,ak,sitka,SITKA BOROUGH,(907) 747-3241,Critical Access Hospitals,Government - Local,76173,209 mollerdrive
102901,USA,99901,ketchikan medical center,ak,ketchikan,KETCHIKAN GATEWAY,(907) 225-5171,Critical Access Hospitals,Voluntary non-profit - Church,37459,3100 tongass avenue
102002,USA,71671,bradley county medical center,ar,warren,BRADLEY,(870) 226-3731,Critical Access Hospitals,Voluntary non-profit - Private,27766,404 southbradley street
102003,USA,71701,ouachita county medical center,ar,camden,OUACHITA,(870) 836-1000,Acute Care Hospitals,Voluntary non-profit - Private,48279,638 california avenue
102004,USA,71801,wadley regional medical center at hope,ar,hope,HEMPSTEAD,(870) 722-3800,Acute Care Hospitals,Proprietary,78402,2001 southmain
102005,USA,71822,little river memorial hospital,ar,ashdown,LITTLE RIVER,(870) 898-5011,Critical Access Hospitals,Voluntary non-profit - Private,75948,451 west locke street
102006,USA,71901,national park medical center,ar,hot springs,GARLAND,(501) 321-1000,Acute Care Hospitals,Proprietary,57686,1910 malvern avenue
102007,USA,71923,baptist health medical centerarkadelphia,ar,arkadelphia,CLARK,(870) 245-2622,Critical Access Hospitals,Voluntary non-profit - Private,57721,3050 twinrivers drive
102008,USA,71953,mena regional health system,ar,mena,POLK,(479) 394-6100,Acute Care Hospitals,Government - Local,29659,311 northmorrow street
102009,USA,72015,saline memorial hospital,ar,benton,SALINE,(501) 776-6000,Acute Care Hospitals,Proprietary,26586,1 medicalpark drive
102010,USA,72019,rivendell behavioral health services of arkansas,ar,benton,SALINE,(501) 316-1255,Psychiatric,Proprietary,18224,100 rivendell drive
102011,USA,72031,ozark health,ar,clinton,VAN BUREN,(501) 745-7000,Critical Access Hospitals,Voluntary non-profit - Private,29805,2500 highway 65 south
102012,USA,72032,baptist health medical centerconway,ar,conway,FAULKNER,(501) 585-2000,Acute Care Hospitals,Voluntary non-profit - Private,78126,1555 exchange avenue
102013,USA,72034,conway behavioral health,ar,conway,FAULKNER,(501) 205-0011,Psychiatric,Proprietary,40998,2255 sturgis road
102014,USA,72034,conway regional health system,ar,conway,FAULKNER,(501) 329-3831,Acute Care Hospitals,Voluntary non-profit - Private,43936,2302 college avenue
102015,USA,72042,dewitt hospital  nursing home inc,ar,de witt,ARKANSAS,(870) 946-3571,Critical Access Hospitals,Voluntary non-profit - Private,19894,1641 whitehead drive
102016,USA,72104,baptist health medical centerhot springs county,ar,malvern,HOT SPRING,(501) 332-1000,Acute Care Hospitals,Voluntary non-profit - Private,17561,1001 schneider drive
102017,USA,72110,chi st vincent morrilton,ar,morrilton,CONWAY,(501) 977-2300,Critical Access Hospitals,Voluntary non-profit - Church,82937,4 hospital drive
102018,USA,72113,united methodist behavioral hospital,ar,maumelle,PULASKI,(501) 803-3388,Psychiatric,Voluntary non-profit - Private,91457,1601 murphy drive
102019,USA,72117,baptist health medical center north little rock,ar,north little rock,PULASKI,(501) 202-3000,Acute Care Hospitals,Voluntary non-profit - Private,13901,3333 springhill drive
102020,USA,72120,st vincent medical centernorth,ar,sherwood,PULASKI,(501) 552-7100,Acute Care Hospitals,Voluntary non-profit - Church,52696,2215 wildwood avenue
102021,USA,72202,arkansas childrens hospital,ar,little rock,PULASKI,(501) 364-1100,Childrens,Voluntary non-profit - Private,28792,1 childrens way slot 301
102022,USA,72205,arkansas state hospital,ar,little rock,PULASKI,(501) 686-9000,Psychiatric,Government - State,11955,305 s palmstreet
102023,USA,72205,baptist health medical centerlittle rock,ar,little rock,PULASKI,(501) 202-2000,Acute Care Hospitals,Voluntary non-profit - Private,63626,9601 interstate
102024,USA,72205,chist vincent infirmary,ar,little rock,PULASKI,(501) 552-3000,Acute Care Hospitals,Voluntary non-profit - Private,22372,two st vincent circle
102025,USA,72205,uams medical center,ar,little rock,PULASKI,(501) 686-5000,Acute Care Hospitals,Government - State,68697,4301 westmarkham street mailslot 612
102026,USA,72211,arkansas heart hospital llc,ar,little rock,PULASKI,(501) 219-7000,Acute Care Hospitals,Proprietary,35446,1701 s shackleford road
102027,USA,72301,woodridge behavioral center,ar,west memphis,CRITTENDEN,(870) 394-4113,Psychiatric,Proprietary,70116,600 north7th street
102028,USA,72315,great river medical center,ar,blytheville,MISSISSIPPI,(870) 838-7300,Acute Care Hospitals,Government - Local,93009,1520 n division street
102029,USA,72335,forrest city medical center,ar,forrest city,ST. FRANCIS,(870) 261-0000,Acute Care Hospitals,Proprietary,71664,1601 newcastle road
102030,USA,72396,crossridge community hospital,ar,wynne,CROSS,(870) 238-3300,Critical Access Hospitals,Voluntary non-profit - Private,89468,310 southfalls boulevard
102031,USA,72401,nea baptist memorial hospital,ar,jonesboro,CRAIGHEAD,(870) 972-7000,Acute Care Hospitals,Voluntary non-profit - Private,42860,4800 eastjohnson avenue
102032,USA,72401,st bernards medical center,ar,jonesboro,CRAIGHEAD,(870) 972-4100,Acute Care Hospitals,Voluntary non-profit - Private,86331,225 e jackson
102033,USA,72454,piggott community hospital,ar,piggott,CLAY,(870) 598-3881,Critical Access Hospitals,Government - Local,42568,216 east main street
102034,USA,72455,five rivers medical center,ar,pocahontas,RANDOLPH,(870) 892-6000,Acute Care Hospitals,Government - Local,90812,2801 medical centerdrive
102035,USA,72616,mercy hospital berryville,ar,berryville,CARROLL,(870) 423-3355,Critical Access Hospitals,Voluntary non-profit - Church,93574,214 carterstreet
102036,USA,72632,eureka springs hospital llc,ar,eureka springs,CARROLL,(479) 253-7400,Critical Access Hospitals,Proprietary,70756,24 norrisstreet
102037,USA,72703,northwest health physicians specialty hospital,ar,fayetteville,WASHINGTON,(479) 571-7002,Acute Care Hospitals,Proprietary,12617,3873 northparkviewdrive
102038,USA,72703,vantage point of northwest arkansas,ar,fayetteville,WASHINGTON,(479) 521-5731,Psychiatric,Proprietary,88944,4253 crossover road
102039,USA,72758,mercy hospital northwest arkansas,ar,rogers,BENTON,(479) 338-8000,Acute Care Hospitals,Voluntary non-profit - Church,10472,2710 southrife medical lane
102040,USA,72761,siloam springs regional hospital,ar,siloam springs,BENTON,(479) 524-4141,Acute Care Hospitals,Voluntary non-profit - Other,66675,603 northprogress avenue
102041,USA,72762,arkansas childrens northwest inc,ar,springdale,WASHINGTON,(479) 725-6800,Childrens,Voluntary non-profit - Private,69151,2601 genegeorge boulevard
102043,USA,72927,mercy hospital booneville,ar,booneville,LOGAN,(479) 675-2800,Critical Access Hospitals,Voluntary non-profit - Private,94514,880 west main
102044,USA,72949,mercy hospital turner memorial,ar,ozark,FRANKLIN,(479) 667-4138,Critical Access Hospitals,Voluntary non-profit - Private,48348,801 west river street
102045,USA,73015,carnegie tricounty municipal hospital,ok,carnegie,CADDO,(580) 654-1050,Critical Access Hospitals,Government - Hospital District or Authority,70661,102 northbroadway
102046,USA,73034,integris health edmond,ok,edmond,OKLAHOMA,(405) 657-3000,Acute Care Hospitals,Voluntary non-profit - Private,58456,4801 integris parkway
102047,USA,73052,lindsay municipal hospital,ok,lindsay,GARVIN,(405) 756-1404,Acute Care Hospitals,Government - Hospital District or Authority,77126,1305 w cherokee street  highway 19 west
102048,USA,73070,griffin memorial hospital,ok,norman,CLEVELAND,(405) 321-4880,Psychiatric,Government - State,39646,900 east main street
102049,USA,73070,norman regional,ok,norman,CLEVELAND,(405) 307-1050,Acute Care Hospitals,Government - Hospital District or Authority,78785,901 n porter
102050,USA,73077,stillwater medical  perry,ok,perry,NOBLE,(580) 336-3541,Acute Care Hospitals,Government - Hospital District or Authority,45831,501 n 14thst
102051,USA,73080,purcell municipal hospital,ok,purcell,MCCLAIN,(405) 527-6524,Acute Care Hospitals,Government - Local,24477,1500 northgreen avenue
102052,USA,73096,weatherford regional hospital inc of weatherford,ok,weatherford,CUSTER,(580) 772-5551,Critical Access Hospitals,Government - Hospital District or Authority,27806,3701 e main
102054,USA,73109,onecore health,ok,oklahoma city,OKLAHOMA,(405) 631-3085,Acute Care Hospitals,Voluntary non-profit - Other,22141,1044 sw 44th suite350
102055,USA,73114,mcbride orthopedic hospital,ok,oklahoma city,OKLAHOMA,(405) 486-2100,Acute Care Hospitals,Physician,37948,9600 northbroadwayextension
102056,USA,73120,lakeside womens hospital a member of integris he,ok,oklahoma city,OKLAHOMA,(405) 936-1500,Acute Care Hospitals,Physician,68009,11200 north portlandavenue
102057,USA,73129,surgical hospital of oklahoma llc,ok,oklahoma city,OKLAHOMA,(405) 634-9300,Acute Care Hospitals,Physician,90979,100 southeast 59th street
102058,USA,73135,oklahoma heart hospital south llc,ok,oklahoma city,OKLAHOMA,(405) 628-6000,Acute Care Hospitals,Physician,93412,5200 easti240 service road
102059,USA,73139,oklahoma center for orthopaedic  multisp,ok,oklahoma city,OKLAHOMA,(405) 602-6500,Acute Care Hospitals,Proprietary,43316,8100 southwalker bldg c
102060,USA,73141,cedar ridge behavioral hospital,ok,oklahoma city,OKLAHOMA,(405) 605-6111,Psychiatric,Proprietary,48191,6501 northeast 50thstreet
102062,USA,73162,integris community hospital  council crossing,ok,oklahoma city,OKLAHOMA,(405) 550-3280,Acute Care Hospitals,Proprietary,35296,9417 n council road
102063,USA,73401,mercy hospital ardmore inc,ok,ardmore,CARTER,(580) 223-5400,Acute Care Hospitals,Voluntary non-profit - Private,21648,1011 fourteenth avenue northwest
102064,USA,73438,mercy hospital healdton inc,ok,healdton,CARTER,(580) 229-0701,Critical Access Hospitals,Voluntary non-profit - Private,69338,3462 hospital rd
102065,USA,73446,alliancehealth madill,ok,madill,MARSHALL,(580) 795-3384,Critical Access Hospitals,Proprietary,12144,901 s 5thave
102066,USA,73448,mercy health love county,ok,marietta,LOVE,(580) 276-3347,Critical Access Hospitals,Government - Local,70314,300 wandastreet
102067,USA,73460,mercy hospital tishomingo,ok,tishomingo,JOHNSTON,(580) 371-2327,Critical Access Hospitals,Voluntary non-profit - Church,29251,1000 southbyrd
102068,USA,73505,comanche county memorial hospital,ok,lawton,COMANCHE,(580) 355-8620,Acute Care Hospitals,Government - Hospital District or Authority,51720,3401 westgore blvd
102069,USA,73505,southwestern medical center,ok,lawton,COMANCHE,(580) 531-4700,Acute Care Hospitals,Proprietary,47733,5602 southwest lee boulevard
102070,USA,73507,lawton indian hospital,ok,lawton,COMANCHE,(580) 354-5000,Acute Care Hospitals,Government - Federal,45043,1515 lawrie tatum road
102071,USA,73521,jackson county memorial hospital authority,ok,altus,JACKSON,(580) 379-5000,Acute Care Hospitals,Government - Hospital District or Authority,31862,1200 eastpecan st
102072,USA,73533,duncan regional hospital inc,ok,duncan,STEPHENS,(580) 252-5300,Acute Care Hospitals,Voluntary non-profit - Private,71318,1407 whisenant drive
102073,USA,73550,harmon memorial hospital,ok,hollis,HARMON,(580) 688-3363,Critical Access Hospitals,Government - Hospital District or Authority,63519,400 east chestnut street
102074,USA,73573,jefferson county hospital,ok,waurika,JEFFERSON,(580) 228-2344,Critical Access Hospitals,Voluntary non-profit - Private,59571,intersection hyws 81 70
102075,USA,73601,alliancehealth clinton,ok,clinton,CUSTER,(580) 323-2363,Acute Care Hospitals,Voluntary non-profit - Other,45440,100 north30th street
102076,USA,73628,roger mills memorial hospital,ok,cheyenne,ROGER MILLS,(580) 497-3336,Critical Access Hospitals,Government - Hospital District or Authority,10222,501 southl l malesavenue
102077,USA,73651,elkview general hospital,ok,hobart,KIOWA,(580) 726-3324,Acute Care Hospitals,Government - Hospital District or Authority,89226,429 west elm street
102078,USA,73663,seiling municipal hospital,ok,seiling,DEWEY,(580) 922-7361,Critical Access Hospitals,Government - Local,37205,809 ne highway 60
102079,USA,73701,integris bass baptist health center,ok,enid,GARFIELD,(580) 233-2300,Acute Care Hospitals,Voluntary non-profit - Private,21894,600 southmonroe
102080,USA,73717,share medical center,ok,alva,WOODS,(580) 327-2800,Critical Access Hospitals,Government - Hospital District or Authority,14541,800 sharedrive
102081,USA,73763,okeene municipal hospital,ok,okeene,BLAINE,(580) 822-4417,Critical Access Hospitals,Government - Hospital District or Authority,15356,207 east fstreet
102082,USA,73841,northwest center for behavioral health ncbh,ok,fort supply,WOODWARD,(580) 766-2311,Psychiatric,Government - State,82227,1 mile east us highway 270
102083,USA,73932,beaver county memorial hospital,ok,beaver,BEAVER,(580) 625-4551,Critical Access Hospitals,Government - Hospital District or Authority,18065,212 east 8th street
102084,USA,74017,claremore indian hospital,ok,claremore,ROGERS,(918) 341-8430,Acute Care Hospitals,Tribal,84806,101 southmoore ave
102085,USA,74020,cleveland area hospital,ok,cleveland,PAWNEE,(918) 358-2501,Critical Access Hospitals,Government - Hospital District or Authority,77530,1401 westpawnee
102086,USA,74023,hillcrest hospital cushing,ok,cushing,PAYNE,(918) 225-2915,Acute Care Hospitals,Proprietary,19845,1027 eastcherry street
102087,USA,74030,drumright regional hospital,ok,drumright,CREEK,(918) 382-2300,Critical Access Hospitals,Proprietary,26514,610 west bypass
102088,USA,74055,bailey medical center llc,ok,owasso,TULSA,(918) 376-8000,Acute Care Hospitals,Proprietary,30502,10502 north 110th east avenue
102089,USA,74055,st john owasso,ok,owasso,TULSA,(918) 274-5100,Acute Care Hospitals,Voluntary non-profit - Private,11168,12451 east100th street north
102090,USA,74076,stillwater medical center,ok,stillwater,PAYNE,(405) 372-1480,Acute Care Hospitals,Voluntary non-profit - Other,87418,1323 west6th street
102091,USA,74079,stroud regional medical center,ok,stroud,LINCOLN,(918) 968-3571,Critical Access Hospitals,Voluntary non-profit - Private,36862,2308 highway 66 west
102093,USA,74127,oklahoma state university medical center,ok,tulsa,TULSA,(918) 599-1000,Acute Care Hospitals,Government - State,17450,744 west 9th street
102094,USA,74133,saint francis hospital south llc,ok,tulsa,TULSA,(918) 307-6000,Acute Care Hospitals,Voluntary non-profit - Private,44434,10501 east91st street south
102095,USA,74136,saint francis hospital inc,ok,tulsa,TULSA,(918) 494-2200,Acute Care Hospitals,Voluntary non-profit - Private,41937,6161 southyale
102096,USA,74137,oklahoma surgical hospital llc,ok,tulsa,TULSA,(918) 477-5095,Acute Care Hospitals,Physician,48063,2408 east81st street suite 300
102097,USA,74301,saint francis hospital vinita inc,ok,vinita,CRAIG,(918) 256-7551,Acute Care Hospitals,Voluntary non-profit - Private,59542,735 northforeman street
102099,USA,74355,integris miami hospital,ok,miami,OTTAWA,(918) 542-6611,Acute Care Hospitals,Voluntary non-profit - Other,14766,200 secondavenue southwest
102100,USA,74361,hillcrest hospital pryor,ok,pryor,MAYES,(918) 825-1600,Acute Care Hospitals,Proprietary,90266,111 northbailey street
102101,USA,74401,saint francis hospital muskogee,ok,muskogee,MUSKOGEE,(918) 682-5501,Acute Care Hospitals,Voluntary non-profit - Private,23597,300 rockefeller drive
102102,USA,74437,hillcrest hospital henryetta,ok,henryetta,OKMULGEE,(918) 650-1511,Acute Care Hospitals,Proprietary,89423,2401 w main
102103,USA,74447,muscogee creek nation medical center,ok,okmulgee,OKMULGEE,(918) 756-4233,Acute Care Hospitals,Tribal,77462,1401 morris drive
102104,USA,74462,haskell county community hospital,ok,stigler,HASKELL,(918) 967-4682,Critical Access Hospitals,Proprietary,43722,401 northwest h street
102105,USA,74465,northeastern health system,ok,tahlequah,CHEROKEE,(918) 456-0641,Acute Care Hospitals,Government - Local,25426,1400 eastdowning street
102106,USA,74467,wagoner community hospital,ok,wagoner,WAGONER,(918) 485-5514,Acute Care Hospitals,Government - Hospital District or Authority,60264,1200 westcherokee street
102107,USA,74501,carl albert community mental health center,ok,mcalester,PITTSBURG,(918) 426-7800,Psychiatric,Government - State,78981,1101 eastmonroe
102108,USA,74525,atoka county medical center,ok,atoka,ATOKA,(580) 889-3333,Critical Access Hospitals,Government - Hospital District or Authority,25157,1590 westliberty road
102109,USA,74538,mary hurley hospital,ok,coalgate,COAL,(580) 927-2327,Critical Access Hospitals,Proprietary,81364,6 north covington
102111,USA,74631,blackwell regional hospital,ok,blackwell,KAY,(580) 363-2311,Acute Care Hospitals,Voluntary non-profit - Private,44887,710 south13th street
102112,USA,74637,fairfax community hospital,ok,fairfax,OSAGE,(918) 642-3291,Critical Access Hospitals,Voluntary non-profit - Other,58936,40 hospital road
102113,USA,74743,choctaw memorial hospital,ok,hugo,CHOCTAW,(580) 317-9500,Acute Care Hospitals,Government - Hospital District or Authority,32380,1405 eastkirk road
102114,USA,74804,ssm health st anthony hospital  shawnee,ok,shawnee,POTTAWATOMIE,(405) 878-8110,Acute Care Hospitals,Voluntary non-profit - Private,32628,1102 w macarthur
102115,USA,74820,chickasaw nation medical center,ok,ada,PONTOTOC,(580) 436-3980,Acute Care Hospitals,Voluntary non-profit - Other,87008,1921 stonecipher blvd
102116,USA,74820,mercy hospital ada,ok,ada,PONTOTOC,(580) 332-2323,Acute Care Hospitals,Voluntary non-profit - Private,80511,430 northmonte vista
102117,USA,74820,rolling hills hospital llc,ok,ada,PONTOTOC,(580) 436-3600,Psychiatric,Proprietary,21303,1000 rolling hills lane
102118,USA,74859,creek nation community hospital,ok,okemah,OKFUSKEE,(918) 623-1424,Critical Access Hospitals,Tribal,48349,1800 e coplin
102119,USA,74953,eastern oklahoma medical center,ok,poteau,LE FLORE,(918) 647-8161,Critical Access Hospitals,Government - Hospital District or Authority,94019,105 wall street
102120,USA,74955,sequoyah countycity of sallisaw hospital authorit,ok,sallisaw,SEQUOYAH,(918) 774-1100,Acute Care Hospitals,Government - Hospital District or Authority,14677,213 east redwood
102121,USA,74960,memorial hospital,ok,stilwell,ADAIR,(918) 696-3101,Acute Care Hospitals,Voluntary non-profit - Private,81835,1401 westlocust
102122,USA,75010,baylor scott and white medical center carrollton,tx,carrollton,DENTON,(972) 394-2255,Acute Care Hospitals,Proprietary,60539,4343 northjosey lane
102123,USA,75010,carrollton springs,tx,carrollton,DENTON,(972) 242-4114,Psychiatric,Proprietary,20239,2225 parker road
102124,USA,75034,baylor medical center at frisco,tx,frisco,DENTON,(214) 618-2000,Acute Care Hospitals,Proprietary,49231,5601 warren parkway
102125,USA,75039,medical city las colinas,tx,irving,DALLAS,(972) 969-2000,Acute Care Hospitals,Proprietary,44697,6800 n macarthur blvd
102126,USA,75057,medical center of lewisville,tx,lewisville,DENTON,(972) 420-1000,Acute Care Hospitals,Voluntary non-profit - Private,28774,500 west main street
102127,USA,75063,baylor surgical hospital at las colinas,tx,irving,DALLAS,(972) 868-4000,Acute Care Hospitals,Proprietary,20878,400 west interstate635 suite101
102128,USA,75070,methodist mckinney hospital,tx,mckinney,COLLIN,(214) 491-5710,Acute Care Hospitals,Proprietary,33312,8000 w eldorado pkwybldg c suite c
102129,USA,75075,medical city plano,tx,plano,COLLIN,(972) 596-6800,Acute Care Hospitals,Proprietary,82893,3901 w 15th st
102130,USA,75088,baylor scott and white medical center lake pointe,tx,rowlett,DALLAS,(972) 412-2273,Acute Care Hospitals,Proprietary,47088,6800 scenic dr
102131,USA,75090,baylor scott and white surgical hospital at sherma,tx,sherman,GRAYSON,(903) 813-3728,Acute Care Hospitals,Physician,27669,3601 calais drive
102132,USA,75091,wilson n jones regional medical center,tx,sherman,GRAYSON,(903) 870-4611,Acute Care Hospitals,Proprietary,18260,500 n highland avenue
102133,USA,75093,texas health center for diagnostics  surgery plan,tx,plano,COLLIN,(972) 403-2700,Acute Care Hospitals,Proprietary,36283,6020 w parker road
102135,USA,75093,the heart hospital baylor plano,tx,plano,COLLIN,(469) 814-3278,Acute Care Hospitals,Proprietary,40837,1100 allied drive
102136,USA,75093,wellbridge healthcare of plano,tx,plano,COLLIN,(972) 596-5445,Psychiatric,Proprietary,25746,4301 mapleshade lane
102137,USA,75110,navarro regional hospital,tx,corsicana,NAVARRO,(903) 654-6800,Acute Care Hospitals,Government - Hospital District or Authority,66859,3201 westhighway 22
102138,USA,75115,dallas behavioral healthcare hospital llc,tx,de soto,DALLAS,(972) 296-1005,Psychiatric,Proprietary,78883,800 kirnwood drive
102139,USA,75119,ennis regional medical center,tx,ennis,ELLIS,(972) 875-0900,Acute Care Hospitals,Proprietary,68919,2201 westlampasas street
102140,USA,75140,texas general hospital vzrmc lp,tx,grand saline,VAN ZANDT,(903) 962-5200,Acute Care Hospitals,Proprietary,65937,707 n waldrip st
102141,USA,75142,texas health presbyterian hospital kaufman,tx,kaufman,KAUFMAN,(972) 932-7200,Acute Care Hospitals,Voluntary non-profit - Private,76117,850 ed hall
102142,USA,75146,crescent medical center lancaster,tx,lancaster,DALLAS,(972) 230-8888,Acute Care Hospitals,Physician,64506,2600 westpleasant run road
102143,USA,75149,dallas regional medical center,tx,mesquite,DALLAS,(214) 320-7000,Acute Care Hospitals,Proprietary,34667,1011 northgallowayavenue
102144,USA,75160,terrell state hospital,tx,terrell,KAUFMAN,(972) 524-6452,Psychiatric,Government - State,50142,1200 e brin street
102145,USA,75182,baylor scott and white medical center sunnyvale,tx,sunnyvale,DALLAS,(972) 892-3000,Acute Care Hospitals,Proprietary,16341,231 southcollins road
102146,USA,75204,baylor scott and white medical center uptown,tx,dallas,DALLAS,(214) 443-3000,Acute Care Hospitals,Proprietary,49986,2727 eastlemmon avenue building i
102147,USA,75219,texas scottish rite hospital for children,tx,dallas,DALLAS,(214) 559-5000,Childrens,Voluntary non-profit - Private,44158,2222 welborn street
102148,USA,75230,medical city dallas,tx,dallas,DALLAS,(972) 566-6222,Acute Care Hospitals,Proprietary,42389,7777 forest lane
102149,USA,75231,texas health presbyterian hospital dallas,tx,dallas,DALLAS,(214) 345-6789,Acute Care Hospitals,Voluntary non-profit - Private,24050,8200 walnut hill lane
102150,USA,75234,dallas medical center,tx,dallas,DALLAS,(972) 247-1000,Acute Care Hospitals,Proprietary,56874,7 medicalparkway
102151,USA,75237,methodist charlton medical center,tx,dallas,DALLAS,(214) 947-7777,Acute Care Hospitals,Voluntary non-profit - Private,41180,3500 w wheatland road
102152,USA,75246,baylor university medical center,tx,dallas,DALLAS,(214) 820-0111,Acute Care Hospitals,Voluntary non-profit - Church,11893,3500 gaston ave
102153,USA,75251,green oaks hospital,tx,dallas,DALLAS,(972) 991-9504,Psychiatric,Voluntary non-profit - Other,54437,7808 clodus fields drive
102154,USA,75390,ut southwestern university hospital,tx,dallas,DALLAS,(214) 633-5555,Acute Care Hospitals,Government - State,54165,6201 harryhines blvd
102156,USA,75418,tmc bonham hospital,tx,bonham,FANNIN,(903) 640-7311,Critical Access Hospitals,Government - Hospital District or Authority,27523,504 lipscomb street
102157,USA,75494,christus mother frances hospital winnsboro,tx,winnsboro,WOOD,(903) 342-5227,Critical Access Hospitals,Voluntary non-profit - Private,48820,719 west coke road
102158,USA,75504,christus st michael health system,tx,texarkana,BOWIE,(903) 614-1000,Acute Care Hospitals,Voluntary non-profit - Church,23014,2600 st michael dr
102159,USA,75633,ut health east texas carthage hospital,tx,carthage,PANOLA,(093) 693-3841,Acute Care Hospitals,Voluntary non-profit - Private,38005,409 cottage rd
102160,USA,75652,ut health east texas henderson hospital,tx,henderson,RUSK,(903) 657-7541,Acute Care Hospitals,Voluntary non-profit - Private,12229,300 wilsonstreet
102161,USA,75701,baylor scott  white texas spine  joint hospital,tx,tyler,SMITH,(903) 525-3300,Acute Care Hospitals,Physician,24590,1814 roseland boulevard
102162,USA,75701,christus mother frances hospital,tx,tyler,SMITH,(903) 593-8441,Acute Care Hospitals,Voluntary non-profit - Private,28565,800 east dawson
102163,USA,75708,university of texas health science center at tyler,tx,tyler,SMITH,(903) 877-7777,Acute Care Hospitals,Government - State,35190,11937 us highway 271
102164,USA,75766,ut health east texas jacksonville hospital,tx,jacksonville,CHEROKEE,(903) 541-5000,Acute Care Hospitals,Voluntary non-profit - Private,23230,501 s ragsdale
102165,USA,75835,crockett medical center,tx,crockett,HOUSTON,(936) 546-3890,Critical Access Hospitals,Proprietary,65863,1100 e loop 304
102166,USA,75901,chi st lukes health memorial lufkin,tx,lufkin,ANGELINA,(936) 634-8111,Acute Care Hospitals,Voluntary non-profit - Private,54465,1201 westfrank street
102167,USA,75904,oceans behavioral hospital of lufkin llc,tx,lufkin,ANGELINA,(936) 632-2276,Psychiatric,Proprietary,51492,302 gobblers knob rd
102168,USA,75904,woodland heights medical center,tx,lufkin,ANGELINA,(936) 634-8311,Acute Care Hospitals,Proprietary,43803,505 southjohn redditt drive
102169,USA,75951,christus jasper memorial hospital,tx,jasper,JASPER,(409) 384-5461,Acute Care Hospitals,Voluntary non-profit - Private,24730,1275 marvin hancockdrive
102170,USA,75961,memorial hospital,tx,nacogdoches,NACOGDOCHES,(936) 564-4611,Acute Care Hospitals,Government - Hospital District or Authority,76826,1204 moundst
102171,USA,76012,texas health heart  vascular hospital arlington,tx,arlington,TARRANT,(817) 960-3500,Acute Care Hospitals,Proprietary,32164,811 wrightstreet
102172,USA,76015,medical city arlington,tx,arlington,TARRANT,(817) 465-3241,Acute Care Hospitals,Proprietary,37683,3301 matlock road
102173,USA,76017,usmd hospital at arlington l p,tx,arlington,TARRANT,(817) 472-3400,Acute Care Hospitals,Physician,64068,801 w interstate 20
102174,USA,76020,texas health harris methodist hospital azle,tx,azle,TARRANT,(817) 444-8700,Acute Care Hospitals,Voluntary non-profit - Church,10812,108 denvertrail
102175,USA,76022,texas health heb,tx,bedford,TARRANT,(817) 848-4000,Acute Care Hospitals,Voluntary non-profit - Private,10885,1600 hospital parkway
102176,USA,76028,baylor scott and white emergency hospital burleson,tx,burleson,JOHNSON,(214) 294-6250,Acute Care Hospitals,Proprietary,13144,12500 south freewaysuite 100
102177,USA,76028,texas health huguley hospital fort worth south,tx,burleson,JOHNSON,(817) 568-5317,Acute Care Hospitals,Voluntary non-profit - Church,78528,11801 south freeway
102178,USA,76033,texas health harris methodist hospital cleburne,tx,cleburne,JOHNSON,(817) 641-2551,Acute Care Hospitals,Voluntary non-profit - Church,74845,201 wallsdrive
102179,USA,76048,lake granbury medical center,tx,granbury,HOOD,(817) 573-2683,Acute Care Hospitals,Proprietary,74040,1310 paluxy rd
102180,USA,76054,saint camillus medical center,tx,hurst,TARRANT,(817) 519-3700,Acute Care Hospitals,Proprietary,36292,1612 hursttown center drive
102181,USA,76063,methodist mansfield medical center,tx,mansfield,TARRANT,(682) 622-2059,Acute Care Hospitals,Voluntary non-profit - Private,81784,2700 e broad street
102182,USA,76067,palo pinto general hospital,tx,mineral wells,PALO PINTO,(940) 325-7891,Acute Care Hospitals,Government - Hospital District or Authority,40421,400 southwest 25 ave
102183,USA,76086,medical city weatherford,tx,weatherford,PARKER,(817) 599-1190,Acute Care Hospitals,Proprietary,61947,713 e anderson st
102184,USA,76092,texas health harris methodist hospital southlake,tx,southlake,TARRANT,(817) 748-8700,Acute Care Hospitals,Government - State,34350,1545 e southlake blvd
102185,USA,76104,cook childrens medical center,tx,fort worth,TARRANT,(682) 885-4000,Childrens,Voluntary non-profit - Private,73932,801 seventh avenue
102186,USA,76104,texas health harris methodist fort worth,tx,fort worth,TARRANT,(817) 250-2100,Acute Care Hospitals,Voluntary non-profit - Church,61255,1301 pennsylvania avenue
102187,USA,76110,baylor scott and white surgical hospital fortworth,tx,fort worth,TARRANT,(682) 703-5600,Acute Care Hospitals,Physician,91736,1800 parkplace avenue
102188,USA,76132,usmd hospital at fort worth lp,tx,fort worth,TARRANT,(817) 433-9100,Acute Care Hospitals,Proprietary,86129,5900 altamesa blvd
102189,USA,76177,wise health system,tx,fort worth,TARRANT,(817) 502-7300,Acute Care Hospitals,Government - Hospital District or Authority,39920,3200 northtarrant parkway
102190,USA,76180,medical city north hills,tx,north richland hills,TARRANT,(817) 255-1000,Acute Care Hospitals,Proprietary,34171,4401 boothcallowayroad
102191,USA,76201,texas health presbyterian hospital denton,tx,denton,DENTON,(940) 898-7000,Acute Care Hospitals,Voluntary non-profit - Private,88629,3000 n i35
102192,USA,76201,university behavioral health,tx,denton,DENTON,(940) 320-8100,Psychiatric,Government - State,90589,2026 westuniversitydrive
102193,USA,76208,the heart hospital baylor denton,tx,denton,DENTON,(940) 220-0600,Acute Care Hospitals,Physician,40524,2801 southmayhill road
102194,USA,76210,medical city denton,tx,denton,DENTON,(940) 384-3535,Acute Care Hospitals,Proprietary,90655,3535 southi35 east
102195,USA,76227,baylor scott and white emergency hospital aubrey,tx,aubrey,DENTON,(972) 347-2525,Acute Care Hospitals,Proprietary,23853,26791 highway 380
102196,USA,76234,wise regional health system,tx,decatur,WISE,(940) 627-5921,Acute Care Hospitals,Government - Hospital District or Authority,70311,609 medical center drive
102197,USA,76240,north texas medical center,tx,gainesville,COOKE,(940) 612-8600,Acute Care Hospitals,Government - Hospital District or Authority,87872,1900 hospital blvd
102198,USA,76244,texas health harris methodist hospital alliance,tx,fort worth,TARRANT,(682) 212-2000,Acute Care Hospitals,Voluntary non-profit - Private,42536,10864 texas health trail
102199,USA,76255,nocona general hospital,tx,nocona,MONTAGUE,(940) 825-3235,Acute Care Hospitals,Government - Hospital District or Authority,91612,100 park road
102200,USA,76262,baylor medical center at trophy club,tx,trophy club,DENTON,(817) 837-4600,Acute Care Hospitals,Proprietary,89634,2850 e state highway114
102201,USA,76301,red river hospital,tx,wichita falls,WICHITA,(940) 322-3171,Psychiatric,Proprietary,67731,1505 8th st
102202,USA,76301,united regional health care system,tx,wichita falls,WICHITA,(940) 764-3055,Acute Care Hospitals,Voluntary non-profit - Private,50408,1600 11thstreet
102203,USA,76365,clay county memorial hospital,tx,henrietta,CLAY,(940) 538-5621,Critical Access Hospitals,Government - Local,16005,310 w south street
102204,USA,76384,wilbarger general hospital,tx,vernon,WILBARGER,(940) 552-9351,Acute Care Hospitals,Government - Hospital District or Authority,90914,920 hillcrest dr
102205,USA,76442,comanche county medical center,tx,comanche,COMANCHE,(254) 879-4900,Critical Access Hospitals,Voluntary non-profit - Private,40715,10201 hwy16
102206,USA,76448,eastland memorial hospital,tx,eastland,EASTLAND,(254) 629-2601,Acute Care Hospitals,Government - Hospital District or Authority,50912,304 s daugherty
102207,USA,76458,faith community hospital,tx,jacksboro,JACK,(940) 567-6633,Acute Care Hospitals,Government - Hospital District or Authority,26496,215 chisholm trail
102208,USA,76508,baylor scott  white clinic  temple,tx,temple,BELL,(254) 724-2111,Acute Care Hospitals,Voluntary non-profit - Private,66452,2401 s 31st st
102209,USA,76542,adventhealth central texas,tx,killeen,BELL,(254) 526-7523,Acute Care Hospitals,Voluntary non-profit - Church,31909,2201 s clear creek road
102210,USA,76544,darnall amc ft hood,tx,fort hood,BELL,(254) 288-8000,Acute Care - Department of Defense,Department of Defense,28302,36000 darnall loop
102211,USA,76574,baylor scott  white medical center taylor,tx,taylor,WILLIAMSON,(512) 352-7611,Critical Access Hospitals,Voluntary non-profit - Private,59556,305 mallard
102212,USA,76642,limestone medical center,tx,groesbeck,LIMESTONE,(254) 729-3281,Critical Access Hospitals,Government - Hospital District or Authority,54053,701 mcclintic drive
102213,USA,76661,falls community hospital and clinic,tx,marlin,FALLS,(254) 803-3561,Acute Care Hospitals,Voluntary non-profit - Private,93698,322 coleman street
102215,USA,76801,brownwood regional medical center,tx,brownwood,BROWN,(325) 646-8541,Acute Care Hospitals,Proprietary,81719,1501 burnet dr
102216,USA,76825,heart of texas memorial hospital,tx,brady,MC CULLOCH,(325) 597-2901,Critical Access Hospitals,Voluntary non-profit - Private,83654,2008 nineroad
102217,USA,76837,concho county hospital,tx,eden,CONCHO,(915) 869-5911,Critical Access Hospitals,Government - Hospital District or Authority,78335,614 eakerstreet
102218,USA,76849,kimble hospital,tx,junction,KIMBLE,(325) 446-3321,Critical Access Hospitals,Government - Hospital District or Authority,61415,349 reid road
102219,USA,76901,river crest hosp,tx,san angelo,TOM GREEN,(915) 949-5722,Psychiatric,Proprietary,51654,1636 hunters glen road
102220,USA,76903,shannon medical center,tx,san angelo,TOM GREEN,(325) 653-6741,Acute Care Hospitals,Voluntary non-profit - Private,87914,120 east harris avenue
102221,USA,76904,san angelo community medical center,tx,san angelo,TOM GREEN,(325) 949-9511,Acute Care Hospitals,Proprietary,81765,3501 knickerbocker road
102222,USA,76932,reagan memorial hospital,tx,big lake,REAGAN,(325) 844-2561,Critical Access Hospitals,Government - Hospital District or Authority,75976,1300 n main avenue
102223,USA,76950,lillian m hudspeth memorial hospital,tx,sonora,SUTTON,(325) 387-2521,Critical Access Hospitals,Government - Hospital District or Authority,90638,308 hudspeth
102224,USA,77002,st joseph medical center,tx,houston,HARRIS,(713) 757-1000,Acute Care Hospitals,Proprietary,73218,1401 st joseph parkway
102225,USA,77008,memorial hermann hospital system,tx,houston,HARRIS,(713) 448-6796,Acute Care Hospitals,Voluntary non-profit - Private,29507,1635 northloop west
102226,USA,77021,harris cty psychiatric ctr,tx,houston,HARRIS,(713) 741-5000,Psychiatric,Government - State,76058,2800 macgregor way
102227,USA,77024,memorial hermann memorial city medical center,tx,houston,HARRIS,(713) 242-3000,Acute Care Hospitals,Voluntary non-profit - Private,71407,921 gessner
102228,USA,77030,chi st lukes health baylor college of medicine me,tx,houston,HARRIS,(832) 355-1000,Acute Care Hospitals,Voluntary non-profit - Church,20050,7200 cambridge 11thfloor
102229,USA,77030,houston methodist hospital,tx,houston,HARRIS,(713) 790-2221,Acute Care Hospitals,Voluntary non-profit - Private,94904,6565 fannin
102230,USA,77030,texas childrens hosp,tx,houston,HARRIS,(832) 824-1000,Childrens,Voluntary non-profit - Private,11015,6621 fannin street
102232,USA,77054,womans hospital of texasthe,tx,houston,HARRIS,(713) 790-1234,Acute Care Hospitals,Proprietary,47908,7600 fannin
102233,USA,77070,first texas hospital,tx,houston,HARRIS,(844) 264-1435,Acute Care Hospitals,Proprietary,12954,9922 louetta rd
102234,USA,77070,houston methodist willowbrook hospital,tx,houston,HARRIS,(281) 477-1000,Acute Care Hospitals,Voluntary non-profit - Private,80993,18220 tomball parkway
102235,USA,77074,west oaks hospital,tx,houston,HARRIS,(713) 995-0909,Psychiatric,Proprietary,61499,6500 hornwood
102236,USA,77081,behavioral hospital of bellaire,tx,houston,HARRIS,(713) 600-9500,Psychiatric,Proprietary,48565,5314 dashwood suite200
102237,USA,77082,healthbridge childrenss hospital of houston,tx,houston,HARRIS,(281) 293-7774,Childrens,Proprietary,44849,2929 woodland park drive
102238,USA,77090,providence hospital of north houston llc,tx,houston,HARRIS,(281) 453-7916,Acute Care Hospitals,Proprietary,59672,16750 redoak drive
102239,USA,77091,united memorial medical center,tx,houston,HARRIS,(713) 691-1111,Acute Care Hospitals,Physician,30774,510 w tidwell
102240,USA,77094,houston methodist west hospital,tx,houston,HARRIS,(832) 522-1000,Acute Care Hospitals,Voluntary non-profit - Private,22907,18500 katyfreeway
102242,USA,77325,hca houston healthcare kingwood,tx,kingwood,HARRIS,(281) 359-7500,Acute Care Hospitals,Proprietary,76524,22999 us hwy 59
102243,USA,77327,cleveland emergency hospital,tx,cleveland,LIBERTY,(281) 592-5400,Acute Care Hospitals,Proprietary,11423,1017 s travis ave
102244,USA,77338,memorial hermann northeast hospital,tx,humble,HARRIS,(281) 540-7700,Acute Care Hospitals,Voluntary non-profit - Private,15859,18951 memorial north
102245,USA,77339,kingwood pines hospital,tx,kingwood,HARRIS,(281) 358-1495,Psychiatric,Proprietary,53304,2001 ladbrook
102246,USA,77351,memorial medical center livingston,tx,livingston,POLK,(936) 327-4381,Acute Care Hospitals,Voluntary non-profit - Private,39513,1717 hwy 59 bypass
102247,USA,77380,emil j freireich cancer center,tx,shenandoah,MONTGOMERY,(855) 353-2201,Acute Care Hospitals,Proprietary,18120,9201 pinecroft
102248,USA,77384,st lukes lakeside hospital,tx,the woodlands,MONTGOMERY,(936) 266-4055,Acute Care Hospitals,Voluntary non-profit - Other,24849,17400 st lukes way
102249,USA,77385,houston methodist the woodlands hospital,tx,the woodlands,MONTGOMERY,(936) 270-2000,Acute Care Hospitals,Voluntary non-profit - Private,34593,17201 interstate 45south
102250,USA,77414,matagorda regional medical center,tx,bay city,MATAGORDA,(979) 245-6383,Acute Care Hospitals,Government - Hospital District or Authority,84985,104 7th street
102251,USA,77429,lone star behavioral health cypress,tx,cypress,HARRIS,(281) 516-6186,Psychiatric,Proprietary,27227,16303 grant road
102252,USA,77450,oceans behavioral hospital of katy,tx,katy,HARRIS,(281) 492-8888,Psychiatric,Proprietary,15009,455 park grove lane
102253,USA,77465,palacios community medical center,tx,palacios,MATAGORDA,(361) 972-2511,Critical Access Hospitals,Voluntary non-profit - Private,33037,311 greenavenue
102254,USA,77469,oakbend medical center,tx,richmond,FORT BEND,(281) 341-3000,Acute Care Hospitals,Government - Hospital District or Authority,61216,1705 jackson st
102255,USA,77478,st lukes sugar land hospital,tx,sugar land,FORT BEND,(281) 637-7000,Acute Care Hospitals,Voluntary non-profit - Private,37007,1317 lakepointe parkway
102256,USA,77479,houston methodist sugarland hospital,tx,sugar land,FORT BEND,(281) 274-8000,Acute Care Hospitals,Voluntary non-profit - Private,56172,16655 southwest freeway
102257,USA,77479,memorial hermann sugar land hospital,tx,sugar land,FORT BEND,(281) 725-5000,Acute Care Hospitals,Voluntary non-profit - Private,13210,17500 w grand parkway south
102260,USA,77504,surgery specialty hospitals of america se houston,tx,pasadena,HARRIS,(713) 378-3000,Acute Care Hospitals,Proprietary,33419,4301 b vista
102261,USA,77514,bayside community hospital,tx,anahuac,CHAMBERS,(409) 267-3143,Critical Access Hospitals,Government - Hospital District or Authority,71048,200 hospital drive
102262,USA,77521,altus baytown hospital,tx,baytown,HARRIS,(281) 837-7600,Acute Care Hospitals,Physician,44577,1404 w baker road
102263,USA,77566,brazosport regional health system,tx,lake jackson,BRAZORIA,(979) 297-4411,Acute Care Hospitals,Voluntary non-profit - Private,58182,100 medical drive
102264,USA,77573,devereux texas treatment network,tx,league city,GALVESTON,(281) 335-1000,Psychiatric,Voluntary non-profit - Private,32489,1150 devereux dr
102265,USA,77575,liberty dayton regional medical center,tx,liberty,LIBERTY,(936) 336-7316,Critical Access Hospitals,Government - Hospital District or Authority,25274,1353 n travis st
102266,USA,77584,hca houston healthcare pearland,tx,pearland,BRAZORIA,(713) 770-7000,Acute Care Hospitals,Proprietary,81152,11100 shadow creek parkway
102268,USA,77598,houston physicians hospital,tx,webster,HARRIS,(281) 335-1700,Acute Care Hospitals,Physician,36014,333 n texas avenue
102269,USA,77640,the medical center of southeast texas,tx,port arthur,JEFFERSON,(409) 853-5900,Acute Care Hospitals,Physician,64920,2555 jimmyjohnson blvd
102270,USA,77701,baptist beaumont hospital,tx,beaumont,JEFFERSON,(409) 212-5012,Acute Care Hospitals,Voluntary non-profit - Private,81218,3080 college street
102271,USA,77702,christus southeast texas st elizabeth,tx,beaumont,JEFFERSON,(409) 892-7171,Acute Care Hospitals,Voluntary non-profit - Private,14517,2830 calder avenue
102272,USA,77802,st joseph regional health center,tx,bryan,BRAZOS,(979) 776-3912,Acute Care Hospitals,Voluntary non-profit - Private,21311,2801 franciscan dr
102273,USA,77842,college station medical center,tx,college station,BRAZOS,(979) 764-5151,Acute Care Hospitals,Proprietary,56287,1604 rockprairie road
102274,USA,77845,rock prairie behavioral health,tx,college station,BRAZOS,(979) 703-8848,Psychiatric,Proprietary,22252,3550 normand drive
102275,USA,77902,detar healthcare system,tx,victoria,VICTORIA,(361) 575-7441,Acute Care Hospitals,Proprietary,38030,506 e sanantonio st
102276,USA,77954,cuero regional hospital,tx,cuero,DE WITT,(361) 275-6191,Acute Care Hospitals,Government - Hospital District or Authority,46230,2550 n esplanade
102277,USA,78102,christus spohn hospital beeville,tx,beeville,BEE,(361) 354-2000,Acute Care Hospitals,Voluntary non-profit - Church,70961,1500 e houston hwy
102278,USA,78130,resolute health hospital,tx,new braunfels,COMAL,(469) 839-6778,Acute Care Hospitals,Proprietary,21085,555 creekside xing
102279,USA,78155,guadalupe regional medical center,tx,seguin,GUADALUPE,(830) 379-2411,Acute Care Hospitals,Voluntary non-profit - Other,12280,1215 e court st
102280,USA,78205,baptist medical center,tx,san antonio,BEXAR,(210) 297-8256,Acute Care Hospitals,Proprietary,72755,111 dallasstreet
102281,USA,78223,san antonio state hospital,tx,san antonio,BEXAR,(210) 531-7711,Psychiatric,Government - State,11765,6711 s newbraunfelsave
102282,USA,78229,christus santa rosa medical center,tx,san antonio,BEXAR,(210) 704-3342,Acute Care Hospitals,Voluntary non-profit - Church,73240,2827 babcock road
102283,USA,78234,brooke army medical center ft sam houston,tx,fort sam houston,BEXAR,(210) 916-4141,Acute Care - Department of Defense,Department of Defense,90781,3551 rogerbrooke drive
102284,USA,78240,foundation surgical hospital of san antonio,tx,san antonio,BEXAR,(210) 478-5400,Acute Care Hospitals,Proprietary,48789,9522 huebner road
102286,USA,78258,south texas spine and surgical hospital,tx,san antonio,BEXAR,(210) 404-0800,Acute Care Hospitals,Government - Hospital District or Authority,90448,18600 north hardy oak blvd
102287,USA,78259,laurel ridge treatment center,tx,san antonio,BEXAR,(512) 491-9400,Psychiatric,Proprietary,90654,17720 corporate woods drive
102288,USA,78363,christus spohn hospital kleberg,tx,kingsville,KLEBERG,(361) 595-1661,Acute Care Hospitals,Voluntary non-profit - Private,26133,1311 eastgeneral cavazos blvd
102289,USA,78377,refugio county memorial hospital,tx,refugio,REFUGIO,(361) 526-2321,Critical Access Hospitals,Government - Hospital District or Authority,92117,107 swiftstreet
102290,USA,78404,christus spohn hospital corpus christi,tx,corpus christi,NUECES,(361) 902-4103,Acute Care Hospitals,Voluntary non-profit - Private,30713,600 elizabeth street
102291,USA,78414,corpus christi medical centerthe,tx,corpus christi,NUECES,(361) 761-1501,Acute Care Hospitals,Proprietary,24610,6629 woodridge road
102292,USA,78414,south texas surgical hospital,tx,corpus christi,NUECES,(361) 993-2000,Acute Care Hospitals,Proprietary,24241,6130 parkway drive
102293,USA,78503,rio grande regional hospital,tx,mcallen,HIDALGO,(956) 632-6000,Acute Care Hospitals,Proprietary,41806,101 e ridge rd
102294,USA,78520,valley baptist medical center brownsville,tx,brownsville,CAMERON,(956) 544-1400,Acute Care Hospitals,Proprietary,24013,1040 w jefferson st
102295,USA,78526,valley regional medical center,tx,brownsville,CAMERON,(956) 350-7000,Acute Care Hospitals,Proprietary,89643,100 a alton gloor
102296,USA,78539,south texas health system,tx,edinburg,HIDALGO,(956) 632-4484,Acute Care Hospitals,Proprietary,33533,1102 w trenton road
102297,USA,78550,harlingen medical center,tx,harlingen,CAMERON,(956) 365-1000,Acute Care Hospitals,Proprietary,18216,5501 southexpressway 77
102298,USA,78550,palms behavioral health,tx,harlingen,CAMERON,(956) 245-9665,Psychiatric,Proprietary,74462,613 victoria lane
102299,USA,78550,rio grande state center,tx,harlingen,CAMERON,(956) 364-8000,Psychiatric,Government - State,48382,1401 rangerville road
102300,USA,78550,vhs harlingen hospital company llc,tx,harlingen,CAMERON,(956) 389-1100,Acute Care Hospitals,Proprietary,82053,2101 peasest
102301,USA,78582,starr county memorial hospital,tx,rio grande city,STARR,(956) 487-5561,Acute Care Hospitals,Government - Hospital District or Authority,28456,128 n fm rd 3167
102302,USA,78596,knapp medical center,tx,weslaco,HIDALGO,(956) 968-8567,Acute Care Hospitals,Voluntary non-profit - Private,21234,1401 easteight street
102303,USA,78611,seton highland lakes,tx,burnet,BURNET,(512) 715-3000,Critical Access Hospitals,Voluntary non-profit - Private,27531,highway 281 south
102304,USA,78613,baylor scott  white emergency medical center at c,tx,cedar park,WILLIAMSON,(512) 684-4911,Acute Care Hospitals,Government - Hospital District or Authority,57906,900 east whitestoneblvd
102305,USA,78626,georgetown behavioral health institute,tx,georgetown,WILLIAMSON,(248) 905-5091,Psychiatric,Proprietary,87245,3101 s austin avenue
102306,USA,78648,ascension seton edgar b davis,tx,luling,CALDWELL,(830) 875-7000,Critical Access Hospitals,Voluntary non-profit - Private,25903,130 hays street
102307,USA,78660,baylor scott  white medical center pflugerville,tx,pflugerville,TRAVIS,(512) 654-6100,Acute Care Hospitals,Voluntary non-profit - Private,68558,2600 eastpflugerville parkway
102308,USA,78664,scott  white hospitalround rock,tx,round rock,WILLIAMSON,(512) 509-0100,Acute Care Hospitals,Voluntary non-profit - Private,14240,300 university blvd
102309,USA,78664,seton medical center williamson,tx,round rock,WILLIAMSON,(512) 324-0000,Acute Care Hospitals,Voluntary non-profit - Private,52904,201 setonparkway
102310,USA,78666,central texas medical center,tx,san marcos,HAYS,(512) 753-3690,Acute Care Hospitals,Voluntary non-profit - Private,13259,1301 wonder world drive
102311,USA,78666,oceans behavioral hospital of san marcos,tx,san marcos,HAYS,(512) 353-0194,Psychiatric,Proprietary,51757,1106 n ih35
102312,USA,78701,dell seton med center at the university of tx,tx,austin,TRAVIS,(512) 324-7000,Acute Care Hospitals,Voluntary non-profit - Private,39941,601 e 15thstreet
102313,USA,78704,st davids south austin medical center,tx,austin,TRAVIS,(512) 448-7107,Acute Care Hospitals,Proprietary,82805,901 west ben white blvd
102314,USA,78705,ascension seton medical center austin,tx,austin,TRAVIS,(512) 324-1000,Acute Care Hospitals,Physician,82378,1201 w 38th st
102315,USA,78705,austin lakes hospital,tx,austin,TRAVIS,(512) 544-5253,Psychiatric,Proprietary,73015,1025 east32nd street
102316,USA,78705,st davids medical center,tx,austin,TRAVIS,(512) 476-7111,Acute Care Hospitals,Proprietary,13825,919 e 32ndst
102317,USA,78723,dell childrens medical center of central texas,tx,austin,TRAVIS,(512) 324-0000,Childrens,Voluntary non-profit - Private,68691,4900 mueller blvd
102318,USA,78731,northwest hills surgical hospital,tx,austin,TRAVIS,(512) 346-1994,Acute Care Hospitals,Proprietary,44643,6818 austin ctr blvdsuite 100
102319,USA,78737,seton southwest hospital,tx,austin,HAYS,(512) 324-9000,Acute Care Hospitals,Voluntary non-profit - Private,29553,7900 fm 1826
102320,USA,78745,texas star recovery,tx,austin,TRAVIS,(512) 444-4835,Psychiatric,Proprietary,63529,1106 westdittmar rd
102321,USA,78746,the hospital at westlake medical center,tx,austin,TRAVIS,(512) 327-0000,Acute Care Hospitals,Proprietary,26739,5656 bee caves roadsuite m302
102322,USA,78759,ascension seton northwest,tx,austin,TRAVIS,(512) 324-6000,Acute Care Hospitals,Voluntary non-profit - Private,87361,11113 research boulevard
102323,USA,78801,uvalde memorial hospital,tx,uvalde,UVALDE,(830) 278-6251,Critical Access Hospitals,Government - Hospital District or Authority,93311,1025 garner field road
102325,USA,78934,columbus community hospital,tx,columbus,COLORADO,(979) 732-2371,Acute Care Hospitals,Voluntary non-profit - Private,56452,110 shultdr
102326,USA,79027,plains memorial hospital,tx,dimmitt,CASTRO,(806) 647-2191,Critical Access Hospitals,Government - Hospital District or Authority,39534,310 west halsell street
102327,USA,79029,memorial hospital,tx,dumas,MOORE,(806) 935-7171,Critical Access Hospitals,Government - Hospital District or Authority,49485,224 e second street
102328,USA,79065,pampa regional medical center,tx,pampa,GRAY,(806) 665-3721,Acute Care Hospitals,Voluntary non-profit - Private,94411,1 medicalplaza
102329,USA,79070,ochiltree general hospital,tx,perryton,OCHILTREE,(806) 435-3606,Critical Access Hospitals,Government - Hospital District or Authority,77256,3101 garrett drive
102330,USA,79072,covenant hospital plainview,tx,plainview,HALE,(806) 296-5531,Acute Care Hospitals,Voluntary non-profit - Private,93134,2601 dimmitt rd
102331,USA,79088,swisher memorial hospital,tx,tulia,SWISHER,(806) 995-3581,Critical Access Hospitals,Voluntary non-profit - Private,89567,539 southeast 2nd
102332,USA,79095,collingsworth general hospital,tx,wellington,COLLINGSWORTH,(806) 447-2521,Critical Access Hospitals,Proprietary,33578,1013 15thst
102333,USA,79096,parkview hospital,tx,wheeler,WHEELER,(806) 826-5581,Critical Access Hospitals,Government - Hospital District or Authority,72250,901 s sweetwater
102334,USA,79106,northwest texas hospital,tx,amarillo,POTTER,(806) 354-1110,Acute Care Hospitals,Voluntary non-profit - Private,66104,1501 s coulter st
102335,USA,79201,childress regional medical center,tx,childress,CHILDRESS,(940) 937-6371,Acute Care Hospitals,Government - Hospital District or Authority,32135,hwy 83 north
102336,USA,79241,w j mangold memorial hospital,tx,lockney,FLOYD,(806) 652-3373,Critical Access Hospitals,Government - Hospital District or Authority,36776,320 northmain
102337,USA,79252,hardeman county memorial hospital,tx,quanah,HARDEMAN,(940) 663-2795,Critical Access Hospitals,Government - Hospital District or Authority,88688,402 mercerst
102338,USA,79316,brownfield regional medical center,tx,brownfield,TERRY,(806) 637-3551,Acute Care Hospitals,Government - Hospital District or Authority,37484,705 east felt street
102340,USA,79323,yoakum county hospital,tx,denver city,YOAKUM,(806) 592-2121,Critical Access Hospitals,Government - Local,16763,412 mustang avenue
102341,USA,79339,lamb healthcare center,tx,littlefield,LAMB,(806) 385-6411,Acute Care Hospitals,Government - Local,68227,1500 s sunset
102342,USA,79346,cochran memorial hospital,tx,morton,COCHRAN,(806) 266-5565,Critical Access Hospitals,Government - Hospital District or Authority,16656,205 e grant street
102343,USA,79360,memorial hospital,tx,seminole,GAINES,(432) 758-4854,Critical Access Hospitals,Government - Hospital District or Authority,60484,209 northwest 8th street
102344,USA,79412,grace medical center,tx,lubbock,LUBBOCK,(806) 788-4100,Acute Care Hospitals,Voluntary non-profit - Other,35921,2412 50thst
102345,USA,79501,anson general hospital,tx,anson,JONES,(325) 823-3231,Acute Care Hospitals,Government - Local,76591,101 avenuej
102346,USA,79502,stonewall memorial hospital,tx,aspermont,STONEWALL,(940) 989-3551,Critical Access Hospitals,Government - Hospital District or Authority,46128,821 northbroadway
102347,USA,79512,mitchell county hospital district,tx,colorado city,MITCHELL,(325) 728-3431,Critical Access Hospitals,Government - Hospital District or Authority,43031,997 west i20
102348,USA,79521,haskell memorial hospital,tx,haskell,HASKELL,(940) 864-2621,Critical Access Hospitals,Government - Hospital District or Authority,73872,1 north avenue n pobox 1117
102349,USA,79546,fisher county hospital district,tx,rotan,FISHER,(325) 735-2256,Critical Access Hospitals,Government - Hospital District or Authority,75224,774 statehighway 70n
102350,USA,79549,cogdell memorial hospital,tx,snyder,SCURRY,(325) 574-7437,Critical Access Hospitals,Government - Hospital District or Authority,72413,1700 cogdell blvd
102351,USA,79556,rolling plains memorial hospital,tx,sweetwater,NOLAN,(325) 235-1701,Acute Care Hospitals,Government - Hospital District or Authority,54768,200 e arizona
102352,USA,79567,north runnels hospital,tx,winters,RUNNELS,(325) 754-4553,Critical Access Hospitals,Government - Hospital District or Authority,85908,7821 easthighway 153
102353,USA,79601,hendrick medical center,tx,abilene,TAYLOR,(325) 670-2000,Acute Care Hospitals,Voluntary non-profit - Private,32926,1900 pine
102354,USA,79701,midland memorial hospital,tx,midland,MIDLAND,(432) 685-1111,Acute Care Hospitals,Government - Local,61114,400 rosalind redferngrover parkway
102355,USA,79706,oceans behavioral hospital of permian basin,tx,midland,MIDLAND,(432) 561-5915,Psychiatric,Proprietary,57716,3300 s fm1788
102357,USA,79720,scenic mountain medical center a steward family h,tx,big spring,HOWARD,(432) 263-1211,Acute Care Hospitals,Proprietary,93885,1601 w 11th place
102358,USA,79721,big spring state hospital,tx,big spring,HOWARD,(432) 268-7222,Psychiatric,Government - State,54729,1901 northhighway 87
102359,USA,79731,crane county hospital district,tx,crane,CRANE,(432) 558-3555,Critical Access Hospitals,Government - Hospital District or Authority,11381,1310 s alford st
102360,USA,79744,iraan general hospital,tx,iraan,PECOS,(432) 639-2575,Critical Access Hospitals,Government - Hospital District or Authority,19910,600 highway 349 north
102361,USA,79745,winkler county memorial hospital,tx,kermit,WINKLER,(432) 586-5865,Critical Access Hospitals,Government - Local,15233,821 jeffeedrive
102362,USA,79761,odessa regional medical center,tx,odessa,ECTOR,(432) 582-8340,Acute Care Hospitals,Proprietary,17446,520 e 6thstreet
102363,USA,79778,rankin hospital medical clinic,tx,rankin,UPTON,(432) 693-2443,Critical Access Hospitals,Government - Hospital District or Authority,45761,1611 spur576
102364,USA,79782,martin county hospital district,tx,stanton,MARTIN,(432) 756-3345,Critical Access Hospitals,Government - Hospital District or Authority,83032,600 e interstate 20po box 640
102365,USA,79855,culberson hospital,tx,van horn,CULBERSON,(432) 283-2760,Critical Access Hospitals,Proprietary,15150,eisenhowerroad andfm 2185
102366,USA,79902,el paso behavioral health system,tx,el paso,EL PASO,(915) 544-4000,Psychiatric,Proprietary,61509,1900 denver ave
102367,USA,79902,el paso ltac hosptial,tx,el paso,EL PASO,(915) 496-9687,Acute Care Hospitals,Physician,34599,1221 n cotton st 3rdfloor
102368,USA,79905,el paso childrens hospital,tx,el paso,EL PASO,(915) 521-7148,Childrens,Voluntary non-profit - Private,34640,4845 alameda avenue
102370,USA,79920,william beaumont amg ft bliss,tx,el paso,EL PASO,(915) 742-2121,Acute Care - Department of Defense,Department of Defense,28736,5005 n piedras st
102371,USA,79936,foundation surgical hospital of el paso,tx,el paso,EL PASO,(915) 598-4240,Acute Care Hospitals,Proprietary,93945,1416 george dieter
102372,USA,79938,the hospitals of providence east campus,tx,el paso,EL PASO,(915) 856-7349,Acute Care Hospitals,Proprietary,52202,3280 joe battle blvd
102373,USA,80012,medical center of aurora the,co,aurora,ARAPAHOE,(303) 873-5511,Acute Care Hospitals,Proprietary,91339,1501 s potomac st
102374,USA,80021,uchealth broomfield hospital,co,broomfield,JEFFERSON,(303) 460-6000,Acute Care Hospitals,Proprietary,30984,11820 destination drive
102375,USA,80026,good samaritan medical center,co,lafayette,BOULDER,(303) 689-4000,Acute Care Hospitals,Voluntary non-profit - Private,56445,200 exempla circle
102376,USA,80027,centennial peaks hospital,co,louisville,BOULDER,(303) 673-9990,Psychiatric,Government - Hospital District or Authority,45292,2255 s 88th st
102377,USA,80027,centura healthavista adventist hospital,co,louisville,BOULDER,(303) 673-1280,Acute Care Hospitals,Voluntary non-profit - Church,49844,100 healthpark dr
102378,USA,80045,university of colorado hospital authority,co,aurora,ADAMS,(720) 848-0000,Acute Care Hospitals,Government - Hospital District or Authority,41807,12605 e 16th ave
102379,USA,80109,castle rock adventist hospital,co,castle rock,DOUGLAS,(720) 455-2500,Acute Care Hospitals,Voluntary non-profit - Private,73701,2350 meadows blvd
102380,USA,80130,highlands behavioral health system,co,littleton,DOUGLAS,(720) 348-2801,Psychiatric,Proprietary,78911,8565 s poplar way
102381,USA,80138,parker adventist hospital,co,parker,DOUGLAS,(303) 269-4000,Acute Care Hospitals,Voluntary non-profit - Private,66837,9395 crowncrest blvd
102382,USA,80204,denver health medical center,co,denver,DENVER,(303) 602-4930,Acute Care Hospitals,Government - State,56834,777 bannock st
102383,USA,80206,national jewish health,co,denver,DENVER,(303) 388-4461,Acute Care Hospitals,Voluntary non-profit - Private,11300,1400 jackson st
102384,USA,80220,rose medical center,co,denver,DENVER,(303) 320-2121,Acute Care Hospitals,Proprietary,11705,4567 e 9thave
102385,USA,80228,centura healthst anthony hospital,co,lakewood,JEFFERSON,(720) 321-0000,Acute Care Hospitals,Voluntary non-profit - Church,26495,11600 west2nd plc
102387,USA,80229,north suburban medical center,co,thornton,ADAMS,(303) 451-7800,Acute Care Hospitals,Voluntary non-profit - Private,45834,9191 grantst
102388,USA,80303,foothills hospital,co,boulder,BOULDER,(303) 415-7000,Acute Care Hospitals,Voluntary non-profit - Private,50701,4747 arapahoe avenue
102389,USA,80459,middle park medical center,co,kremmling,GRAND,(970) 724-3442,Critical Access Hospitals,Government - Hospital District or Authority,76536,214 4th st
102390,USA,80487,uchealth yampa valley medical center,co,steamboat springs,ROUTT,(970) 879-1322,Acute Care Hospitals,Voluntary non-profit - Private,39574,1024 central park dr
102391,USA,80501,longmont united hospital,co,longmont,BOULDER,(303) 651-5111,Acute Care Hospitals,Voluntary non-profit - Private,18088,1950 mountain view ave
102392,USA,80504,longs peak hospital,co,longmont,BOULDER,(720) 718-3005,Acute Care Hospitals,Voluntary non-profit - Private,31943,1750 eastken prattboulevard
102393,USA,80517,estes park medical center,co,estes park,LARIMER,(970) 577-4470,Critical Access Hospitals,Government - Hospital District or Authority,64929,555 prospect ave
102394,USA,80524,poudre valley hospital,co,fort collins,LARIMER,(970) 495-7000,Acute Care Hospitals,Voluntary non-profit - Private,16323,1024 s lemay ave
102395,USA,80631,north colorado medical center,co,greeley,WELD,(970) 810-4121,Acute Care Hospitals,Voluntary non-profit - Private,68775,1801  16th st
102396,USA,80701,colorado plains medical center,co,fort morgan,MORGAN,(970) 867-3391,Acute Care Hospitals,Voluntary non-profit - Other,49573,1000 lincoln st
102397,USA,80723,east morgan county hospital,co,brush,MORGAN,(970) 842-6222,Critical Access Hospitals,Government - Hospital District or Authority,60811,2400 westedison street
102398,USA,80737,sedgwick county memorial hospital,co,julesburg,SEDGWICK,(970) 474-3323,Critical Access Hospitals,Government - Local,39683,900 cedarst
102399,USA,80759,yuma district hospital,co,yuma,YUMA,(970) 848-5405,Critical Access Hospitals,Government - Hospital District or Authority,87341,1000 w 8thave
